Origin Time       19/08/2012 19:04:56 UTC
Lat.              26.7°N	
Long.             92.6°E	
Depth (Km)         40.0
Magnitude         4.0
 Region           SONITPUR-ASSAM                                                   
 Above details taken from IMD 
    
Station Code      TZP
Station Lat.       26.619  N
Station Long.      92.797  E
Station Height(m)   76.0
Site Class        B   Vs30 between 375 m/sec to 700 m/sec *  
Record Time       19.08.2012 19:04:54.854 UTC
Sampling Rate     200. Hz
 Record Duration   65.070 Sec.
 Direction         N-S (N positive)
Max. Acceleration    -11.254 cm/sec**2
     
  * For reference see Site Classification link of website 
     
 Base Line Corrected and Low Pass Filtered (Cut Off at 35 Hz) Time History
 Acceleration data in cm/sec**2
    
[...]
       0.418
      -0.419
      -0.961
      -0.949
      -0.457
       0.181
       0.585
       0.552
       0.161
      -0.321
      -0.623
      -0.629
      -0.375
       0.030
       0.463
       0.776
       0.802
       0.445
      -0.191
      -0.780
      -0.941
      -0.504
       0.320
       1.031
       1.153
       0.567
      -0.393
      -1.158
      -1.296
      -0.785
      -0.001
       0.559
       0.602
       0.207
      -0.262
      -0.417
      -0.104
       0.492
       0.969
       0.982
       0.498
      -0.157
      -0.535
      -0.425
      -0.031
       0.190
      -0.061
      -0.639
      -1.044
      -0.831
      -0.002
       0.955
       1.397
       0.983
      -0.078
      -1.156
      -1.604
      -1.162
      -0.084
       1.062
       1.757
       1.767
       1.169
       0.224
      -0.731
      -1.359
      -1.415
      -0.882
      -0.052
       0.578
       0.622
       0.112
      -0.488
      -0.635
      -0.171
       0.532
       0.886
       0.591
      -0.119
      -0.690
      -0.694
      -0.153
       0.525
       0.882
       0.737
       0.242
      -0.294
      -0.628
      -0.675
      -0.493
      -0.215
       0.009
       0.082
       0.015
      -0.080
      -0.068
       0.104
       0.345
       0.481
       0.402
       0.169
      -0.014
       0.012
       0.189
       0.277
       0.094
      -0.265
      -0.484
      -0.320
       0.161
       0.622
       0.705
       0.272
      -0.500
      -1.196
      -1.391
      -0.918
      -0.002
       0.887
       1.339
       1.224
       0.672
      -0.062
      -0.695
      -0.962
      -0.705
      -0.030
       0.657
       0.844
       0.301
      -0.674
      -1.403
      -1.317
      -0.388
       0.820
       1.545
       1.347
       0.389
      -0.708
      -1.305
      -1.127
      -0.351
       0.585
       1.245
       1.362
       0.897
       0.039
      -0.840
      -1.321
      -1.154
      -0.428
       0.443
       0.962
       0.866
       0.300
      -0.290
      -0.481
      -0.183
       0.314
       0.593
       0.465
       0.106
      -0.146
      -0.141
      -0.038
      -0.084
      -0.318
      -0.515
      -0.422
      -0.007
       0.506
       0.791
       0.638
       0.090
      -0.565
      -0.949
      -0.832
      -0.281
       0.386
       0.814
       0.820
       0.459
      -0.054
      -0.472
      -0.604
      -0.391
       0.052
       0.466
       0.588
       0.329
      -0.147
      -0.539
      -0.623
      -0.395
      -0.022
       0.303
       0.455
       0.390
       0.140
      -0.173
      -0.370
      -0.315
      -0.010
       0.393
       0.667
       0.611
       0.152
      -0.551
      -1.124
      -1.167
      -0.564
       0.368
       1.066
       1.121
       0.564
      -0.197
      -0.689
      -0.683
      -0.299
       0.133
       0.343
       0.313
       0.233
       0.248
       0.289
       0.183
      -0.082
      -0.279
      -0.163
       0.240
       0.601
       0.547
      -0.015
      -0.793
      -1.288
      -1.126
      -0.335
       0.655
       1.284
       1.234
       0.598
      -0.234
      -0.844
      -0.985
      -0.644
      -0.018
       0.570
       0.821
       0.634
       0.163
      -0.312
      -0.576
      -0.575
      -0.382
      -0.108
       0.134
       0.264
       0.262
       0.176
       0.086
       0.044
       0.055
       0.092
       0.129
       0.149
       0.131
       0.048
      -0.104
      -0.267
      -0.332
      -0.217
       0.061
       0.358
       0.486
       0.317
      -0.124
      -0.644
      -0.946
      -0.791
      -0.176
       0.617
       1.164
       1.169
       0.656
      -0.042
      -0.499
      -0.463
      -0.020
       0.465
       0.602
       0.266
      -0.317
      -0.759
      -0.821
      -0.571
      -0.252
      -0.025
       0.142
       0.357
       0.592
       0.630
       0.265
      -0.429
      -1.042
      -1.101
      -0.467
       0.500
       1.166
       1.079
       0.281
      -0.727
      -1.326
      -1.166
      -0.361
       0.601
       1.172
       1.096
       0.537
      -0.100
      -0.478
      -0.509
      -0.303
      -0.008
       0.265
       0.438
       0.449
       0.277
      -0.012
      -0.289
      -0.427
      -0.369
      -0.163
       0.076
       0.226
       0.239
       0.154
       0.063
       0.036
       0.086
       0.160
       0.195
       0.165
       0.098
       0.035
      -0.005
      -0.027
      -0.039
      -0.042
      -0.035
      -0.029
      -0.032
      -0.045
      -0.059
      -0.075
      -0.099
      -0.131
      -0.160
      -0.150
      -0.060
       0.116
       0.298
       0.341
       0.156
      -0.180
      -0.438
      -0.408
      -0.080
       0.319
       0.485
       0.269
      -0.193
      -0.561
      -0.540
      -0.110
       0.440
       0.723
       0.538
       0.022
      -0.458
      -0.591
      -0.340
       0.060
       0.314
       0.293
       0.098
      -0.073
      -0.100
      -0.011
       0.095
       0.143
       0.107
      -0.025
      -0.253
      -0.505
      -0.604
      -0.370
       0.184
       0.768
       0.980
       0.646
       0.006
      -0.466
      -0.472
      -0.137
       0.153
       0.137
      -0.101
      -0.270
      -0.199
       0.004
       0.101
       0.002
      -0.119
      -0.005
       0.381
       0.751
       0.710
       0.128
      -0.686
      -1.181
      -0.989
      -0.207
       0.672
       1.146
       1.035
       0.522
      -0.074
      -0.519
      -0.701
      -0.570
      -0.156
       0.355
       0.646
       0.479
      -0.098
      -0.729
      -0.981
      -0.660
       0.037
       0.660
       0.845
       0.553
       0.031
      -0.427
      -0.676
      -0.705
      -0.523
      -0.126
       0.401
       0.828
       0.905
       0.574
       0.057
      -0.320
      -0.379
      -0.197
       0.011
       0.083
       0.017
      -0.083
      -0.113
      -0.055
       0.030
       0.083
       0.110
       0.156
       0.229
       0.258
       0.161
      -0.049
      -0.256
      -0.336
      -0.251
      -0.069
       0.092
       0.137
       0.036
      -0.147
      -0.289
      -0.287
      -0.140
       0.054
       0.185
       0.210
       0.145
       0.026
      -0.103
      -0.173
      -0.113
       0.093
       0.344
       0.456
       0.292
      -0.113
      -0.522
      -0.646
      -0.371
       0.118
       0.468
       0.447
       0.142
      -0.151
      -0.220
      -0.120
      -0.063
      -0.156
      -0.277
      -0.210
       0.109
       0.491
       0.650
       0.461
       0.067
      -0.269
      -0.393
      -0.349
      -0.253
      -0.127
       0.105
       0.477
       0.846
       0.943
       0.577
      -0.145
      -0.812
      -0.967
      -0.473
       0.349
       0.927
       0.851
       0.172
      -0.648
      -1.062
      -0.808
      -0.083
       0.611
       0.835
       0.522
      -0.014
      -0.381
      -0.429
      -0.305
      -0.235
      -0.276
      -0.291
      -0.126
       0.203
       0.486
       0.494
       0.187
      -0.211
      -0.389
      -0.207
       0.174
       0.432
       0.354
       0.002
      -0.351
      -0.455
      -0.270
       0.040
       0.248
       0.231
       0.033
      -0.179
      -0.243
      -0.122
       0.073
       0.172
       0.107
      -0.032
      -0.088
       0.011
       0.181
       0.263
       0.152
      -0.132
      -0.454
      -0.637
      -0.564
      -0.260
       0.126
       0.412
       0.505
       0.425
       0.252
       0.065
      -0.057
      -0.026
       0.198
       0.524
       0.724
       0.577
       0.072
      -0.541
      -0.903
      -0.816
      -0.377
       0.102
       0.343
       0.286
       0.092
      -0.043
      -0.053
      -0.004
       0.047
       0.154
       0.416
       0.783
       0.990
       0.729
      -0.045
      -0.971
      -1.490
      -1.273
      -0.503
       0.260
       0.518
       0.223
      -0.221
      -0.325
       0.070
       0.673
       1.002
       0.786
       0.173
      -0.395
      -0.548
      -0.277
       0.080
       0.153
      -0.151
      -0.587
      -0.806
      -0.636
      -0.181
       0.292
       0.552
       0.533
       0.337
       0.133
       0.025
      -0.001
      -0.032
      -0.114
      -0.205
      -0.231
      -0.192
      -0.175
      -0.251
      -0.363
      -0.343
      -0.063
       0.415
       0.839
       0.949
       0.677
       0.179
      -0.305
      -0.617
      -0.715
      -0.611
      -0.326
       0.061
       0.380
       0.448
       0.246
      -0.005
      -0.007
       0.314
       0.697
       0.759
       0.351
      -0.298
      -0.783
      -0.854
      -0.573
      -0.181
       0.125
       0.290
       0.321
       0.207
      -0.044
      -0.315
      -0.410
      -0.202
       0.221
       0.584
       0.610
       0.253
      -0.250
      -0.566
      -0.535
      -0.263
       0.017
       0.163
       0.192
       0.202
       0.253
       0.337
       0.399
       0.379
       0.245
       0.040
      -0.112
      -0.079
       0.143
       0.367
       0.323
      -0.115
      -0.781
      -1.277
      -1.237
      -0.597
       0.339
       1.095
       1.329
       0.996
       0.298
      -0.477
      -1.073
      -1.297
      -1.064
      -0.458
       0.274
       0.837
       1.029
       0.797
       0.240
      -0.401
      -0.777
      -0.609
       0.056
       0.772
       0.975
       0.458
      -0.421
      -1.007
      -0.871
      -0.121
       0.710
       1.061
       0.701
      -0.164
      -1.050
      -1.473
      -1.199
      -0.344
       0.697
       1.443
       1.559
       1.022
       0.140
      -0.624
      -0.921
      -0.726
      -0.304
       0.029
       0.151
       0.154
       0.161
       0.164
       0.085
      -0.055
      -0.089
       0.110
       0.455
       0.670
       0.521
       0.030
      -0.515
      -0.760
      -0.542
      -0.042
       0.324
       0.224
      -0.289
      -0.775
      -0.749
      -0.078
       0.899
       1.606
       1.615
       0.887
      -0.245
      -1.277
      -1.771
      -1.545
      -0.755
       0.182
       0.823
       0.961
       0.706
       0.330
       0.028
      -0.165
      -0.287
      -0.328
      -0.219
       0.084
       0.494
       0.792
       0.731
       0.215
      -0.564
      -1.164
      -1.143
      -0.393
       0.710
       1.501
       1.467
       0.592
      -0.623
      -1.495
      -1.581
      -0.925
       0.014
       0.702
       0.860
       0.580
       0.158
      -0.153
      -0.265
      -0.219
      -0.109
      -0.035
      -0.048
      -0.108
      -0.117
      -0.024
       0.110
       0.170
       0.123
       0.066
       0.109
       0.226
       0.248
       0.035
      -0.344
      -0.620
      -0.542
      -0.117
       0.363
       0.550
       0.344
      -0.026
      -0.210
      -0.067
       0.219
       0.324
       0.111
      -0.228
      -0.358
      -0.138
       0.221
       0.339
       0.038
      -0.446
      -0.638
      -0.264
       0.444
       0.890
       0.639
      -0.168
      -0.901
      -0.974
      -0.336
       0.513
       0.962
       0.772
       0.196
      -0.309
      -0.457
      -0.289
      -0.024
       0.174
       0.287
       0.339
       0.291
       0.074
      -0.275
      -0.562
      -0.569
      -0.248
       0.225
       0.589
       0.689
       0.537
       0.237
      -0.112
      -0.430
      -0.629
      -0.610
      -0.335
       0.126
       0.592
       0.840
       0.702
       0.163
      -0.575
      -1.160
      -1.250
      -0.724
       0.209
       1.069
       1.371
       0.936
       0.031
      -0.806
      -1.130
      -0.859
      -0.266
       0.254
       0.454
       0.349
       0.137
      -0.004
      -0.064
      -0.158
      -0.326
      -0.421
      -0.233
       0.256
       0.779
       0.979
       0.698
       0.089
      -0.513
      -0.842
      -0.841
      -0.628
      -0.336
      -0.003
       0.378
       0.728
       0.839
       0.545
      -0.062
      -0.617
      -0.740
      -0.336
       0.333
       0.853
       0.949
       0.615
       0.056
      -0.450
      -0.673
      -0.528
      -0.131
       0.238
       0.315
       0.052
      -0.317
      -0.449
      -0.164
       0.399
       0.859
       0.841
       0.247
      -0.642
      -1.307
      -1.322
      -0.658
       0.276
       0.896
       0.828
       0.161
      -0.623
      -0.992
      -0.741
      -0.109
       0.449
       0.628
       0.458
       0.198
       0.063
       0.059
       0.052
      -0.039
      -0.136
      -0.109
       0.037
       0.112
      -0.060
      -0.403
      -0.596
      -0.365
       0.229
       0.820
       1.036
       0.786
       0.280
      -0.187
      -0.445
      -0.512
      -0.488
      -0.456
      -0.458
      -0.506
      -0.554
      -0.478
      -0.134
       0.498
       1.222
       1.701
       1.683
       1.228
       0.726
       0.653
       1.216
       2.166
       2.953
       3.106
       2.515
       1.382
      -0.065
      -1.757
      -3.663
      -5.503
      -6.652
      -6.394
      -4.372
      -0.895
       3.172
       6.827
       9.317
      10.176
       9.078
       5.849
       0.805
      -4.904
      -9.478
     -11.254
      -9.644
      -5.549
      -0.905
       2.374
       3.385
       2.537
       1.040
       0.022
      -0.082
       0.461
       1.083
       1.300
       0.890
      -0.083
      -1.267
      -2.087
      -2.000
      -0.885
       0.719
       1.827
       1.624
       0.078
      -1.943
      -3.203
      -2.880
      -1.071
       1.292
       2.964
       3.003
       1.172
      -1.917
      -4.993
      -6.619
      -5.892
      -2.975
       0.889
       3.962
       4.911
       3.536
       0.894
      -1.315
      -1.776
      -0.391
       1.664
       2.761
       1.995
      -0.113
      -1.946
      -1.960
       0.119
       3.004
       4.685
       3.817
       0.622
      -3.318
      -6.120
      -6.677
      -5.071
      -2.222
       0.787
       3.212
       4.726
       5.219
       4.602
       2.841
       0.189
      -2.646
      -4.637
      -4.908
      -3.263
      -0.411
       2.357
       3.878
       3.781
       2.633
       1.445
       0.932
       1.071
       1.270
       0.930
      -0.079
      -1.361
      -2.291
      -2.370
      -1.418
       0.363
       2.396
       3.833
       3.847
       2.037
      -1.232
      -4.792
      -7.060
      -6.783
      -3.827
       0.541
       4.233
       5.578
       4.380
       1.981
       0.200
      -0.008
       0.851
       1.381
       0.514
      -1.645
      -3.938
      -5.042
      -4.366
      -2.335
      -0.022
       1.537
       1.921
       1.533
       1.286
       1.890
       3.209
       4.221
       3.756
       1.475
      -1.757
      -4.462
      -5.622
      -5.301
      -4.341
      -3.483
      -2.754
      -1.615
       0.340
       2.816
       4.871
       5.523
       4.415
       2.063
      -0.449
      -2.076
      -2.327
      -1.417
      -0.054
       1.003
       1.344
       1.044
       0.475
      -0.022
      -0.335
      -0.519
      -0.580
      -0.372
       0.268
       1.271
       2.257
       2.741
       2.477
       1.646
       0.705
       0.036
      -0.334
      -0.666
      -1.141
      -1.570
      -1.524
      -0.818
       0.153
       0.650
       0.239
      -0.705
      -1.189
      -0.416
       1.404
       2.998
       2.949
       0.924
      -1.853
      -3.451
      -2.768
      -0.423
       1.802
       2.445
       1.414
      -0.217
      -1.290
      -1.436
      -1.097
      -0.941
      -1.309
      -2.050
      -2.705
      -2.818
      -2.193
      -0.957
       0.580
       2.074
       3.174
       3.498
       2.768
       1.090
      -0.898
      -2.305
      -2.568
      -1.899
      -1.145
      -1.104
      -1.837
      -2.600
      -2.479
      -1.187
       0.691
       2.190
       2.725
       2.442
       1.946
       1.746
       1.938
       2.299
       2.551
       2.492
       1.946
       0.764
      -1.010
      -2.954
      -4.350
      -4.561
      -3.439
      -1.399
       0.868
       2.791
       4.119
       4.815
       4.821
       3.967
       2.173
      -0.214
      -2.333
      -3.233
      -2.603
      -1.167
      -0.229
      -0.636
      -2.041
      -3.158
      -2.819
      -0.903
       1.590
       3.307
       3.453
       2.151
       0.186
      -1.518
      -2.286
      -1.900
      -0.693
       0.563
       1.063
       0.503
      -0.679
      -1.608
      -1.620
      -0.719
       0.484
       1.252
       1.207
       0.503
      -0.361
      -0.876
      -0.798
      -0.220
       0.516
       1.001
       0.963
       0.433
      -0.248
      -0.631
      -0.458
       0.173
       0.893
       1.313
       1.215
       0.607
      -0.314
      -1.225
      -1.801
      -1.867
      -1.484
      -0.880
      -0.272
       0.236
       0.641
       0.966
       1.225
       1.419
       1.531
       1.519
       1.319
       0.881
       0.211
      -0.587
      -1.308
      -1.725
      -1.711
      -1.337
      -0.852
      -0.527
      -0.470
      -0.560
      -0.561
      -0.335
       0.035
       0.316
       0.325
       0.109
      -0.068
       0.073
       0.569
       1.112
       1.236
       0.694
      -0.297
      -1.158
      -1.356
      -0.778
       0.207
       1.002
       1.147
       0.558
      -0.417
      -1.148
      -1.028
       0.134
       1.879
       3.235
       3.265
       1.708
      -0.764
      -2.927
      -3.784
      -3.166
      -1.727
      -0.404
       0.208
       0.138
      -0.120
      -0.017
       0.684
       1.777
       2.749
       3.087
       2.557
       1.315
      -0.186
      -1.416
      -1.984
      -1.789
      -1.049
      -0.202
       0.290
       0.145
      -0.613
      -1.639
      -2.366
      -2.225
      -0.977
       1.021
       2.855
       3.543
       2.696
       0.838
      -0.922
      -1.657
      -1.237
      -0.331
       0.216
       0.073
      -0.400
      -0.616
      -0.375
      -0.030
      -0.062
      -0.516
      -0.892
      -0.601
       0.453
       1.716
       2.395
       2.050
       0.870
      -0.529
      -1.539
      -1.854
      -1.494
      -0.683
       0.269
       1.051
       1.416
       1.250
       0.626
      -0.191
      -0.826
      -0.984
      -0.633
      -0.046
       0.352
       0.266
      -0.265
      -0.878
      -1.111
      -0.704
       0.211
       1.140
       1.496
       0.971
      -0.231
      -1.487
      -2.126
      -1.852
      -0.921
       0.044
       0.475
       0.238
      -0.299
      -0.530
      -0.049
       1.031
       2.118
       2.549
       2.062
       0.936
      -0.278
      -1.148
      -1.533
      -1.478
      -1.067
      -0.401
       0.331
       0.840
       0.856
       0.301
      -0.600
      -1.380
      -1.563
      -0.956
       0.193
       1.307
       1.806
