Origin Time       02/10/2012 18:37:39 UTC
Lat.              26.9 N	
Long.             92.8 E	
Depth (Km)         35.0
Magnitude         5.1
 Region           Sonitpur-Assam                                                   
 Above details taken from IMD 
    
Station Code      TZP
Station Lat.       26.619  N
Station Long.      92.797  E
Station Height(m)   76.0
Site Class        B   Vs30 between 375 m/sec to 700 m/sec *  
Record Time       02.10.2012 18:37:31.559 UTC
Sampling Rate     200. Hz
 Record Duration   80.005 Sec.
 Direction         N-S (N positive)
Max. Acceleration    -39.892 cm/sec**2
     
  * For reference see Site Classification link of website 
     
 Base Line Corrected and Low Pass Filtered (Cut Off at 35 Hz) Time History
 Acceleration data in cm/sec**2
    
[...]
       3.950
       1.331
      -1.647
      -3.124
      -2.303
       0.019
       2.029
       2.227
       0.471
      -2.059
      -3.875
      -4.231
      -3.414
      -2.235
      -1.300
      -0.649
       0.098
       1.278
       2.787
       4.056
       4.450
       3.755
       2.346
       0.920
       0.061
      -0.064
       0.255
       0.495
       0.273
      -0.346
      -0.883
      -0.862
      -0.278
       0.373
       0.565
       0.220
      -0.272
      -0.492
      -0.386
      -0.246
      -0.367
      -0.740
      -1.057
      -0.996
      -0.521
       0.096
       0.532
       0.714
       0.860
       1.193
       1.580
       1.501
       0.480
      -1.360
      -3.190
      -4.009
      -3.381
      -1.746
      -0.031
       1.060
       1.442
       1.462
       1.413
       1.253
       0.772
      -0.043
      -0.864
      -1.246
      -0.991
      -0.291
       0.472
       1.057
       1.498
       1.966
       2.504
       2.861
       2.564
       1.255
      -0.912
      -3.121
      -4.248
      -3.603
      -1.517
       0.728
       1.694
       0.795
      -1.219
      -2.736
      -2.447
      -0.327
       2.375
       4.131
       4.275
       3.306
       2.217
       1.597
       1.338
       1.049
       0.579
       0.132
      -0.034
       0.066
       0.145
      -0.109
      -0.817
      -1.860
      -2.921
      -3.543
      -3.289
      -2.037
      -0.188
       1.479
       2.298
       2.166
       1.551
       1.037
       0.789
       0.426
      -0.586
      -2.340
      -4.206
      -5.135
      -4.371
      -2.060
       0.673
       2.296
       1.792
      -0.640
      -3.591
      -5.267
      -4.611
      -1.932
       1.348
       3.594
       3.876
       2.412
       0.350
      -0.925
      -0.602
       1.119
       3.208
       4.480
       4.304
       2.927
       1.243
       0.196
       0.155
       0.654
       0.735
      -0.269
      -2.098
      -3.641
      -3.740
      -2.070
       0.586
       2.869
       3.790
       3.392
       2.592
       2.315
       2.661
       2.867
       2.074
       0.143
      -2.248
      -4.190
      -5.147
      -5.060
      -4.079
      -2.401
      -0.377
       1.361
       2.109
       1.574
       0.249
      -0.771
      -0.520
       1.081
       3.111
       4.308
       3.926
       2.122
      -0.312
      -2.465
      -3.682
      -3.742
      -2.929
      -1.922
      -1.455
      -1.873
      -2.906
      -3.785
      -3.663
      -2.146
       0.358
       2.752
       3.877
       3.266
       1.441
      -0.489
      -1.583
      -1.568
      -0.769
       0.293
       1.249
       1.952
       2.373
       2.469
       2.128
       1.250
      -0.058
      -1.338
      -1.929
      -1.424
      -0.102
       1.141
       1.421
       0.586
      -0.612
      -1.085
      -0.295
       1.304
       2.636
       2.880
       2.052
       0.845
      -0.011
      -0.240
      -0.019
       0.317
       0.493
       0.341
      -0.158
      -0.778
      -1.066
      -0.651
       0.342
       1.203
       1.099
      -0.226
      -2.150
      -3.565
      -3.686
      -2.582
      -1.042
       0.044
       0.275
      -0.098
      -0.462
      -0.289
       0.532
       1.663
       2.581
       2.966
       2.925
       2.854
       3.007
       3.162
       2.744
       1.375
      -0.654
      -2.462
      -3.227
      -2.819
      -1.876
      -1.245
      -1.310
      -1.778
      -2.052
      -1.785
      -1.094
      -0.308
       0.381
       0.964
       1.386
       1.447
       1.010
       0.289
      -0.216
      -0.113
       0.491
       1.015
       0.841
      -0.187
      -1.612
      -2.713
      -3.063
      -2.809
      -2.442
      -2.286
      -2.192
      -1.723
      -0.620
       0.887
       2.224
       2.925
       2.968
       2.712
       2.567
       2.675
       2.841
       2.700
       1.991
       0.732
      -0.825
      -2.372
      -3.656
      -4.466
      -4.617
      -4.028
      -2.824
      -1.325
       0.126
       1.348
       2.359
       3.236
       3.941
       4.314
       4.250
       3.861
       3.427
       3.126
       2.786
       1.981
       0.457
      -1.487
      -3.103
      -3.765
      -3.487
      -2.897
      -2.658
      -2.897
      -3.133
      -2.753
      -1.540
       0.157
       1.701
       2.558
       2.536
       1.765
       0.587
      -0.545
      -1.184
      -1.086
      -0.428
       0.249
       0.452
       0.176
      -0.099
       0.101
       0.756
       1.356
       1.359
       0.643
      -0.431
      -1.338
      -1.781
      -1.832
      -1.760
      -1.764
      -1.820
      -1.761
      -1.418
      -0.713
       0.315
       1.457
       2.286
       2.296
       1.240
      -0.604
      -2.517
      -3.761
      -3.985
      -3.302
      -2.052
      -0.512
       1.149
       2.712
       3.798
       4.008
       3.272
       2.047
       1.119
       1.070
       1.855
       2.839
       3.292
       2.896
       1.863
       0.619
      -0.558
      -1.582
      -2.314
      -2.426
      -1.680
      -0.346
       0.755
       0.837
      -0.120
      -1.222
      -1.340
      -0.075
       1.821
       2.960
       2.373
       0.276
      -2.079
      -3.301
      -2.805
      -1.079
       0.804
       1.931
       2.007
       1.323
       0.428
      -0.222
      -0.497
      -0.600
      -0.870
      -1.491
      -2.302
      -2.853
      -2.689
      -1.675
      -0.166
       1.167
       1.773
       1.591
       1.002
       0.404
      -0.164
      -0.960
      -2.132
      -3.358
      -3.930
      -3.252
      -1.354
       1.015
       2.813
       3.312
       2.470
       0.882
      -0.561
      -1.114
      -0.554
       0.689
       1.754
       1.894
       1.005
      -0.253
      -0.905
      -0.385
       1.030
       2.404
       2.796
       1.885
       0.145
      -1.483
      -2.152
      -1.529
       0.116
       2.133
       3.811
       4.576
       4.090
       2.355
      -0.163
      -2.567
      -3.898
      -3.651
      -2.081
      -0.053
       1.434
       1.746
       0.848
      -0.757
      -2.299
      -3.097
      -2.864
      -1.835
      -0.636
       0.071
      -0.059
      -0.876
      -1.856
      -2.405
      -2.162
      -1.133
       0.374
       1.936
       3.181
       3.864
       3.881
       3.268
       2.179
       0.817
      -0.599
      -1.813
      -2.540
      -2.608
      -2.106
      -1.321
      -0.519
       0.186
       0.712
       0.874
       0.486
      -0.381
      -1.308
      -1.764
      -1.511
      -0.810
      -0.212
      -0.069
      -0.190
      -0.017
       0.802
       1.973
       2.690
       2.262
       0.680
      -1.303
      -2.624
      -2.568
      -1.240
       0.496
       1.608
       1.625
       0.910
       0.261
       0.223
       0.738
       1.351
       1.645
       1.496
       1.012
       0.379
      -0.240
      -0.720
      -0.982
      -1.050
      -1.103
      -1.382
      -1.962
      -2.593
      -2.823
      -2.365
      -1.378
      -0.363
       0.231
       0.353
       0.349
       0.618
       1.265
       2.009
       2.419
       2.245
       1.580
       0.761
       0.166
       0.072
       0.559
       1.402
       2.042
       1.850
       0.626
      -1.100
      -2.313
      -2.200
      -0.738
       1.249
       2.595
       2.550
       1.294
      -0.165
      -0.729
      -0.064
       1.133
       1.695
       0.928
      -0.867
      -2.668
      -3.529
      -3.252
      -2.445
      -1.981
      -2.281
      -3.013
      -3.402
      -2.879
      -1.485
       0.273
       1.916
       3.305
       4.499
       5.401
       5.645
       4.893
       3.218
       1.194
      -0.458
      -1.357
      -1.655
      -1.785
      -2.029
      -2.343
      -2.543
      -2.582
      -2.570
      -2.543
      -2.348
      -1.820
      -1.033
      -0.268
       0.276
       0.680
       1.138
       1.605
       1.668
       0.920
      -0.484
      -1.712
      -1.842
      -0.673
       1.054
       2.239
       2.282
       1.450
       0.566
       0.389
       1.173
       2.546
       3.686
       3.757
       2.451
       0.288
      -1.626
      -2.291
      -1.456
       0.228
       1.632
       1.834
       0.647
      -1.307
      -3.003
      -3.605
      -2.920
      -1.463
      -0.149
       0.207
      -0.649
      -2.198
      -3.372
      -3.202
      -1.529
       0.799
       2.497
       2.728
       1.597
      -0.014
      -1.056
      -0.905
       0.333
       1.925
       2.953
       2.861
       1.744
       0.202
      -1.102
      -1.833
      -2.054
      -1.981
      -1.706
      -1.135
      -0.192
       0.954
       1.905
       2.299
       2.047
       1.312
       0.320
      -0.741
      -1.671
      -2.231
      -2.259
      -1.805
      -1.124
      -0.495
      -0.044
       0.299
       0.719
       1.347
       2.135
       2.843
       3.192
       3.059
       2.530
       1.769
       0.822
      -0.390
      -1.863
      -3.286
      -4.067
      -3.672
      -2.027
       0.330
       2.462
       3.489
       3.031
       1.403
      -0.559
      -1.944
      -2.229
      -1.491
      -0.326
       0.479
       0.393
      -0.519
      -1.593
      -1.981
      -1.231
       0.373
       1.951
       2.540
       1.649
      -0.441
      -2.760
      -4.079
      -3.516
      -1.102
       2.083
       4.408
       4.641
       2.733
      -0.148
      -2.375
      -2.881
      -1.728
       0.078
       1.314
       1.326
       0.416
      -0.405
      -0.176
       1.240
       2.978
       3.778
       2.924
       0.789
      -1.439
      -2.589
      -2.259
      -1.017
       0.052
       0.084
      -1.014
      -2.561
      -3.625
      -3.673
      -2.821
      -1.586
      -0.457
       0.322
       0.742
       1.001
       1.461
       2.428
       3.759
       4.728
       4.463
       2.685
       0.075
      -2.130
      -2.966
      -2.348
      -1.053
      -0.191
      -0.492
      -1.774
      -2.942
      -2.682
      -0.528
       2.521
       4.503
       3.925
       0.984
      -2.491
      -4.367
      -3.704
      -1.282
       1.137
       2.144
       1.601
       0.538
       0.174
       0.919
       2.128
       2.741
       2.204
       0.895
      -0.260
      -0.556
      -0.062
       0.477
       0.215
      -1.149
      -3.078
      -4.461
      -4.337
      -2.643
      -0.353
       1.242
       1.620
       1.518
       2.281
       4.554
       7.527
       9.454
       9.052
       6.544
       3.470
       1.436
       0.922
       1.172
       1.194
       0.823
       0.783
       1.738
       3.364
       4.455
       4.010
       2.267
       0.681
       0.778
       2.819
       5.422
       6.522
       4.987
       1.588
      -1.541
      -2.582
      -1.426
       0.422
       1.303
       0.844
       0.120
       0.560
       2.668
       5.602
       7.769
       7.820
       5.319
       0.796
      -4.626
      -9.702
     -13.470
     -15.532
     -16.225
     -16.559
     -17.755
     -20.476
     -24.186
     -27.205
     -27.578
     -24.293
     -17.990
     -10.623
      -4.245
       0.191
       3.139
       5.700
       8.490
      11.111
      12.643
      12.648
      11.726
      11.041
      11.218
      11.599
      10.603
       6.964
       0.852
      -6.024
     -11.320
     -13.252
     -11.328
      -6.487
      -0.839
       2.930
       2.533
      -2.739
     -11.338
     -19.899
     -24.765
     -23.714
     -16.872
      -6.447
       4.368
      12.649
      16.656
      16.186
      12.363
       7.030
       2.026
      -1.344
      -2.475
      -1.277
       2.123
       7.481
      14.260
      21.446
      27.726
      31.985
      33.740
      33.176
      30.859
      27.443
      23.549
      19.742
      16.393
      13.335
       9.625
       3.875
      -4.752
     -15.473
     -25.632
     -31.780
     -31.643
     -25.695
     -17.134
     -10.142
      -7.526
      -9.260
     -12.732
     -14.364
     -11.568
      -4.069
       5.891
      14.555
      18.576
      16.959
      11.765
       6.841
       5.249
       7.146
       9.664
       8.902
       2.678
      -7.812
     -18.521
     -24.850
     -24.253
     -17.588
      -8.483
      -1.198
       1.662
       0.238
      -3.198
      -5.932
      -6.398
      -4.836
      -2.858
      -2.356
      -4.344
      -8.257
     -12.102
     -13.503
     -11.220
      -6.179
      -1.160
       0.878
      -1.228
      -6.030
     -10.374
     -11.326
      -7.767
      -0.821
       6.805
      12.057
      12.913
       9.524
       4.483
       1.644
       3.815
      10.734
      18.944
      23.935
      23.180
      17.821
      11.649
       8.169
       8.159
       9.617
       9.834
       7.562
       3.524
      -0.819
      -4.779
      -8.816
     -13.534
     -18.415
     -21.591
     -21.015
     -16.042
      -8.057
       0.424
       7.351
      12.040
      14.823
      16.047
      15.527
      12.971
       8.974
       5.493
       4.904
       8.015
      12.799
      15.482
      13.511
       7.852
       2.330
       0.446
       2.504
       5.546
       5.872
       1.803
      -5.525
     -13.522
     -20.198
     -25.235
     -29.515
     -33.779
     -37.673
     -39.892
     -39.078
     -34.600
     -26.704
     -16.326
      -5.006
       5.156
      11.965
      14.163
      12.322
       8.687
       5.817
       4.993
       5.649
       6.176
       5.290
       2.849
      -0.256
      -2.716
      -3.386
      -1.668
       2.216
       7.028
      10.660
      10.865
       6.437
      -1.780
     -10.867
     -17.046
     -17.579
     -12.213
      -3.318
       5.359
      10.622
      11.419
       9.262
       7.235
       8.095
      12.607
      19.100
      24.500
      26.143
      23.268
      17.351
      11.172
       7.218
       6.364
       7.611
       9.043
       9.308
       8.481
       7.637
       7.606
       8.149
       8.287
       7.244
       4.948
       1.708
      -2.212
      -6.368
      -9.524
      -9.723
      -5.647
       1.637
       8.287
       9.591
       3.162
      -9.002
     -21.393
     -28.443
     -28.010
     -22.230
     -15.235
      -9.870
      -6.240
      -2.952
       0.564
       3.068
       2.730
      -0.819
      -5.739
      -9.298
      -9.955
      -8.344
      -6.397
      -5.549
      -5.579
      -4.977
      -2.394
       2.041
       6.553
       8.774
       7.213
       2.047
      -5.238
     -12.894
     -19.653
     -24.649
     -26.936
     -25.439
     -19.618
     -10.277
       0.352
       9.558
      15.563
      18.393
      19.519
      20.480
      21.531
      21.454
      18.790
      13.395
       6.862
       1.360
      -1.976
      -3.507
      -4.080
      -3.785
      -1.984
       1.411
       5.008
       6.717
       5.696
       3.480
       2.955
       5.944
      11.536
      16.690
      18.582
      16.725
      13.057
      10.014
       8.372
       6.843
       3.689
      -1.254
      -6.086
      -8.252
      -6.543
      -1.986
       2.951
       6.054
       6.595
       5.361
       3.703
       2.449
       1.466
       0.059
      -2.291
      -5.532
      -9.193
     -12.741
     -15.687
     -17.466
     -17.382
     -14.862
      -9.922
      -3.523
       2.494
       6.023
       5.672
       1.567
      -4.671
     -10.890
     -15.644
     -18.672
     -20.295
     -20.499
     -18.704
     -14.418
      -8.095
      -1.358
       3.666
       5.477
       4.020
       0.667
      -2.630
      -4.457
      -4.611
      -3.887
      -3.213
      -2.836
      -2.210
      -0.557
       2.445
       6.459
      10.720
      14.301
      16.165
      15.341
      11.553
       5.956
       1.027
      -0.774
       1.300
       5.715
       9.848
      11.979
      12.380
      12.551
      13.343
      13.776
      11.791
       6.382
      -0.879
      -6.485
      -7.477
      -3.746
       1.796
       5.334
       4.855
       1.286
      -2.661
      -4.771
      -4.779
      -4.000
      -3.781
      -4.307
      -4.700
      -4.072
      -2.381
      -0.301
       1.610
       3.425
       5.503
       7.738
       9.371
       9.587
       8.157
       5.351
       1.300
      -4.206
     -11.015
     -17.718
     -21.754
     -20.854
     -14.829
      -6.187
       1.169
       4.333
       3.108
      -0.266
      -2.991
      -3.580
      -2.344
      -0.505
       0.993
       1.966
       2.628
       2.993
       2.663
       1.116
      -1.800
      -5.599
      -9.300
     -11.914
     -12.920
     -12.376
     -10.603
      -7.817
      -4.090
       0.355
       4.920
       8.851
      11.728
      13.700
      15.113
      15.881
      15.354
      13.013
       9.378
       6.088
       4.771
       5.581
       6.865
       6.464
       3.599
      -0.435
      -3.460
      -4.362
      -3.910
      -3.692
      -4.329
      -4.868
      -3.942
      -1.432
       1.124
       1.809
       0.024
      -3.013
      -5.336
      -5.726
      -4.271
      -1.827
       0.743
       2.747
       3.411
       1.913
      -2.007
      -7.352
     -11.913
     -13.369
     -10.776
      -5.302
       0.448
       4.058
       4.663
       3.134
       1.166
       0.142
       0.522
       1.848
       3.071
       2.988
       0.836
      -3.054
      -6.982
      -8.493
      -5.807
       0.777
       8.648
      14.252
      15.249
      11.911
       6.725
       2.585
       1.023
       1.688
       3.132
       4.014
       3.845
       3.021
       2.279
       1.986
       1.733
       0.664
      -1.583
      -4.145
      -5.274
      -3.750
      -0.220
       2.853
       2.786
      -1.369
      -8.042
     -14.061
     -16.531
     -14.373
      -8.672
      -1.876
       3.500
       5.971
       5.517
       3.264
       0.698
      -1.091
      -1.720
      -1.390
      -0.572
       0.266
       0.827
       0.992
       0.724
       0.005
      -1.058
      -2.067
      -2.332
      -1.200
       1.452
       4.909
       7.846
       9.062
       8.223
       6.057
       3.826
       2.510
       2.288
       2.582
       2.481
       1.186
      -1.693
      -5.949
     -10.654
     -14.243
     -15.010
     -11.978
      -5.662
       1.890
       8.016
      10.805
       9.968
       6.668
       2.528
      -1.355
      -4.783
      -8.095
     -11.487
     -14.469
     -15.859
     -14.404
      -9.753
      -3.137
       2.898
       5.779
       4.486
       0.343
      -3.669
      -4.771
      -2.182
       2.441
       6.272
       7.302
       5.629
       3.171
       2.159
       3.562
       6.539
       9.214
      10.066
       8.919
       6.870
       5.353
       5.138
       5.997
       7.135
       7.854
       7.906
       7.430
       6.691
       5.830
       4.708
       2.987
       0.478
      -2.455
      -4.876
      -5.795
      -4.851
      -2.577
      -0.013
       1.955
       2.889
       2.565
       0.674
      -2.931
