Origin Time       19/08/2012 09:24:49
Lat.              26.7°N	
Long.             92.5°E	
Depth (Km)         35.0
Magnitude         5.0
 Region           TEZPUR-ASSAM                                                     
 Above details taken from IMD 
     
Station Code      TZP
Station Lat.       26.619  N
Station Long.      92.797  E
Station Height(m)   76.0
Site Class        B   Vs30 between 375 m/sec to 700 m/sec *  
Record Time       19.08.2012 09:24:42.139
Sampling Rate     200. Hz
 Record Duration   74.495 Sec.
 Direction         E-W (E positive)
Max. Acceleration    -16.630 cm/sec**2
     
  * For reference see Site Classification link of website 
     
 Base Line Corrected and Low Pass Filtered (Cut Off at 35 Hz) Time History
 Acceleration data in cm/sec**2
    
[...]
       0.123
      -0.969
      -1.989
      -2.290
      -1.544
      -0.031
       1.467
       2.143
       1.667
       0.351
      -1.114
      -2.115
      -2.387
      -1.978
      -1.037
       0.289
       1.747
       2.869
       3.141
       2.395
       1.036
      -0.201
      -0.793
      -0.784
      -0.605
      -0.567
      -0.578
      -0.382
      -0.029
       0.000
      -0.753
      -2.143
      -3.350
      -3.470
      -2.244
      -0.285
       1.357
       1.871
       1.137
      -0.283
      -1.540
      -2.039
      -1.738
      -0.991
      -0.135
       0.708
       1.455
       1.867
       1.660
       0.843
      -0.132
      -0.610
      -0.211
       0.815
       1.676
       1.603
       0.542
      -0.713
      -1.174
      -0.579
       0.373
       0.713
       0.112
      -0.861
      -1.299
      -0.753
       0.432
       1.459
       1.750
       1.331
       0.636
       0.018
      -0.505
      -1.047
      -1.516
      -1.543
      -0.813
       0.529
       1.804
       2.265
       1.755
       0.889
       0.491
       0.818
       1.381
       1.522
       1.077
       0.416
      -0.079
      -0.493
      -1.285
      -2.733
      -4.456
      -5.527
      -5.166
      -3.437
      -1.272
       0.258
       0.772
       0.731
       0.868
       1.525
       2.447
       3.065
       2.923
       1.969
       0.584
      -0.644
      -1.268
      -1.201
      -0.648
       0.078
       0.668
       0.858
       0.561
       0.020
      -0.279
       0.006
       0.695
       1.131
       0.694
      -0.603
      -1.981
      -2.424
      -1.518
       0.133
       1.336
       1.234
      -0.067
      -1.651
      -2.475
      -2.009
      -0.425
       1.636
       3.478
       4.645
       4.993
       4.579
       3.566
       2.205
       0.827
      -0.247
      -0.856
      -1.060
      -1.070
      -1.105
      -1.271
      -1.536
      -1.775
      -1.832
      -1.576
      -0.986
      -0.267
       0.183
       0.016
      -0.748
      -1.674
      -2.237
      -2.238
      -1.907
      -1.639
      -1.617
      -1.663
      -1.429
      -0.726
       0.278
       1.199
       1.745
       1.937
       2.049
       2.337
       2.796
       3.120
       2.865
       1.734
      -0.184
      -2.339
      -3.920
      -4.263
      -3.230
      -1.312
       0.628
       1.831
       2.050
       1.612
       1.097
       0.871
       0.864
       0.749
       0.322
      -0.295
      -0.789
      -0.933
      -0.710
      -0.234
       0.368
       0.948
       1.297
       1.199
       0.600
      -0.268
      -0.988
      -1.256
      -1.128
      -0.965
      -1.092
      -1.463
      -1.664
      -1.288
      -0.313
       0.867
       1.742
       2.028
       1.775
       1.268
       0.856
       0.788
       1.039
       1.236
       0.868
      -0.219
      -1.504
      -2.121
      -1.692
      -0.783
      -0.398
      -0.944
      -1.792
      -1.919
      -0.968
       0.368
       0.941
       0.148
      -1.544
      -2.951
      -3.074
      -1.815
       0.058
       1.617
       2.479
       2.894
       3.254
       3.597
       3.633
       3.147
       2.294
       1.446
       0.826
       0.342
      -0.210
      -0.851
      -1.371
      -1.561
      -1.441
      -1.258
      -1.266
      -1.501
      -1.721
      -1.555
      -0.795
       0.356
       1.299
       1.435
       0.659
      -0.501
      -1.326
      -1.499
      -1.272
      -1.047
      -0.898
      -0.525
       0.349
       1.582
       2.633
       2.942
       2.321
       1.084
      -0.139
      -0.793
      -0.755
      -0.385
      -0.167
      -0.256
      -0.409
      -0.395
      -0.392
      -0.839
      -1.874
      -3.010
      -3.486
      -2.932
      -1.679
      -0.432
       0.334
       0.661
       0.889
       1.226
       1.566
       1.669
       1.458
       1.104
       0.850
       0.830
       1.033
       1.377
       1.758
       2.060
       2.192
       2.144
       1.984
       1.730
       1.269
       0.468
      -0.591
      -1.516
      -1.843
      -1.443
      -0.692
      -0.195
      -0.275
      -0.728
      -1.069
      -1.028
      -0.787
      -0.753
      -1.086
      -1.476
      -1.376
      -0.510
       0.809
       1.856
       2.026
       1.232
      -0.134
      -1.539
      -2.537
      -2.816
      -2.247
      -1.043
       0.189
       0.739
       0.270
      -0.940
      -2.195
      -2.846
      -2.651
      -1.842
      -0.903
      -0.257
      -0.030
      -0.064
      -0.150
      -0.245
      -0.428
      -0.641
      -0.563
       0.144
       1.471
       2.967
       4.029
       4.254
       3.601
       2.377
       1.126
       0.418
       0.557
       1.407
       2.452
       3.016
       2.566
       1.048
      -0.913
      -2.278
      -2.289
      -1.075
       0.423
       1.171
       0.794
      -0.240
      -1.058
      -1.024
      -0.108
       1.164
       2.082
       2.163
       1.439
       0.434
      -0.179
      -0.053
       0.582
       1.102
       0.936
      -0.034
      -1.375
      -2.376
      -2.550
      -2.021
      -1.403
      -1.245
      -1.551
      -1.871
      -1.825
      -1.452
      -1.065
      -0.887
      -0.926
      -1.116
      -1.419
      -1.735
      -1.840
      -1.550
      -0.976
      -0.509
      -0.520
      -1.038
      -1.725
      -2.129
      -1.981
      -1.314
      -0.392
       0.472
       1.100
       1.540
       1.979
       2.530
       3.054
       3.215
       2.735
       1.634
       0.261
      -0.911
      -1.519
      -1.423
      -0.697
       0.414
       1.537
       2.265
       2.347
       1.841
       1.077
       0.408
       0.004
      -0.122
       0.039
       0.526
       1.254
       1.937
       2.280
       2.230
       1.952
       1.559
       0.978
       0.185
      -0.518
      -0.634
       0.022
       1.003
       1.524
       1.104
      -0.039
      -1.194
      -1.701
      -1.388
      -0.605
       0.078
       0.265
      -0.052
      -0.568
      -0.947
      -1.029
      -0.835
      -0.444
       0.060
       0.532
       0.738
       0.467
      -0.286
      -1.284
      -2.182
      -2.728
      -2.830
      -2.509
      -1.864
      -1.082
      -0.433
      -0.173
      -0.395
      -0.949
      -1.520
      -1.815
      -1.705
      -1.199
      -0.329
       0.826
       1.955
       2.502
       2.040
       0.752
      -0.571
      -1.130
      -0.781
      -0.084
       0.284
       0.149
      -0.092
       0.007
       0.432
       0.705
       0.401
      -0.344
      -0.848
      -0.487
       0.666
       1.810
       2.079
       1.290
       0.008
      -1.022
      -1.429
      -1.259
      -0.675
       0.191
       1.161
       1.940
       2.226
       1.898
       1.131
       0.364
       0.077
       0.482
       1.351
       2.170
       2.496
       2.212
       1.521
       0.754
       0.181
      -0.148
      -0.433
      -0.960
      -1.783
      -2.577
      -2.864
      -2.393
      -1.299
       0.021
       1.094
       1.520
       1.146
       0.179
      -0.913
      -1.694
      -1.953
      -1.643
      -0.782
       0.463
       1.653
       2.204
       1.757
       0.503
      -0.892
      -1.701
      -1.606
      -0.847
       0.009
       0.432
       0.171
      -0.688
      -1.752
      -2.494
      -2.551
      -1.948
      -1.032
      -0.141
       0.608
       1.224
       1.625
       1.612
       1.093
       0.283
      -0.365
      -0.462
       0.031
       0.789
       1.343
       1.361
       0.794
      -0.106
      -0.849
      -0.919
      -0.162
       0.957
       1.580
       1.107
      -0.294
      -1.792
      -2.479
      -1.948
      -0.485
       1.136
       2.085
       1.927
       0.882
      -0.272
      -0.662
       0.078
       1.512
       2.694
       2.823
       1.753
       0.011
      -1.611
      -2.513
      -2.515
      -1.821
      -0.855
      -0.093
       0.057
      -0.600
      -1.879
      -3.156
      -3.644
      -2.916
      -1.236
       0.636
       1.991
       2.551
       2.438
       1.939
       1.358
       0.969
       0.953
       1.314
       1.885
       2.421
       2.645
       2.289
       1.250
      -0.195
      -1.428
      -1.888
      -1.496
      -0.658
       0.139
       0.679
       0.991
       1.092
       0.844
       0.134
      -0.867
      -1.697
      -1.955
      -1.648
      -1.165
      -0.886
      -0.832
      -0.679
      -0.136
       0.666
       1.194
       1.011
       0.297
      -0.193
       0.207
       1.408
       2.552
       2.661
       1.377
      -0.807
      -2.914
      -4.108
      -4.080
      -3.033
      -1.459
       0.046
       0.930
       0.943
       0.335
      -0.295
      -0.476
      -0.202
       0.197
       0.474
       0.646
       0.798
       0.821
       0.467
      -0.354
      -1.375
      -2.088
      -2.069
      -1.267
      -0.016
       1.224
       2.165
       2.729
       2.878
       2.525
       1.642
       0.392
      -0.918
      -1.987
      -2.607
      -2.663
      -2.132
      -1.104
       0.179
       1.340
       1.987
       1.948
       1.432
       0.904
       0.728
       0.899
       1.082
       0.908
       0.271
      -0.581
      -1.242
      -1.455
      -1.260
      -0.862
      -0.427
      -0.028
       0.302
       0.580
       0.891
       1.252
       1.442
       1.134
       0.285
      -0.694
      -1.268
      -1.283
      -1.074
      -1.059
      -1.289
      -1.423
      -1.139
      -0.483
       0.203
       0.649
       0.846
       0.866
       0.599
      -0.195
      -1.529
      -2.943
      -3.718
      -3.426
      -2.286
      -0.960
       0.022
       0.649
       1.265
       2.074
       2.944
       3.711
       4.550
       5.853
       7.706
       9.591
      10.702
      10.548
       9.241
       7.308
       5.273
       3.344
       1.354
      -0.962
      -3.511
      -5.647
      -6.612
      -6.313
      -5.619
      -5.697
      -6.941
      -8.545
      -9.161
      -8.023
      -5.544
      -2.907
      -1.114
      -0.272
       0.350
       1.628
       3.859
       6.535
       8.681
       9.350
       7.994
       4.710
       0.376
      -3.591
      -5.969
      -6.518
      -6.039
      -5.541
      -5.323
      -4.937
      -4.018
      -3.023
      -3.059
      -4.942
      -8.340
     -11.762
     -13.386
     -12.128
      -8.272
      -3.325
       0.766
       2.559
       1.781
      -0.609
      -2.909
      -3.487
      -1.512
       2.699
       7.853
      12.223
      14.262
      13.105
       8.866
       2.678
      -3.633
      -8.207
      -9.844
      -8.386
      -4.644
       0.013
       4.180
       6.906
       8.000
       7.972
       7.547
       7.067
       6.345
       5.134
       3.676
       2.623
       2.335
       2.345
       1.761
       0.330
      -0.922
      -0.288
       3.117
       8.195
      12.188
      12.482
       8.618
       2.846
      -1.396
      -1.963
       0.560
       3.510
       4.156
       1.429
      -3.669
      -8.887
     -12.001
     -11.838
      -8.694
      -4.098
      -0.033
       2.062
       1.972
       0.629
      -0.714
      -1.439
      -1.906
      -2.980
      -5.169
      -8.063
     -10.468
     -11.088
      -9.279
      -5.409
      -0.679
       3.436
       5.792
       5.962
       4.327
       1.872
      -0.267
      -1.358
      -1.486
      -1.527
      -2.585
      -5.158
      -8.555
     -11.078
     -10.995
      -7.743
      -2.494
       2.426
       4.977
       4.705
       2.898
       1.507
       1.761
       3.576
       5.995
       7.995
       8.920
       8.451
       6.541
       3.562
       0.443
      -1.584
      -1.606
       0.410
       3.554
       6.480
       8.108
       8.072
       6.731
       4.863
       3.205
       2.009
       0.884
      -0.854
      -3.510
      -6.569
      -8.820
      -8.986
      -6.487
      -1.946
       2.931
       6.240
       6.993
       5.558
       3.109
       0.751
      -0.901
      -1.667
      -1.755
      -1.803
      -2.644
      -4.703
      -7.494
      -9.725
      -9.970
      -7.429
      -2.368
       3.902
       9.457
      12.479
      12.027
       8.486
       3.355
      -1.567
      -5.082
      -6.994
      -7.834
      -8.201
      -8.228
      -7.552
      -5.782
      -3.025
       0.027
       2.495
       3.820
       3.935
       3.073
       1.498
      -0.526
      -2.563
      -3.943
      -4.085
      -3.013
      -1.545
      -0.783
      -1.202
      -2.135
      -2.189
      -0.381
       2.910
       6.008
       7.119
       5.767
       3.282
       1.803
       2.530
       4.718
       6.273
       5.429
       2.098
      -2.107
      -4.970
      -4.967
      -1.989
       2.681
       6.968
       8.956
       7.839
       4.404
       0.621
      -1.582
      -1.616
      -0.558
      -0.187
      -1.522
      -4.103
      -6.515
      -7.515
      -6.791
      -4.975
      -3.119
      -2.043
      -1.849
      -1.847
      -0.996
       1.307
       4.620
       7.581
       8.810
       7.948
       5.968
       4.444
       4.304
       5.071
       5.240
       3.566
       0.232
      -3.184
      -5.023
      -5.011
      -4.501
      -5.308
      -8.192
     -12.256
     -15.608
     -16.630
     -14.910
     -11.252
      -6.930
      -2.888
       0.463
       2.930
       4.328
       4.694
       4.585
       4.875
       6.083
       7.830
       9.047
       8.812
       7.108
       4.811
       2.964
       2.029
       1.775
       1.737
       1.700
       1.742
       1.876
       1.768
       0.871
      -1.050
      -3.480
      -5.249
      -5.227
      -3.165
      -0.035
       2.431
       2.757
       0.656
      -2.710
      -5.353
      -5.593
      -3.007
       1.418
       5.949
       9.062
      10.053
       9.104
       7.009
       4.794
       3.315
       2.897
       3.199
       3.423
       2.809
       1.112
      -1.250
      -3.461
      -4.768
      -4.909
      -4.294
      -3.793
      -4.184
      -5.609
      -7.459
      -8.787
      -8.971
      -8.077
      -6.652
      -5.176
      -3.733
      -2.163
      -0.410
       1.344
       2.838
       3.930
       4.608
       4.846
       4.526
       3.542
       1.980
       0.159
      -1.485
      -2.591
      -3.022
      -2.934
      -2.713
      -2.707
      -2.861
      -2.587
      -1.154
       1.583
       4.803
       7.138
       7.616
       6.307
       4.165
       2.284
       1.254
       1.028
       1.175
       1.201
       0.736
      -0.340
      -1.779
      -3.024
      -3.532
      -3.189
      -2.410
      -1.763
      -1.458
      -1.174
      -0.418
       0.919
       2.341
       3.055
       2.576
       1.160
      -0.268
      -0.712
       0.134
       1.567
       2.358
       1.731
      -0.006
      -1.737
      -2.472
      -2.059
      -1.121
      -0.435
      -0.411
      -1.055
      -2.192
      -3.575
      -4.816
      -5.358
      -4.701
      -2.761
      -0.062
       2.488
       4.117
       4.653
       4.558
       4.517
       4.896
       5.530
       5.989
       6.031
       5.822
       5.711
       5.795
       5.701
       4.836
       2.883
       0.065
      -3.015
      -5.751
      -7.751
      -8.792
      -8.700
      -7.389
      -5.073
      -2.426
      -0.424
       0.159
      -0.731
      -2.333
      -3.555
      -3.689
      -2.781
      -1.440
      -0.277
       0.523
       1.218
       2.133
       3.277
       4.308
       4.858
       4.836
       4.373
       3.500
       1.966
      -0.511
      -3.746
      -6.895
      -8.831
      -8.868
      -7.181
      -4.616
      -2.116
      -0.289
       0.644
       0.693
       0.009
      -1.070
      -1.977
      -2.074
      -0.976
       1.184
       3.775
       5.965
       7.077
       6.859
       5.600
       4.023
       2.921
       2.659
       2.909
       2.919
       2.157
       0.731
      -0.758
      -1.716
      -1.877
      -1.296
      -0.236
       0.854
       1.415
       1.061
      -0.098
      -1.441
      -2.205
      -2.009
      -1.147
      -0.406
      -0.491
      -1.493
      -2.820
      -3.631
      -3.397
      -2.158
      -0.391
       1.290
       2.346
       2.439
       1.544
       0.089
      -1.103
      -1.177
       0.202
       2.496
       4.488
       4.985
       3.579
       0.901
      -1.786
      -3.318
      -3.195
      -1.750
       0.065
       1.175
       0.961
      -0.395
      -2.071
      -3.143
      -3.141
      -2.266
      -1.196
      -0.631
      -0.832
      -1.397
      -1.462
      -0.274
       2.213
       5.207
       7.584
       8.649
       8.480
       7.585
       6.223
       4.145
       1.057
      -2.689
      -5.988
      -7.717
      -7.635
      -6.535
      -5.526
      -5.186
      -5.371
      -5.651
      -5.741
      -5.493
      -4.682
      -3.053
      -0.701
       1.668
       3.026
       2.787
       1.346
      -0.153
      -0.715
      -0.236
       0.616
       1.211
       1.584
       2.262
       3.588
       5.254
       6.450
       6.414
       4.936
       2.503
       0.015
      -1.761
      -2.596
      -2.791
      -2.774
      -2.708
      -2.467
      -1.916
      -1.139
      -0.371
       0.184
       0.438
       0.395
       0.162
      -0.006
       0.180
       0.790
       1.558
       2.107
       2.260
       2.098
       1.783
       1.436
       1.234
       1.483
       2.418
       3.832
       4.987
       5.080
       3.908
       2.078
       0.529
      -0.202
      -0.277
      -0.210
      -0.346
      -0.693
      -1.167
      -1.813
      -2.704
      -3.687
      -4.351
      -4.272
      -3.282
      -1.591
       0.228
       1.401
       1.313
      -0.088
      -2.181
      -4.005
      -4.774
      -4.190
      -2.468
      -0.191
       1.900
       3.136
       3.132
       1.906
      -0.136
      -2.347
      -4.119
      -5.110
      -5.258
      -4.631
      -3.350
      -1.657
       0.029
       1.267
       1.873
       2.037
       2.098
       2.126
       1.736
       0.379
      -2.067
      -4.908
      -6.836
      -6.714
      -4.399
      -0.956
       1.990
       3.334
       3.115
       2.202
       1.440
       1.102
       1.040
       1.140
       1.502
       2.233
       3.222
       4.216
       5.055
       5.728
       6.225
       6.456
       6.367
       6.029
       5.538
       4.850
       3.859
       2.636
       1.500
       0.791
       0.599
       0.735
       0.883
       0.718
      -0.015
      -1.359
      -3.022
      -4.466
      -5.200
      -5.048
      -4.247
      -3.341
      -2.920
      -3.221
      -3.879
      -4.125
      -3.398
      -1.838
      -0.184
       0.815
       0.929
       0.442
      -0.243
      -0.909
      -1.461
      -1.705
      -1.350
      -0.304
       1.079
       2.138
       2.335
       1.601
       0.315
      -1.039
      -2.196
      -3.149
      -3.929
      -4.440
      -4.554
      -4.323
