Origin Time       16/4/2013 01:23:19	
Lat.              26.3 N	
Long.             92.0 E	
Depth (Km)         16.0
Magnitude         4.6
 Region           Assam-Darrang                                                    
 Above details taken from IMD 
   
Station Code      TZP
Station Lat.       26.619
Station Long.      92.797
Station Height(m)   76.0
Site Class        B   Vs30 between 375 m/sec to 700 m/sec *  
Record Time       16.04.2013 01:23:29.389
Sampling Rate     200. Hz
 Record Duration   83.915 Sec.
 Direction         Vert. (Up positive)
Max. Acceleration      3.616 cm/sec**2
     
  * For reference see Site Classification link of website 
     
 Base Line Corrected and Low Pass Filtered (Cut Off at 35 Hz) Time History
 Acceleration data in cm/sec**2
    
[...]
      -0.322
      -0.512
      -0.655
      -0.693
      -0.590
      -0.345
      -0.014
       0.315
       0.581
       0.780
       0.931
       1.016
       0.959
       0.688
       0.212
      -0.358
      -0.862
      -1.159
      -1.168
      -0.886
      -0.399
       0.116
       0.461
       0.519
       0.324
       0.029
      -0.195
      -0.250
      -0.144
       0.041
       0.217
       0.340
       0.415
       0.450
       0.427
       0.312
       0.116
      -0.078
      -0.157
      -0.081
       0.061
       0.109
      -0.034
      -0.318
      -0.570
      -0.620
      -0.423
      -0.094
       0.181
       0.299
       0.310
       0.343
       0.456
       0.569
       0.558
       0.381
       0.104
      -0.192
      -0.483
      -0.765
      -0.980
      -1.029
      -0.871
      -0.583
      -0.301
      -0.108
       0.013
       0.137
       0.320
       0.550
       0.753
       0.844
       0.780
       0.588
       0.348
       0.123
      -0.081
      -0.298
      -0.525
      -0.701
      -0.745
      -0.634
      -0.408
      -0.138
       0.132
       0.385
       0.614
       0.798
       0.909
       0.935
       0.879
       0.738
       0.499
       0.168
      -0.190
      -0.461
      -0.549
      -0.469
      -0.358
      -0.386
      -0.614
      -0.934
      -1.140
      -1.074
      -0.731
      -0.254
       0.157
       0.361
       0.347
       0.230
       0.152
       0.180
       0.266
       0.311
       0.263
       0.157
       0.068
       0.035
       0.037
       0.038
       0.022
       0.001
      -0.015
      -0.030
      -0.048
      -0.049
       0.004
       0.132
       0.304
       0.446
       0.491
       0.432
       0.314
       0.201
       0.145
       0.164
       0.235
       0.296
       0.270
       0.109
      -0.170
      -0.477
      -0.694
      -0.746
      -0.645
      -0.467
      -0.298
      -0.186
      -0.127
      -0.093
      -0.062
      -0.024
       0.036
       0.152
       0.344
       0.560
       0.680
       0.587
       0.279
      -0.096
      -0.321
      -0.262
       0.026
       0.321
       0.389
       0.151
      -0.260
      -0.602
      -0.693
      -0.537
      -0.305
      -0.185
      -0.227
      -0.305
      -0.241
       0.025
       0.367
       0.573
       0.517
       0.261
       0.006
      -0.076
       0.020
       0.143
       0.133
      -0.033
      -0.233
      -0.316
      -0.232
      -0.059
       0.078
       0.112
       0.075
       0.052
       0.105
       0.225
       0.339
       0.356
       0.223
      -0.027
      -0.281
      -0.423
      -0.418
      -0.322
      -0.219
      -0.147
      -0.088
       0.006
       0.165
       0.366
       0.541
       0.608
       0.512
       0.242
      -0.162
      -0.613
      -0.985
      -1.161
      -1.088
      -0.800
      -0.389
       0.023
       0.332
       0.487
       0.522
       0.537
       0.651
       0.912
       1.230
       1.398
       1.228
       0.708
       0.033
      -0.537
      -0.848
      -0.931
      -0.917
      -0.899
      -0.864
      -0.732
      -0.474
      -0.164
       0.086
       0.230
       0.320
       0.447
       0.641
       0.839
       0.923
       0.805
       0.495
       0.095
      -0.255
      -0.452
      -0.468
      -0.354
      -0.199
      -0.084
      -0.066
      -0.158
      -0.319
      -0.444
      -0.428
      -0.249
       0.013
       0.230
       0.324
       0.294
       0.193
       0.083
       0.010
      -0.008
       0.021
       0.066
       0.095
       0.095
       0.060
      -0.010
      -0.105
      -0.200
      -0.278
      -0.360
      -0.486
      -0.665
      -0.839
      -0.904
      -0.766
      -0.380
       0.214
       0.875
       1.394
       1.592
       1.426
       1.016
       0.559
       0.196
      -0.044
      -0.203
      -0.335
      -0.465
      -0.592
      -0.696
      -0.754
      -0.760
      -0.709
      -0.562
      -0.278
       0.118
       0.500
       0.710
       0.681
       0.492
       0.294
       0.195
       0.193
       0.214
       0.186
       0.091
      -0.061
      -0.246
      -0.430
      -0.547
      -0.531
      -0.358
      -0.076
       0.207
       0.366
       0.338
       0.173
      -0.001
      -0.069
      -0.026
       0.045
       0.064
       0.018
      -0.047
      -0.096
      -0.137
      -0.192
      -0.252
      -0.275
      -0.222
      -0.080
       0.122
       0.312
       0.401
       0.319
       0.080
      -0.222
      -0.460
      -0.548
      -0.462
      -0.232
       0.084
       0.411
       0.668
       0.778
       0.691
       0.415
       0.039
      -0.289
      -0.430
      -0.333
      -0.067
       0.219
       0.376
       0.338
       0.145
      -0.091
      -0.266
      -0.339
      -0.317
      -0.206
       0.001
       0.294
       0.598
       0.769
       0.672
       0.279
      -0.281
      -0.784
      -1.034
      -0.960
      -0.639
      -0.241
       0.060
       0.169
       0.102
      -0.038
      -0.125
      -0.076
       0.105
       0.321
       0.440
       0.368
       0.111
      -0.228
      -0.484
      -0.527
      -0.352
      -0.090
       0.093
       0.129
       0.085
       0.091
       0.232
       0.483
       0.737
       0.880
       0.857
       0.680
       0.405
       0.109
      -0.156
      -0.388
      -0.609
      -0.803
      -0.895
      -0.804
      -0.527
      -0.147
       0.203
       0.401
       0.395
       0.232
       0.019
      -0.142
      -0.189
      -0.094
       0.125
       0.375
       0.499
       0.368
      -0.012
      -0.476
      -0.809
      -0.881
      -0.717
      -0.445
      -0.191
      -0.018
       0.080
       0.126
       0.138
       0.137
       0.161
       0.243
       0.369
       0.471
       0.474
       0.377
       0.269
       0.245
       0.303
       0.319
       0.156
      -0.187
      -0.536
      -0.671
      -0.503
      -0.139
       0.219
       0.426
       0.475
       0.459
       0.461
       0.481
       0.444
       0.299
       0.090
      -0.079
      -0.144
      -0.144
      -0.167
      -0.272
      -0.449
      -0.652
      -0.834
      -0.948
      -0.937
      -0.752
      -0.405
       0.005
       0.341
       0.509
       0.511
       0.440
       0.414
       0.488
       0.612
       0.673
       0.599
       0.424
       0.253
       0.154
       0.099
      -0.002
      -0.205
      -0.479
      -0.716
      -0.794
      -0.663
      -0.387
      -0.108
       0.069
       0.154
       0.238
       0.378
       0.527
       0.574
       0.463
       0.238
      -0.007
      -0.220
      -0.387
      -0.480
      -0.437
      -0.233
       0.044
       0.224
       0.174
      -0.084
      -0.376
      -0.498
      -0.364
      -0.053
       0.257
       0.419
       0.402
       0.281
       0.167
       0.112
       0.076
      -0.034
      -0.258
      -0.514
      -0.650
      -0.552
      -0.240
       0.140
       0.412
       0.478
       0.361
       0.172
       0.022
      -0.021
       0.056
       0.230
       0.438
       0.588
       0.595
       0.423
       0.117
      -0.231
      -0.532
      -0.741
      -0.847
      -0.831
      -0.662
      -0.348
       0.020
       0.320
       0.479
       0.526
       0.537
       0.561
       0.566
       0.480
       0.251
      -0.094
      -0.453
      -0.705
      -0.791
      -0.734
      -0.600
      -0.440
      -0.263
      -0.060
       0.142
       0.284
       0.331
       0.334
       0.388
       0.521
       0.631
       0.573
       0.296
      -0.108
      -0.471
      -0.659
      -0.628
      -0.421
      -0.120
       0.197
       0.471
       0.648
       0.675
       0.531
       0.261
      -0.016
      -0.170
      -0.150
      -0.026
       0.062
       0.017
      -0.153
      -0.368
      -0.545
      -0.628
      -0.589
      -0.430
      -0.185
       0.082
       0.317
       0.497
       0.627
       0.701
       0.683
       0.533
       0.250
      -0.116
      -0.469
      -0.704
      -0.735
      -0.543
      -0.202
       0.137
       0.325
       0.301
       0.136
      -0.039
      -0.148
      -0.233
      -0.372
      -0.553
      -0.644
      -0.508
      -0.142
       0.300
       0.619
       0.719
       0.660
       0.583
       0.559
       0.533
       0.409
       0.177
      -0.059
      -0.193
      -0.233
      -0.293
      -0.472
      -0.727
      -0.878
      -0.756
      -0.364
       0.093
       0.356
       0.311
       0.064
      -0.143
      -0.104
       0.191
       0.541
       0.684
       0.490
       0.065
      -0.358
      -0.611
      -0.709
      -0.776
      -0.872
      -0.914
      -0.762
      -0.392
       0.054
       0.384
       0.527
       0.575
       0.681
       0.912
       1.199
       1.396
       1.385
       1.141
       0.756
       0.377
       0.115
      -0.025
      -0.130
      -0.281
      -0.478
      -0.650
      -0.722
      -0.683
      -0.592
      -0.515
      -0.462
      -0.388
      -0.251
      -0.075
       0.062
       0.104
       0.085
       0.118
       0.291
       0.556
       0.724
       0.602
       0.148
      -0.479
      -1.004
      -1.211
      -1.071
      -0.743
      -0.450
      -0.322
      -0.326
      -0.302
      -0.098
       0.321
       0.847
       1.308
       1.578
       1.624
       1.475
       1.184
       0.825
       0.467
       0.149
      -0.136
      -0.425
      -0.731
      -1.010
      -1.187
      -1.228
      -1.172
      -1.084
      -0.972
      -0.779
      -0.447
       0.019
       0.525
       0.925
       1.097
       1.028
       0.812
       0.564
       0.326
       0.048
      -0.334
      -0.826
      -1.333
      -1.702
      -1.799
      -1.578
      -1.091
      -0.450
       0.218
       0.795
       1.196
       1.389
       1.409
       1.339
       1.264
       1.203
       1.085
       0.820
       0.396
      -0.075
      -0.422
      -0.532
      -0.439
      -0.299
      -0.273
      -0.396
      -0.571
      -0.675
      -0.670
      -0.605
      -0.527
      -0.428
      -0.284
      -0.156
      -0.186
      -0.478
      -0.959
      -1.396
      -1.542
      -1.301
      -0.772
      -0.167
       0.317
       0.602
       0.737
       0.829
       0.943
       1.064
       1.126
       1.076
       0.903
       0.636
       0.320
       0.004
      -0.253
      -0.404
      -0.437
      -0.383
      -0.250
       0.012
       0.451
       0.999
       1.446
       1.574
       1.322
       0.833
       0.329
      -0.059
      -0.345
      -0.592
      -0.790
      -0.842
      -0.655
      -0.252
       0.208
       0.505
       0.489
       0.174
      -0.274
      -0.648
      -0.833
      -0.844
      -0.763
      -0.641
      -0.456
      -0.170
       0.191
       0.513
       0.693
       0.745
       0.797
       0.959
       1.179
       1.254
       1.001
       0.458
      -0.094
      -0.346
      -0.224
       0.053
       0.166
      -0.028
      -0.389
      -0.624
      -0.539
      -0.187
       0.206
       0.438
       0.471
       0.381
       0.228
      -0.017
      -0.418
      -0.991
      -1.655
      -2.268
      -2.703
      -2.904
      -2.898
      -2.749
      -2.492
      -2.095
      -1.492
      -0.638
       0.420
       1.534
       2.516
       3.210
       3.544
       3.517
       3.180
       2.611
       1.901
       1.142
       0.397
      -0.303
      -0.936
      -1.454
      -1.759
      -1.737
      -1.337
      -0.630
       0.197
       0.930
       1.414
       1.594
       1.499
       1.197
       0.766
       0.268
      -0.269
      -0.851
      -1.464
      -2.021
      -2.373
      -2.406
      -2.126
      -1.629
      -0.998
      -0.270
       0.495
       1.155
       1.551
       1.647
       1.603
       1.658
       1.935
       2.315
       2.530
       2.359
       1.799
       1.055
       0.378
      -0.096
      -0.399
      -0.643
      -0.902
      -1.161
      -1.365
      -1.507
      -1.661
      -1.922
      -2.303
      -2.686
      -2.873
      -2.700
      -2.148
      -1.371
      -0.605
      -0.018
       0.398
       0.789
       1.284
       1.846
       2.284
       2.422
       2.278
       2.054
       1.946
       1.933
       1.785
       1.269
       0.379
      -0.637
      -1.454
      -1.906
      -2.059
      -2.075
      -2.022
      -1.819
      -1.344
      -0.583
       0.313
       1.109
       1.629
       1.863
       1.911
       1.836
       1.567
       0.982
       0.073
      -0.975
      -1.883
      -2.443
      -2.611
      -2.476
      -2.151
      -1.713
      -1.204
      -0.677
      -0.202
       0.195
       0.569
       1.016
       1.571
       2.138
       2.546
       2.681
       2.552
       2.251
       1.841
       1.319
       0.668
      -0.056
      -0.712
      -1.152
      -1.329
      -1.330
      -1.300
      -1.305
      -1.264
      -1.012
      -0.457
       0.293
       0.971
       1.313
       1.244
       0.918
       0.592
       0.445
       0.488
       0.601
       0.648
       0.552
       0.294
      -0.121
      -0.676
      -1.331
      -2.009
      -2.601
      -2.988
      -3.071
      -2.814
      -2.283
      -1.625
      -0.992
      -0.462
      -0.023
       0.381
       0.807
       1.300
       1.894
       2.568
       3.208
       3.616
       3.604
       3.097
       2.186
       1.084
       0.023
      -0.847
      -1.477
      -1.874
      -2.051
      -2.015
      -1.768
      -1.311
      -0.658
       0.141
       0.975
       1.663
       2.009
       1.911
       1.456
       0.881
       0.388
      -0.017
      -0.485
      -1.134
      -1.908
      -2.610
      -3.040
      -3.110
      -2.867
      -2.450
      -1.978
      -1.481
      -0.907
      -0.203
       0.604
       1.400
       2.044
       2.457
       2.668
       2.750
       2.707
       2.457
       1.922
       1.142
       0.289
      -0.441
      -0.949
      -1.266
      -1.451
      -1.483
      -1.274
      -0.789
      -0.141
       0.462
       0.848
       0.979
       0.932
       0.803
       0.620
       0.349
      -0.023
      -0.436
      -0.783
      -0.991
      -1.077
      -1.122
      -1.193
      -1.271
      -1.248
      -1.003
      -0.516
       0.085
       0.602
       0.895
       0.984
       1.002
       1.055
       1.106
       1.012
       0.702
       0.312
       0.122
       0.312
       0.777
       1.168
       1.143
       0.621
      -0.166
      -0.857
      -1.210
      -1.215
      -1.013
      -0.750
      -0.487
      -0.203
       0.134
       0.494
       0.756
       0.773
       0.488
       0.010
      -0.432
      -0.656
      -0.661
      -0.599
      -0.613
      -0.703
      -0.762
      -0.718
      -0.598
      -0.455
      -0.269
       0.038
       0.493
       0.985
       1.326
       1.401
       1.252
       1.011
       0.744
       0.374
      -0.222
      -1.031
      -1.819
      -2.238
      -2.078
      -1.430
      -0.618
       0.042
       0.455
       0.729
       1.006
       1.316
       1.583
       1.714
       1.672
       1.493
       1.264
       1.049
       0.811
       0.421
      -0.233
      -1.109
      -1.980
      -2.543
      -2.583
      -2.084
      -1.226
      -0.303
       0.397
       0.712
       0.665
       0.436
       0.227
       0.126
       0.076
      -0.018
      -0.147
      -0.195
      -0.060
       0.229
       0.521
       0.659
       0.570
       0.308
       0.038
      -0.055
       0.118
       0.478
       0.840
       1.023
       0.934
       0.561
      -0.040
      -0.730
      -1.288
      -1.484
      -1.220
      -0.627
      -0.007
       0.376
       0.461
       0.372
       0.257
       0.144
      -0.070
      -0.498
      -1.116
      -1.712
      -2.003
      -1.827
      -1.247
      -0.465
       0.332
       1.046
       1.624
       2.005
       2.131
       1.998
       1.660
       1.201
       0.692
       0.211
      -0.142
      -0.277
      -0.185
       0.013
       0.126
       0.021
      -0.278
      -0.611
      -0.811
      -0.818
      -0.676
      -0.440
      -0.135
       0.201
       0.475
       0.589
       0.509
       0.289
       0.029
      -0.171
      -0.239
      -0.140
       0.114
       0.457
       0.786
       0.997
       1.014
       0.808
       0.396
      -0.137
      -0.640
      -0.967
      -1.089
      -1.127
      -1.240
      -1.461
      -1.654
      -1.646
      -1.415
      -1.123
      -0.942
      -0.856
      -0.649
      -0.142
       0.573
       1.134
       1.173
       0.623
      -0.211
      -0.887
      -1.133
      -0.992
      -0.698
      -0.439
      -0.195
       0.214
       0.913
       1.801
       2.579
       2.964
       2.876
       2.442
       1.867
       1.297
       0.788
       0.367
       0.099
       0.059
       0.213
       0.358
       0.226
      -0.326
      -1.161
      -1.900
      -2.157
      -1.804
      -1.052
      -0.290
       0.191
       0.345
       0.309
       0.236
       0.185
       0.115
      -0.029
      -0.258
      -0.524
      -0.752
      -0.888
      -0.923
      -0.873
      -0.724
      -0.440
      -0.019
       0.445
       0.799
       0.925
       0.829
       0.621
       0.417
       0.223
      -0.050
      -0.466
      -0.957
      -1.345
      -1.477
      -1.314
      -0.940
      -0.522
      -0.243
      -0.217
      -0.399
      -0.578
      -0.510
      -0.098
       0.525
       1.114
       1.524
       1.806
       2.087
       2.383
       2.543
       2.378
       1.840
       1.067
       0.289
      -0.308
      -0.645
      -0.737
      -0.641
      -0.412
      -0.098
       0.242
       0.515
       0.606
       0.444
       0.057
      -0.438
      -0.897
      -1.213
      -1.354
      -1.356
      -1.276
      -1.140
      -0.931
      -0.640
      -0.307
      -0.023
       0.142
       0.206
       0.269
       0.402
       0.544
       0.522
       0.202
      -0.381
      -1.038
      -1.561
      -1.840
      -1.878
      -1.725
      -1.405
      -0.893
      -0.176
       0.662
       1.422
       1.879
       1.906
       1.537
       0.942
       0.327
      -0.190
      -0.613
      -0.985
      -1.286
      -1.421
      -1.306
      -0.942
      -0.405
       0.219
       0.887
       1.586
       2.279
       2.845
       3.124
       3.022
       2.584
       1.967
       1.341
       0.789
       0.280
      -0.251
      -0.788
      -1.220
      -1.455
      -1.533
      -1.602
      -1.779
      -2.034
      -2.190
      -2.054
      -1.559
      -0.853
      -0.214
       0.123
       0.108
      -0.122
      -0.373
      -0.528
      -0.593
      -0.634
      -0.673
      -0.634
      -0.397
       0.113
       0.850
       1.660
       2.342
       2.712
       2.671
       2.233
       1.526
       0.742
       0.052
      -0.449
      -0.768
      -0.975
      -1.133
      -1.223
      -1.143
      -0.807
      -0.259
       0.303
       0.637
       0.626
       0.353
       0.024
      -0.189
      -0.252
      -0.232
