Origin Time       21/08/2013 06:57:20
Lat.              26.7 N	
Long.             92.5 E	
Depth (Km)         30.0
Magnitude         4.2
 Region           Sonitpur-Assam                                                   
 Above details taken from IMD 
   
Station Code      TZP
Station Lat.       26.619
Station Long.      92.797
Station Height(m)   76.0
Site Class        B   Vs30 between 375 m/sec to 700 m/sec *  
Record Time       21.08.2013 06:57:04.889
Sampling Rate     200. Hz
 Record Duration   82.320 Sec.
 Direction         Vert. (Up positive)
Max. Acceleration     13.385 cm/sec**2
     
  * For reference see Site Classification link of website 
     
 Base Line Corrected and Low Pass Filtered (Cut Off at 35 Hz) Time History
 Acceleration data in cm/sec**2
    
[...]
       0.178
      -0.441
      -0.696
      -0.396
       0.177
       0.553
       0.500
       0.183
      -0.066
      -0.076
       0.063
       0.168
       0.161
       0.119
       0.146
       0.240
       0.277
       0.141
      -0.135
      -0.390
      -0.499
      -0.485
      -0.463
      -0.495
      -0.525
      -0.418
      -0.086
       0.397
       0.815
       0.973
       0.837
       0.521
       0.162
      -0.140
      -0.310
      -0.313
      -0.205
      -0.124
      -0.185
      -0.374
      -0.552
      -0.551
      -0.307
       0.081
       0.415
       0.535
       0.422
       0.190
       0.007
      -0.014
       0.106
       0.208
       0.106
      -0.216
      -0.541
      -0.595
      -0.290
       0.214
       0.661
       0.865
       0.769
       0.436
       0.020
      -0.305
      -0.440
      -0.416
      -0.366
      -0.413
      -0.537
      -0.560
      -0.338
       0.038
       0.310
       0.344
       0.288
       0.379
       0.628
       0.768
       0.550
       0.051
      -0.340
      -0.274
       0.211
       0.675
       0.626
      -0.059
      -0.995
      -1.585
      -1.464
      -0.748
       0.101
       0.617
       0.631
       0.331
       0.044
      -0.034
       0.087
       0.318
       0.595
       0.848
       0.958
       0.820
       0.432
      -0.092
      -0.571
      -0.842
      -0.839
      -0.638
      -0.396
      -0.250
      -0.239
      -0.299
      -0.302
      -0.146
       0.145
       0.402
       0.416
       0.131
      -0.238
      -0.341
      -0.007
       0.553
       0.917
       0.839
       0.442
       0.053
      -0.127
      -0.161
      -0.218
      -0.344
      -0.424
      -0.349
      -0.161
       0.010
       0.091
       0.112
       0.120
       0.104
       0.031
      -0.073
      -0.138
      -0.120
      -0.053
       0.014
       0.081
       0.167
       0.230
       0.169
      -0.056
      -0.335
      -0.474
      -0.383
      -0.160
       0.003
       0.023
       0.000
       0.103
       0.392
       0.743
       0.913
       0.701
       0.119
      -0.549
      -0.899
      -0.718
      -0.177
       0.297
       0.372
       0.076
      -0.281
      -0.406
      -0.269
      -0.051
       0.071
       0.071
       0.026
       0.020
       0.095
       0.239
       0.358
       0.304
      -0.007
      -0.470
      -0.796
      -0.723
      -0.234
       0.401
       0.841
       0.920
       0.700
       0.331
      -0.077
      -0.454
      -0.708
      -0.755
      -0.606
      -0.401
      -0.295
      -0.300
      -0.267
      -0.037
       0.391
       0.837
       1.095
       1.086
       0.870
       0.570
       0.299
       0.126
       0.040
      -0.075
      -0.372
      -0.869
      -1.334
      -1.413
      -0.939
      -0.141
       0.505
       0.673
       0.456
       0.244
       0.330
       0.637
       0.811
       0.569
      -0.022
      -0.599
      -0.809
      -0.615
      -0.326
      -0.313
      -0.648
      -0.991
      -0.880
      -0.168
       0.805
       1.479
       1.522
       1.046
       0.453
       0.075
      -0.032
      -0.035
      -0.086
      -0.203
      -0.334
      -0.477
      -0.655
      -0.790
      -0.708
      -0.304
       0.303
       0.806
       0.924
       0.618
       0.136
      -0.176
      -0.146
       0.110
       0.323
       0.284
      -0.046
      -0.547
      -0.997
      -1.154
      -0.874
      -0.226
       0.492
       0.901
       0.792
       0.298
      -0.192
      -0.330
      -0.049
       0.440
       0.834
       0.922
       0.672
       0.206
      -0.302
      -0.714
      -0.928
      -0.868
      -0.528
      -0.024
       0.425
       0.621
       0.518
       0.257
       0.035
      -0.068
      -0.148
      -0.333
      -0.592
      -0.735
      -0.607
      -0.275
       0.008
       0.048
      -0.097
      -0.167
       0.046
       0.497
       0.930
       1.097
       0.941
       0.592
       0.221
      -0.076
      -0.281
      -0.401
      -0.457
      -0.489
      -0.530
      -0.543
      -0.441
      -0.192
       0.097
       0.240
       0.155
      -0.023
      -0.059
       0.129
       0.377
       0.443
       0.251
      -0.038
      -0.198
      -0.164
      -0.079
      -0.121
      -0.289
      -0.382
      -0.199
       0.242
       0.668
       0.756
       0.425
      -0.059
      -0.317
      -0.222
      -0.015
      -0.039
      -0.379
      -0.778
      -0.884
      -0.562
       0.007
       0.494
       0.686
       0.612
       0.441
       0.309
       0.242
       0.190
       0.097
      -0.028
      -0.097
      -0.024
       0.129
       0.160
      -0.062
      -0.408
      -0.585
      -0.454
      -0.178
      -0.043
      -0.164
      -0.376
      -0.410
      -0.155
       0.211
       0.383
       0.228
      -0.070
      -0.169
       0.126
       0.698
       1.185
       1.242
       0.809
       0.144
      -0.412
      -0.736
      -0.943
      -1.155
      -1.292
      -1.134
      -0.563
       0.258
       0.951
       1.206
       1.018
       0.650
       0.380
       0.278
       0.203
      -0.004
      -0.338
      -0.624
      -0.675
      -0.455
      -0.105
       0.186
       0.297
       0.209
      -0.015
      -0.269
      -0.453
      -0.500
      -0.390
      -0.155
       0.133
       0.395
       0.565
       0.594
       0.478
       0.286
       0.118
       0.017
      -0.045
      -0.095
      -0.121
      -0.109
      -0.085
      -0.092
      -0.152
      -0.238
      -0.275
      -0.171
       0.104
       0.441
       0.617
       0.444
      -0.026
      -0.456
      -0.456
       0.042
       0.638
       0.772
       0.247
      -0.565
      -1.064
      -0.971
      -0.527
      -0.188
      -0.183
      -0.358
      -0.377
      -0.033
       0.580
       1.145
       1.362
       1.147
       0.638
       0.059
      -0.404
      -0.630
      -0.556
      -0.204
       0.256
       0.534
       0.413
      -0.061
      -0.584
      -0.845
      -0.768
      -0.510
      -0.246
      -0.014
       0.236
       0.477
       0.573
       0.419
       0.077
      -0.263
      -0.439
      -0.429
      -0.319
      -0.194
      -0.073
       0.068
       0.240
       0.417
       0.535
       0.512
       0.318
       0.057
      -0.071
       0.048
       0.311
       0.457
       0.300
      -0.105
      -0.511
      -0.680
      -0.546
      -0.235
       0.044
       0.122
      -0.026
      -0.263
      -0.378
      -0.236
       0.126
       0.519
       0.696
       0.502
      -0.008
      -0.562
      -0.855
      -0.754
      -0.362
       0.092
       0.415
       0.536
       0.489
       0.332
       0.127
      -0.029
      -0.018
       0.181
       0.423
       0.510
       0.374
       0.123
      -0.088
      -0.196
      -0.244
      -0.307
      -0.407
      -0.473
      -0.393
      -0.132
       0.196
       0.381
       0.261
      -0.140
      -0.603
      -0.835
      -0.659
      -0.126
       0.536
       1.080
       1.330
       1.170
       0.580
      -0.253
      -0.931
      -1.088
      -0.681
      -0.042
       0.386
       0.383
       0.063
      -0.290
      -0.482
      -0.506
      -0.446
      -0.368
      -0.295
      -0.230
      -0.125
       0.112
       0.510
       0.950
       1.227
       1.192
       0.823
       0.222
      -0.389
      -0.708
      -0.545
      -0.013
       0.499
       0.625
       0.304
      -0.226
      -0.680
      -0.959
      -1.113
      -1.150
      -0.979
      -0.580
      -0.128
       0.140
       0.184
       0.204
       0.393
       0.700
       0.895
       0.818
       0.543
       0.288
       0.196
       0.243
       0.321
       0.379
       0.433
       0.463
       0.371
       0.055
      -0.453
      -0.959
      -1.226
      -1.150
      -0.821
      -0.408
      -0.018
       0.318
       0.557
       0.610
       0.434
       0.138
      -0.075
      -0.100
      -0.045
      -0.103
      -0.316
      -0.511
      -0.498
      -0.288
      -0.081
      -0.023
      -0.036
       0.101
       0.501
       1.012
       1.315
       1.195
       0.716
       0.141
      -0.300
      -0.550
      -0.675
      -0.742
      -0.763
      -0.714
      -0.565
      -0.322
      -0.052
       0.165
       0.319
       0.472
       0.658
       0.808
       0.795
       0.546
       0.134
      -0.242
      -0.421
      -0.464
      -0.623
      -1.052
      -1.578
      -1.810
      -1.472
      -0.620
       0.424
       1.281
       1.693
       1.606
       1.175
       0.687
       0.417
       0.484
       0.772
       0.991
       0.869
       0.363
      -0.314
      -0.883
      -1.208
      -1.309
      -1.251
      -1.076
      -0.811
      -0.488
      -0.122
       0.259
       0.566
       0.656
       0.457
       0.078
      -0.224
      -0.231
       0.076
       0.516
       0.825
       0.819
       0.511
       0.103
      -0.162
      -0.176
      -0.013
       0.156
       0.180
      -0.010
      -0.349
      -0.644
      -0.690
      -0.423
       0.015
       0.364
       0.407
       0.110
      -0.333
      -0.603
      -0.488
      -0.063
       0.372
       0.556
       0.479
       0.356
       0.394
       0.577
       0.654
       0.385
      -0.197
      -0.776
      -1.018
      -0.821
      -0.358
       0.051
       0.128
      -0.168
      -0.561
      -0.628
      -0.167
       0.575
       1.080
       1.005
       0.471
      -0.063
      -0.214
       0.005
       0.231
       0.150
      -0.176
      -0.381
      -0.211
       0.178
       0.380
       0.171
      -0.280
      -0.609
      -0.602
      -0.344
      -0.095
      -0.056
      -0.208
      -0.343
      -0.268
       0.023
       0.365
       0.556
       0.483
       0.194
      -0.091
      -0.125
       0.148
       0.531
       0.776
       0.787
       0.636
       0.439
       0.262
       0.105
      -0.095
      -0.414
      -0.859
      -1.299
      -1.502
      -1.277
      -0.650
       0.078
       0.506
       0.473
       0.233
       0.215
       0.573
       1.019
       1.136
       0.820
       0.353
       0.075
       0.084
       0.208
       0.203
      -0.026
      -0.348
      -0.551
      -0.561
      -0.483
      -0.437
      -0.432
      -0.432
      -0.435
      -0.435
      -0.358
      -0.115
       0.272
       0.637
       0.793
       0.703
       0.510
       0.399
       0.435
       0.518
       0.489
       0.242
      -0.223
      -0.784
      -1.223
      -1.324
      -1.030
      -0.539
      -0.191
      -0.190
      -0.418
      -0.540
      -0.285
       0.358
       1.163
       1.796
       1.968
       1.573
       0.776
      -0.028
      -0.427
      -0.272
       0.174
       0.408
       0.081
      -0.707
      -1.489
      -1.821
      -1.585
      -1.001
      -0.399
       0.008
       0.231
       0.431
       0.732
       1.058
       1.170
       0.890
       0.310
      -0.244
      -0.485
      -0.403
      -0.230
      -0.171
      -0.182
      -0.062
       0.255
       0.554
       0.551
       0.227
      -0.117
      -0.149
       0.173
       0.571
       0.699
       0.431
      -0.065
      -0.490
      -0.637
      -0.504
      -0.267
      -0.174
      -0.369
      -0.723
      -0.894
      -0.628
      -0.022
       0.539
       0.740
       0.595
       0.362
       0.231
       0.140
      -0.055
      -0.306
      -0.394
      -0.221
       0.021
       0.050
      -0.154
      -0.284
      -0.013
       0.636
       1.251
       1.360
       0.829
      -0.027
      -0.685
      -0.798
      -0.442
      -0.046
      -0.007
      -0.345
      -0.710
      -0.737
      -0.365
       0.158
       0.530
       0.656
       0.658
       0.638
       0.508
       0.140
      -0.362
      -0.661
      -0.535
      -0.147
       0.070
      -0.208
      -0.903
      -1.537
      -1.551
      -0.744
       0.496
       1.421
       1.502
       0.873
       0.199
       0.072
       0.491
       0.909
       0.783
       0.108
      -0.581
      -0.716
      -0.224
       0.463
       0.866
       0.840
       0.551
       0.205
      -0.123
      -0.476
      -0.915
      -1.416
      -1.794
      -1.784
      -1.263
      -0.423
       0.310
       0.584
       0.416
       0.193
       0.333
       0.874
       1.429
       1.572
       1.236
       0.721
       0.332
       0.095
      -0.194
      -0.673
      -1.210
      -1.492
      -1.289
      -0.598
       0.382
       1.357
       2.022
       2.159
       1.767
       1.101
       0.529
       0.278
       0.244
       0.079
      -0.476
      -1.309
      -1.998
      -2.184
      -1.906
      -1.539
      -1.411
      -1.466
      -1.332
      -0.708
       0.326
       1.344
       1.907
       1.888
       1.529
       1.192
       1.008
       0.813
       0.422
      -0.101
      -0.513
      -0.686
      -0.739
      -0.851
      -0.967
      -0.771
      -0.037
       0.960
       1.468
       0.885
      -0.594
      -2.019
      -2.483
      -1.868
      -0.809
       0.062
       0.743
       1.707
       3.189
       4.775
       5.732
       5.659
       4.682
       3.067
       0.781
      -2.389
      -6.273
      -9.977
     -12.278
     -12.508
     -11.034
      -8.839
      -6.609
      -4.239
      -1.144
       2.982
       7.605
      11.470
      13.385
      13.107
      11.509
       9.828
       8.715
       7.967
       6.952
       5.151
       2.408
      -1.054
      -4.701
      -7.876
     -10.078
     -11.186
     -11.437
     -11.136
     -10.364
      -8.973
      -6.864
      -4.232
      -1.536
       0.743
       2.313
       3.171
       3.597
       4.039
       4.847
       5.980
       6.947
       7.095
       6.083
       4.201
       2.260
       1.076
       0.916
       1.346
       1.600
       1.170
       0.103
      -1.158
      -2.175
      -2.756
      -2.912
      -2.693
      -2.145
      -1.426
      -0.880
      -0.864
      -1.441
      -2.227
      -2.630
      -2.349
      -1.679
      -1.327
      -1.793
      -2.840
      -3.559
      -3.071
      -1.248
       1.194
       3.299
       4.551
       5.044
       5.146
       5.100
       4.874
       4.267
       3.090
       1.308
      -0.887
      -3.048
      -4.513
      -4.640
      -3.241
      -0.927
       1.077
       1.684
       0.743
      -0.820
      -1.714
      -1.260
       0.163
       1.544
       2.081
       1.685
       0.825
       0.002
      -0.589
      -0.962
      -1.085
      -0.875
      -0.455
      -0.218
      -0.492
      -1.133
      -1.543
      -1.202
      -0.229
       0.631
       0.705
       0.137
      -0.188
       0.405
       1.552
       2.127
       1.340
      -0.484
      -2.240
      -3.070
      -3.007
      -2.619
      -2.144
      -1.132
       0.903
       3.578
       5.616
       5.880
       4.444
       2.548
       1.492
       1.558
       1.935
       1.603
       0.298
      -1.280
      -2.158
      -1.988
      -1.294
      -0.906
      -1.221
      -2.015
      -2.848
      -3.494
      -3.969
      -4.247
      -4.082
      -3.225
      -1.829
      -0.552
      -0.092
      -0.536
      -1.153
      -0.911
       0.736
       3.399
       5.940
       7.152
       6.525
       4.576
       2.485
       1.293
       1.269
       1.862
       2.189
       1.683
       0.476
      -0.777
      -1.511
      -1.756
      -2.026
      -2.712
      -3.645
      -4.284
      -4.278
      -3.758
      -3.096
      -2.450
      -1.629
      -0.402
       1.093
       2.337
       2.813
       2.436
       1.608
       0.889
       0.548
       0.403
       0.079
      -0.519
      -1.006
      -0.845
       0.071
       1.232
       1.971
       2.110
       2.090
       2.401
       2.962
       3.118
       2.297
       0.597
      -1.260
      -2.564
      -3.172
      -3.473
      -3.844
      -4.236
      -4.273
      -3.719
      -2.754
      -1.812
      -1.178
      -0.761
      -0.254
       0.523
       1.460
       2.306
       2.902
       3.266
       3.514
       3.719
       3.822
       3.670
       3.180
       2.467
       1.783
       1.293
       0.914
       0.375
      -0.577
      -1.955
      -3.434
      -4.484
      -4.655
      -3.849
      -2.399
      -0.926
      -0.024
       0.098
      -0.242
      -0.468
      -0.240
       0.259
       0.524
       0.192
      -0.638
      -1.460
      -1.726
      -1.251
      -0.352
       0.455
       0.940
       1.308
       1.831
       2.455
       2.852
       2.803
       2.394
       1.862
       1.359
       0.919
       0.575
       0.413
       0.455
       0.516
       0.279
      -0.372
      -1.181
      -1.753
      -1.929
      -1.867
      -1.799
      -1.826
      -1.906
      -1.958
      -1.890
      -1.604
      -1.064
      -0.388
       0.168
       0.392
       0.340
       0.325
       0.618
       1.152
       1.555
       1.483
       0.902
       0.082
      -0.620
      -0.970
      -0.924
      -0.517
       0.234
       1.261
       2.297
       2.904
       2.792
       2.136
       1.520
       1.450
       1.840
       1.983
       1.202
      -0.416
      -1.985
      -2.606
      -2.206
      -1.561
      -1.538
      -2.301
      -3.207
      -3.432
      -2.709
      -1.526
      -0.653
      -0.487
      -0.786
      -0.965
      -0.644
       0.066
       0.762
       1.211
       1.561
       2.105
       2.893
       3.631
       3.920
       3.569
       2.734
       1.797
       1.076
       0.585
       0.060
      -0.747
      -1.767
      -2.594
      -2.797
      -2.287
      -1.399
      -0.627
      -0.262
      -0.262
      -0.347
      -0.229
       0.162
       0.550
       0.485
      -0.228
      -1.266
      -2.005
      -2.034
      -1.463
      -0.793
      -0.512
      -0.706
      -0.982
      -0.804
       0.022
       1.164
       2.052
       2.337
       2.108
       1.728
       1.498
       1.434
       1.317
       0.984
       0.532
       0.202
       0.097
       0.071
      -0.079
      -0.380
      -0.673
      -0.814
      -0.832
      -0.863
      -0.956
      -0.994
      -0.835
      -0.527
      -0.317
      -0.399
      -0.669
      -0.804
      -0.595
      -0.156
       0.196
       0.211
      -0.114
      -0.544
      -0.742
      -0.481
       0.226
       1.138
       1.907
       2.211
       1.914
       1.198
       0.480
       0.124
       0.209
       0.543
       0.846
       0.912
       0.683
       0.234
      -0.300
      -0.813
      -1.257
      -1.635
      -1.961
      -2.192
      -2.210
      -1.915
      -1.341
      -0.642
       0.031
       0.617
       1.093
       1.390
       1.393
       1.063
       0.573
       0.282
       0.483
       1.086
       1.577
       1.383
       0.400
      -0.818
      -1.445
      -1.066
      -0.037
       0.836
       0.994
       0.531
      -0.034
      -0.299
      -0.284
      -0.306
      -0.617
      -1.172
      -1.673
      -1.809
      -1.470
      -0.790
      -0.040
       0.542
       0.852
       0.904
       0.749
       0.441
