Origin Time       23/02/2014 17:04:50
Lat.              27.2 N	
Long.             92.5 E	
Depth (Km)         10.0
Magnitude         4.8
 Region           Kameng-Arunachal-Pradesh                                         
 Above details taken from IMD 
   
Station Code      TZP
Station Lat.       26.619
Station Long.      92.797
Station Height(m)   76.0
Site Class        B   Vs30 between 375 m/sec to 700 m/sec *  
Record Time       23.02.2014 17:04:43.879
Sampling Rate     200. Hz
 Record Duration   82.685 Sec.
 Direction         Vert. (Up positive)
Max. Acceleration     -5.863 cm/sec**2
     
  * For reference see Site Classification link of website 
     
 Base Line Corrected and Low Pass Filtered (Cut Off at 35 Hz) Time History
 Acceleration data in cm/sec**2
    
[...]
      -0.054
      -0.109
      -0.090
       0.020
       0.173
       0.286
       0.302
       0.242
       0.196
       0.246
       0.379
       0.460
       0.335
      -0.033
      -0.510
      -0.887
      -1.032
      -0.970
      -0.798
      -0.570
      -0.275
       0.076
       0.366
       0.428
       0.214
      -0.108
      -0.249
      -0.028
       0.476
       0.976
       1.190
       1.041
       0.680
       0.330
       0.107
      -0.019
      -0.137
      -0.281
      -0.405
      -0.456
      -0.446
      -0.428
      -0.425
      -0.396
      -0.291
      -0.104
       0.118
       0.305
       0.408
       0.422
       0.373
       0.302
       0.239
       0.181
       0.093
      -0.060
      -0.270
      -0.466
      -0.557
      -0.502
      -0.346
      -0.188
      -0.103
      -0.091
      -0.091
      -0.060
      -0.016
      -0.010
      -0.049
      -0.068
       0.013
       0.206
       0.439
       0.610
       0.670
       0.637
       0.555
       0.440
       0.287
       0.098
      -0.102
      -0.280
      -0.415
      -0.509
      -0.572
      -0.604
      -0.593
      -0.529
      -0.410
      -0.252
      -0.086
       0.050
       0.135
       0.185
       0.239
       0.332
       0.459
       0.565
       0.576
       0.474
       0.328
       0.260
       0.331
       0.461
       0.470
       0.236
      -0.175
      -0.561
      -0.769
      -0.807
      -0.784
      -0.746
      -0.622
      -0.334
       0.061
       0.370
       0.426
       0.254
       0.054
       0.027
       0.196
       0.397
       0.441
       0.272
       0.000
      -0.207
      -0.262
      -0.208
      -0.161
      -0.186
      -0.244
      -0.246
      -0.163
      -0.057
      -0.015
      -0.052
      -0.099
      -0.069
       0.055
       0.215
       0.317
       0.308
       0.206
       0.090
       0.035
       0.043
       0.039
      -0.054
      -0.216
      -0.323
      -0.250
      -0.007
       0.246
       0.325
       0.177
      -0.079
      -0.250
      -0.216
      -0.016
       0.201
       0.298
       0.253
       0.145
       0.069
       0.058
       0.091
       0.140
       0.191
       0.206
       0.111
      -0.144
      -0.503
      -0.813
      -0.923
      -0.782
      -0.447
      -0.033
       0.323
       0.488
       0.390
       0.093
      -0.203
      -0.281
      -0.076
       0.262
       0.472
       0.402
       0.138
      -0.070
      -0.026
       0.246
       0.526
       0.581
       0.350
      -0.026
      -0.329
      -0.417
      -0.288
      -0.043
       0.179
       0.274
       0.211
       0.039
      -0.142
      -0.252
      -0.269
      -0.221
      -0.142
      -0.027
       0.140
       0.342
       0.502
       0.536
       0.418
       0.202
      -0.028
      -0.210
      -0.319
      -0.353
      -0.323
      -0.265
      -0.236
      -0.273
      -0.347
      -0.371
      -0.278
      -0.098
       0.057
       0.101
       0.052
      -0.014
      -0.057
      -0.108
      -0.188
      -0.242
      -0.161
       0.092
       0.399
       0.556
       0.446
       0.154
      -0.092
      -0.100
       0.149
       0.511
       0.785
       0.821
       0.578
       0.141
      -0.303
      -0.564
      -0.573
      -0.446
      -0.392
      -0.510
      -0.671
      -0.642
      -0.334
       0.088
       0.347
       0.313
       0.111
      -0.009
       0.102
       0.378
       0.616
       0.665
       0.515
       0.264
       0.012
      -0.181
      -0.281
      -0.284
      -0.225
      -0.174
      -0.181
      -0.226
      -0.229
      -0.123
       0.074
       0.260
       0.332
       0.274
       0.154
       0.055
       0.018
       0.029
       0.051
       0.044
      -0.019
      -0.146
      -0.310
      -0.433
      -0.409
      -0.182
       0.168
       0.456
       0.534
       0.413
       0.245
       0.163
       0.143
       0.044
      -0.206
      -0.497
      -0.636
      -0.553
      -0.363
      -0.210
      -0.097
       0.088
       0.378
       0.624
       0.629
       0.371
       0.063
      -0.061
      -0.001
       0.004
      -0.248
      -0.669
      -0.936
      -0.807
      -0.365
       0.068
       0.234
       0.151
       0.046
       0.109
       0.336
       0.575
       0.678
       0.577
       0.291
      -0.079
      -0.364
      -0.405
      -0.181
       0.138
       0.321
       0.272
       0.102
      -0.013
      -0.021
      -0.006
      -0.040
      -0.079
      -0.038
       0.068
       0.103
      -0.038
      -0.289
      -0.451
      -0.382
      -0.151
       0.027
       0.008
      -0.139
      -0.191
       0.015
       0.413
       0.742
       0.755
       0.433
       0.004
      -0.242
      -0.174
       0.093
       0.308
       0.282
       0.009
      -0.352
      -0.604
      -0.635
      -0.470
      -0.234
      -0.055
       0.029
       0.081
       0.186
       0.345
       0.457
       0.411
       0.200
      -0.047
      -0.151
      -0.041
       0.181
       0.332
       0.292
       0.069
      -0.240
      -0.532
      -0.731
      -0.780
      -0.648
      -0.359
      -0.019
       0.239
       0.348
       0.344
       0.307
       0.271
       0.203
       0.077
      -0.055
      -0.086
       0.033
       0.216
       0.294
       0.166
      -0.103
      -0.324
      -0.353
      -0.208
      -0.044
       0.001
      -0.070
      -0.123
      -0.012
       0.291
       0.654
       0.876
       0.819
       0.509
       0.133
      -0.089
      -0.058
       0.122
       0.214
       0.036
      -0.386
      -0.816
      -0.998
      -0.846
      -0.487
      -0.134
       0.085
       0.180
       0.219
       0.232
       0.197
       0.115
       0.047
       0.061
       0.153
       0.238
       0.228
       0.102
      -0.091
      -0.268
      -0.356
      -0.313
      -0.155
       0.028
       0.119
       0.059
      -0.084
      -0.152
      -0.045
       0.158
       0.256
       0.124
      -0.149
      -0.325
      -0.239
       0.048
       0.288
       0.269
      -0.004
      -0.329
      -0.492
      -0.433
      -0.252
      -0.090
       0.006
       0.086
       0.208
       0.360
       0.479
       0.518
       0.476
       0.380
       0.243
       0.068
      -0.134
      -0.319
      -0.414
      -0.358
      -0.157
       0.097
       0.283
       0.312
       0.170
      -0.085
      -0.342
      -0.474
      -0.396
      -0.126
       0.191
       0.364
       0.290
       0.045
      -0.175
      -0.213
      -0.066
       0.140
       0.268
       0.276
       0.229
       0.212
       0.234
       0.221
       0.101
      -0.118
      -0.333
      -0.411
      -0.282
      -0.004
       0.252
       0.303
       0.079
      -0.315
      -0.664
      -0.802
      -0.721
      -0.546
      -0.397
      -0.282
      -0.140
       0.052
       0.241
       0.367
       0.436
       0.517
       0.643
       0.764
       0.781
       0.650
       0.426
       0.211
       0.061
      -0.045
      -0.150
      -0.281
      -0.455
      -0.687
      -0.943
      -1.095
      -0.973
      -0.519
       0.107
       0.619
       0.835
       0.826
       0.792
       0.808
       0.734
       0.420
      -0.055
      -0.405
      -0.421
      -0.196
      -0.050
      -0.215
      -0.607
      -0.906
      -0.845
      -0.429
       0.118
       0.550
       0.750
       0.726
       0.535
       0.249
      -0.048
      -0.269
      -0.369
      -0.360
      -0.277
      -0.144
       0.023
       0.168
       0.201
       0.076
      -0.127
      -0.240
      -0.147
       0.099
       0.326
       0.408
       0.366
       0.309
       0.276
       0.200
       0.016
      -0.222
      -0.374
      -0.347
      -0.179
       0.000
       0.092
       0.100
       0.094
       0.134
       0.217
       0.277
       0.218
      -0.010
      -0.349
      -0.646
      -0.758
      -0.650
      -0.407
      -0.159
       0.024
       0.171
       0.351
       0.562
       0.693
       0.615
       0.329
       0.007
      -0.137
      -0.039
       0.149
       0.207
       0.057
      -0.165
      -0.262
      -0.178
      -0.024
       0.058
       0.036
      -0.025
      -0.071
      -0.111
      -0.179
      -0.263
      -0.285
      -0.170
       0.062
       0.276
       0.315
       0.138
      -0.124
      -0.280
      -0.256
      -0.168
      -0.198
      -0.375
      -0.513
      -0.385
       0.040
       0.547
       0.837
       0.763
       0.415
       0.034
      -0.151
      -0.058
       0.224
       0.484
       0.506
       0.230
      -0.184
      -0.461
      -0.438
      -0.203
      -0.007
      -0.024
      -0.194
      -0.288
      -0.145
       0.173
       0.458
       0.562
       0.503
       0.380
       0.238
       0.026
      -0.294
      -0.635
      -0.817
      -0.734
      -0.471
      -0.238
      -0.181
      -0.262
      -0.319
      -0.230
      -0.004
       0.275
       0.542
       0.757
       0.865
       0.783
       0.476
       0.035
      -0.341
      -0.469
      -0.306
       0.039
       0.375
       0.515
       0.369
      -0.001
      -0.404
      -0.646
      -0.643
      -0.451
      -0.195
       0.016
       0.141
       0.200
       0.236
       0.273
       0.276
       0.182
      -0.029
      -0.272
      -0.386
      -0.278
      -0.041
       0.100
      -0.010
      -0.294
      -0.495
      -0.414
      -0.095
       0.211
       0.273
       0.077
      -0.174
      -0.231
       0.002
       0.403
       0.717
       0.742
       0.468
       0.072
      -0.214
      -0.248
      -0.051
       0.227
       0.395
       0.340
       0.092
      -0.201
      -0.386
      -0.397
      -0.251
       0.005
       0.316
       0.576
       0.635
       0.381
      -0.142
      -0.719
      -1.083
      -1.077
      -0.730
      -0.237
       0.154
       0.269
       0.106
      -0.167
      -0.322
      -0.220
       0.104
       0.474
       0.698
       0.690
       0.502
       0.260
       0.072
      -0.025
      -0.039
       0.014
       0.107
       0.181
       0.182
       0.120
       0.062
       0.043
       0.000
      -0.166
      -0.444
      -0.642
      -0.532
      -0.101
       0.364
       0.487
       0.132
      -0.449
      -0.820
      -0.731
      -0.310
       0.088
       0.211
       0.087
      -0.092
      -0.177
      -0.143
      -0.027
       0.145
       0.350
       0.518
       0.551
       0.402
       0.153
      -0.046
      -0.112
      -0.098
      -0.108
      -0.166
      -0.175
      -0.021
       0.294
       0.593
       0.628
       0.280
      -0.323
      -0.851
      -0.980
      -0.600
       0.101
       0.743
       1.000
       0.798
       0.326
      -0.131
      -0.391
      -0.454
      -0.409
      -0.310
      -0.134
       0.125
       0.369
       0.423
       0.192
      -0.227
      -0.582
      -0.671
      -0.501
      -0.260
      -0.119
      -0.095
      -0.093
      -0.068
      -0.086
      -0.206
      -0.332
      -0.238
       0.200
       0.818
       1.267
       1.302
       0.984
       0.580
       0.297
       0.126
      -0.068
      -0.351
      -0.641
      -0.804
      -0.774
      -0.581
      -0.288
       0.045
       0.348
       0.531
       0.529
       0.356
       0.104
      -0.135
      -0.320
      -0.439
      -0.466
      -0.370
      -0.186
      -0.027
      -0.003
      -0.138
      -0.351
      -0.530
      -0.605
      -0.549
      -0.346
      -0.016
       0.335
       0.543
       0.530
       0.397
       0.342
       0.451
       0.593
       0.543
       0.233
      -0.146
      -0.298
      -0.121
       0.175
       0.251
      -0.034
      -0.491
      -0.781
      -0.722
      -0.425
      -0.146
      -0.027
       0.016
       0.161
       0.470
       0.801
       0.929
       0.733
       0.292
      -0.156
      -0.364
      -0.252
       0.020
       0.157
      -0.047
      -0.530
      -0.995
      -1.143
      -0.894
      -0.426
       0.009
       0.305
       0.550
       0.858
       1.187
       1.332
       1.134
       0.677
       0.262
       0.147
       0.306
       0.462
       0.367
       0.032
      -0.325
      -0.522
      -0.554
      -0.505
      -0.401
      -0.207
       0.048
       0.229
       0.221
       0.068
      -0.033
       0.083
       0.392
       0.697
       0.793
       0.609
       0.211
      -0.273
      -0.709
      -0.992
      -1.108
      -1.166
      -1.319
      -1.622
      -1.955
      -2.143
      -2.157
      -2.177
      -2.408
      -2.803
      -3.033
      -2.767
      -1.990
      -1.022
      -0.234
       0.257
       0.627
       1.129
       1.847
       2.635
       3.252
       3.549
       3.537
       3.320
       2.987
       2.548
       1.961
       1.189
       0.264
      -0.693
      -1.500
      -1.997
      -2.153
      -2.080
      -1.953
      -1.858
      -1.741
      -1.485
      -1.064
      -0.604
      -0.292
      -0.201
      -0.203
      -0.052
       0.420
       1.160
       1.946
       2.541
       2.823
       2.789
       2.501
       2.031
       1.471
       0.975
       0.769
       1.063
       1.889
       3.007
       3.989
       4.429
       4.159
       3.318
       2.239
       1.195
       0.227
      -0.809
      -2.030
      -3.357
      -4.556
      -5.408
      -5.832
      -5.863
      -5.555
      -4.945
      -4.085
      -3.066
      -1.980
      -0.886
       0.147
       0.980
       1.478
       1.672
       1.826
       2.252
       3.029
       3.914
       4.537
       4.687
       4.409
       3.856
       3.104
       2.137
       0.973
      -0.253
      -1.360
      -2.223
      -2.797
      -3.077
      -3.096
      -2.970
      -2.914
      -3.129
      -3.610
      -4.078
      -4.132
      -3.559
      -2.496
      -1.268
      -0.076
       1.147
       2.528
       3.929
       4.886
       4.974
       4.211
       3.087
       2.139
       1.543
       1.096
       0.533
      -0.205
      -0.972
      -1.580
      -1.928
      -2.011
      -1.882
      -1.600
      -1.201
      -0.694
      -0.132
       0.347
       0.587
       0.570
       0.463
       0.447
       0.480
       0.291
      -0.333
      -1.267
      -2.108
      -2.522
      -2.521
      -2.368
      -2.222
      -1.900
      -1.031
       0.528
       2.423
       3.963
       4.590
       4.273
       3.486
       2.824
       2.565
       2.512
       2.212
       1.344
      -0.020
      -1.440
      -2.391
      -2.612
      -2.288
      -1.903
      -1.871
      -2.265
      -2.854
      -3.368
      -3.692
      -3.804
      -3.621
      -2.983
      -1.862
      -0.522
       0.624
       1.347
       1.794
       2.274
       2.878
       3.350
       3.383
       3.013
       2.630
       2.584
       2.803
       2.831
       2.231
       0.980
      -0.496
      -1.636
      -2.145
      -2.176
      -2.175
      -2.503
      -3.112
      -3.544
      -3.283
      -2.183
      -0.633
       0.688
       1.267
       1.080
       0.551
       0.183
       0.188
       0.398
       0.498
       0.345
       0.099
       0.048
       0.297
       0.618
       0.650
       0.277
      -0.223
      -0.387
       0.069
       1.060
       2.236
       3.217
       3.750
       3.737
       3.230
       2.449
       1.728
       1.305
       1.118
       0.815
       0.020
      -1.358
      -3.029
      -4.475
      -5.230
      -5.077
      -4.100
      -2.601
      -0.957
       0.483
       1.462
       1.887
       1.882
       1.709
       1.556
       1.385
       1.009
       0.306
      -0.612
      -1.428
      -1.816
      -1.626
      -0.946
      -0.049
       0.712
       1.050
       0.897
       0.462
       0.071
      -0.086
      -0.087
      -0.138
      -0.330
      -0.546
      -0.601
      -0.464
      -0.334
      -0.479
      -0.989
      -1.646
      -2.049
      -1.895
      -1.207
      -0.298
       0.488
       1.041
       1.522
       2.131
       2.834
       3.338
       3.324
       2.715
       1.723
       0.672
      -0.207
      -0.864
      -1.374
      -1.816
      -2.203
      -2.475
      -2.575
      -2.525
      -2.420
      -2.340
      -2.230
      -1.907
      -1.214
      -0.200
       0.868
       1.708
       2.237
       2.582
       2.859
       2.984
       2.732
       2.007
       1.011
       0.118
      -0.432
      -0.697
      -0.922
      -1.275
      -1.673
      -1.822
      -1.441
      -0.508
       0.653
       1.544
       1.826
       1.553
       1.079
       0.731
       0.542
       0.288
      -0.259
      -1.080
      -1.890
      -2.334
      -2.240
      -1.736
      -1.149
      -0.778
      -0.695
      -0.732
      -0.664
      -0.399
      -0.010
       0.376
       0.684
       0.893
       0.976
       0.910
       0.754
       0.677
       0.830
       1.168
       1.436
       1.403
       1.099
       0.788
       0.693
       0.777
       0.818
       0.692
       0.510
       0.460
       0.554
       0.587
       0.345
      -0.158
      -0.656
      -0.857
      -0.684
      -0.316
      -0.005
       0.120
       0.099
       0.013
      -0.129
      -0.383
      -0.761
      -1.181
      -1.514
      -1.670
      -1.634
      -1.440
      -1.145
      -0.807
      -0.453
      -0.043
       0.485
       1.089
       1.577
       1.738
       1.573
       1.322
       1.229
       1.265
       1.130
       0.546
      -0.438
      -1.435
      -2.024
      -2.085
      -1.843
      -1.623
      -1.536
      -1.411
      -1.019
      -0.334
       0.412
       0.933
       1.153
       1.256
       1.460
       1.760
       1.906
       1.655
       1.024
       0.289
      -0.264
      -0.581
      -0.844
      -1.215
      -1.599
      -1.700
      -1.324
      -0.618
       0.028
       0.322
       0.305
       0.252
       0.380
       0.678
       0.988
       1.163
       1.142
       0.921
       0.519
       0.014
      -0.430
      -0.646
      -0.638
      -0.634
      -0.894
      -1.426
      -1.904
      -1.928
      -1.395
      -0.630
      -0.092
       0.059
       0.092
       0.382
       0.981
       1.531
       1.612
       1.136
       0.404
      -0.154
      -0.271
       0.066
       0.680
       1.310
       1.708
       1.743
       1.454
       1.013
       0.592
       0.242
      -0.100
      -0.478
      -0.812
      -0.962
      -0.885
      -0.722
      -0.715
      -1.013
      -1.524
      -1.951
      -2.019
      -1.700
      -1.207
      -0.775
      -0.449
      -0.093
       0.422
       1.064
       1.674
       2.112
       2.313
       2.240
       1.895
       1.386
       0.940
       0.740
       0.766
       0.797
       0.604
       0.156
      -0.352
      -0.670
      -0.698
      -0.538
      -0.373
      -0.314
      -0.379
      -0.577
      -0.915
      -1.304
      -1.518
      -1.344
      -0.808
      -0.241
      -0.083
      -0.551
      -1.441
      -2.248
      -2.512
      -2.103
      -1.264
      -0.420
       0.101
       0.286
       0.408
       0.766
       1.424
       2.179
