Origin Time       19/08/2012 09:24:49 UTC
Lat.              26.7°N	
Long.             92.5°E	
Depth (Km)         35.0
Magnitude         5.0
 Region           TEZPUR-ASSAM                                                     
 Above details taken from IMD 
    
Station Code      TZP
Station Lat.       26.619  N
Station Long.      92.797  E
Station Height(m)   76.0
Site Class        B   Vs30 between 375 m/sec to 700 m/sec *  
Record Time       19.08.2012 09:24:42.139 UTC
Sampling Rate     200. Hz
 Record Duration   74.495 Sec.
 Direction         N-S (N positive)
Max. Acceleration     26.329 cm/sec**2
     
  * For reference see Site Classification link of website 
     
 Base Line Corrected and Low Pass Filtered (Cut Off at 35 Hz) Time History
 Acceleration data in cm/sec**2
    
[...]
      -4.028
      -1.773
       0.863
       1.809
       1.042
      -0.159
      -1.020
      -1.987
      -3.781
      -6.125
      -7.655
      -7.081
      -4.333
      -0.599
       2.662
       4.712
       5.658
       5.789
       5.043
       3.271
       0.971
      -0.541
      -0.042
       2.368
       5.006
       5.717
       3.431
      -1.103
      -5.844
      -8.615
      -8.072
      -4.205
       1.606
       7.010
       9.647
       8.344
       3.854
      -1.420
      -4.664
      -4.171
      -0.298
       4.681
       7.755
       6.844
       2.113
      -3.947
      -7.979
      -7.927
      -4.355
       0.165
       3.053
       3.420
       2.179
       0.803
       0.071
      -0.140
      -0.194
      -0.096
       0.399
       1.223
       1.745
       1.213
      -0.508
      -2.665
      -4.108
      -4.130
      -2.954
      -1.510
      -0.703
      -0.749
      -1.090
      -0.968
      -0.170
       0.735
       0.916
       0.057
      -1.328
      -2.318
      -2.302
      -1.377
      -0.174
       0.637
       0.773
       0.435
       0.119
       0.276
       1.051
       2.201
       3.151
       3.164
       1.714
      -0.998
      -3.782
      -4.988
      -3.678
      -0.524
       2.489
       3.467
       1.982
      -0.721
      -2.771
      -3.033
      -1.692
       0.201
       1.654
       2.346
       2.560
       2.650
       2.602
       2.109
       1.042
      -0.196
      -0.890
      -0.652
       0.157
       0.701
       0.410
      -0.521
      -1.314
      -1.265
      -0.310
       0.935
       1.658
       1.479
       0.732
       0.140
       0.188
       0.752
       1.305
       1.460
       1.278
       1.055
       0.887
       0.552
      -0.146
      -1.032
      -1.631
      -1.608
      -1.057
      -0.365
       0.173
       0.559
       0.991
       1.597
       2.231
       2.473
       1.853
       0.250
      -1.808
      -3.277
      -3.259
      -1.763
       0.080
       0.695
      -0.774
      -3.694
      -6.240
      -6.585
      -4.137
       0.019
       3.771
       5.286
       4.138
       1.467
      -0.932
      -1.870
      -1.381
      -0.355
       0.313
       0.261
      -0.391
      -1.358
      -2.366
      -3.112
      -3.235
      -2.461
      -0.838
       1.156
       2.801
       3.549
       3.369
       2.711
       2.088
       1.642
       1.093
       0.071
      -1.486
      -3.190
      -4.367
      -4.409
      -3.125
      -0.945
       1.206
       2.351
       2.057
       0.744
      -0.546
      -0.790
       0.393
       2.555
       4.710
       5.875
       5.536
       3.836
       1.484
      -0.525
      -1.267
      -0.314
       1.922
       4.218
       5.183
       4.196
       1.902
      -0.263
      -1.157
      -0.712
       0.233
       0.753
       0.490
      -0.346
      -1.399
      -2.490
      -3.562
      -4.467
      -4.909
      -4.625
      -3.608
      -2.183
      -0.864
      -0.093
      -0.019
      -0.433
      -0.910
      -1.044
      -0.666
       0.067
       0.778
       1.119
       0.957
       0.372
      -0.513
      -1.623
      -2.818
      -3.707
      -3.698
      -2.390
      -0.067
       2.219
       3.194
       2.230
      -0.164
      -2.652
      -3.951
      -3.614
      -2.139
      -0.448
       0.740
       1.162
       0.882
       0.120
      -0.761
      -1.223
      -0.741
       0.821
       2.941
       4.633
       5.073
       4.200
       2.744
       1.631
       1.270
       1.346
       1.252
       0.690
      -0.074
      -0.478
      -0.158
       0.713
       1.498
       1.561
       0.819
      -0.118
      -0.451
       0.076
       0.934
       1.325
       0.971
       0.362
       0.221
       0.697
       1.123
       0.628
      -0.955
      -2.790
      -3.685
      -3.082
      -1.459
       0.168
       1.085
       1.259
       1.050
       0.716
       0.297
      -0.131
      -0.267
       0.148
       0.865
       1.050
      -0.097
      -2.513
      -5.022
      -6.034
      -4.689
      -1.548
       1.727
       3.493
       3.204
       1.668
       0.290
      -0.038
       0.518
       1.101
       0.983
       0.058
      -1.260
      -2.430
      -3.052
      -2.928
      -2.037
      -0.569
       1.044
       2.205
       2.423
       1.661
       0.449
      -0.424
      -0.446
       0.272
       1.134
       1.516
       1.189
       0.416
      -0.280
      -0.491
      -0.175
       0.380
       0.838
       1.053
       1.033
       0.724
      -0.032
      -1.246
      -2.508
      -3.113
      -2.581
      -1.116
       0.444
       1.207
       0.900
       0.092
      -0.274
       0.325
       1.520
       2.338
       2.011
       0.632
      -0.906
      -1.626
      -1.231
      -0.290
       0.284
       0.024
      -0.733
      -1.209
      -0.916
      -0.061
       0.690
       0.810
       0.274
      -0.552
      -1.240
      -1.507
      -1.216
      -0.349
       0.937
       2.227
       2.935
       2.612
       1.306
      -0.359
      -1.515
      -1.575
      -0.579
       0.884
       2.094
       2.644
       2.600
       2.330
       2.159
       2.130
       2.017
       1.590
       0.880
       0.201
      -0.121
      -0.078
      -0.021
      -0.355
      -1.145
      -2.032
      -2.577
      -2.704
      -2.774
      -3.141
      -3.674
      -3.776
      -2.969
      -1.451
      -0.038
       0.478
      -0.031
      -0.961
      -1.469
      -1.093
      -0.028
       1.077
       1.593
       1.331
       0.630
       0.068
       0.009
       0.330
       0.567
       0.383
      -0.090
      -0.402
      -0.291
       0.027
       0.117
      -0.161
      -0.471
      -0.314
       0.496
       1.618
       2.350
       2.035
       0.513
      -1.653
      -3.380
      -3.726
      -2.563
      -0.693
       0.752
       1.152
       0.771
       0.430
       0.815
       1.997
       3.418
       4.291
       4.089
       2.868
       1.264
       0.146
       0.067
       0.831
       1.585
       1.450
       0.259
      -1.255
      -2.016
      -1.483
      -0.106
       1.025
       1.048
      -0.004
      -1.277
      -1.810
      -1.297
      -0.263
       0.445
       0.358
      -0.325
      -1.042
      -1.392
      -1.356
      -1.130
      -0.844
      -0.486
      -0.018
       0.462
       0.709
       0.510
      -0.076
      -0.622
      -0.610
       0.065
       0.835
       0.848
      -0.228
      -1.760
      -2.617
      -2.123
      -0.596
       0.961
       1.622
       1.097
      -0.206
      -1.496
      -2.036
      -1.520
      -0.235
       1.080
       1.657
       1.180
      -0.026
      -1.259
      -1.920
      -1.836
      -1.213
      -0.369
       0.493
       1.297
       1.958
       2.305
       2.198
       1.714
       1.155
       0.778
       0.511
       0.018
      -0.884
      -1.893
      -2.402
      -2.059
      -1.116
      -0.209
       0.216
       0.253
       0.361
       0.877
       1.692
       2.375
       2.545
       2.147
       1.418
       0.637
      -0.096
      -0.858
      -1.676
      -2.315
      -2.360
      -1.608
      -0.419
       0.443
       0.414
      -0.349
      -1.053
      -0.905
       0.258
       1.835
       2.882
       2.729
       1.394
      -0.464
      -1.945
      -2.397
      -1.692
      -0.180
       1.522
       2.749
       2.983
       2.061
       0.327
      -1.465
      -2.529
      -2.483
      -1.533
      -0.288
       0.620
       0.869
       0.541
      -0.028
      -0.526
      -0.845
      -1.037
      -1.132
      -1.043
      -0.657
      -0.002
       0.685
       1.048
       0.828
       0.067
      -0.808
      -1.180
      -0.649
       0.628
       1.988
       2.708
       2.450
       1.384
      -0.007
      -1.198
      -1.806
      -1.707
      -1.098
      -0.420
      -0.144
      -0.499
      -1.316
      -2.068
      -2.147
      -1.268
       0.260
       1.681
       2.297
       1.935
       0.993
       0.065
      -0.479
      -0.626
      -0.576
      -0.537
      -0.625
      -0.815
      -0.917
      -0.661
       0.081
       1.089
       1.880
       2.051
       1.587
       0.868
       0.400
       0.486
       1.060
       1.749
       2.116
       1.923
       1.229
       0.271
      -0.720
      -1.561
      -2.024
      -1.837
      -0.919
       0.355
       1.245
       1.141
       0.098
      -1.119
      -1.577
      -0.918
       0.344
       1.247
       1.189
       0.376
      -0.437
      -0.655
      -0.305
       0.127
       0.229
       0.018
      -0.195
      -0.227
      -0.259
      -0.607
      -1.278
      -1.783
      -1.506
      -0.298
       1.256
       2.202
       1.918
       0.573
      -1.010
      -1.928
      -1.764
      -0.792
       0.256
       0.676
       0.208
      -0.836
      -1.825
      -2.246
      -2.003
      -1.369
      -0.698
      -0.216
      -0.046
      -0.279
      -0.876
      -1.507
      -1.633
      -0.914
       0.444
       1.794
       2.537
       2.521
       2.015
       1.369
       0.754
       0.197
      -0.248
      -0.407
      -0.095
       0.666
       1.538
       2.012
       1.773
       0.962
       0.110
      -0.244
       0.057
       0.704
       1.182
       1.164
       0.692
       0.049
      -0.476
      -0.705
      -0.565
      -0.115
       0.384
       0.537
       0.087
      -0.806
      -1.598
      -1.773
      -1.255
      -0.424
       0.308
       0.898
       1.596
       2.458
       3.001
       2.502
       0.748
      -1.493
      -2.893
      -2.612
      -1.039
       0.496
       0.829
      -0.129
      -1.454
      -2.121
      -1.841
      -1.143
      -0.760
      -0.982
      -1.506
      -1.819
      -1.662
      -1.151
      -0.531
       0.093
       0.730
       1.303
       1.575
       1.340
       0.673
      -0.056
      -0.418
      -0.229
       0.333
       0.871
       1.068
       0.889
       0.536
       0.259
       0.202
       0.359
       0.570
       0.569
       0.163
      -0.534
      -1.094
      -1.093
      -0.496
       0.286
       0.712
       0.515
      -0.085
      -0.529
      -0.338
       0.461
       1.290
       1.472
       0.818
      -0.204
      -0.865
      -0.738
       0.051
       1.007
       1.603
       1.500
       0.619
      -0.809
      -2.237
      -2.942
      -2.414
      -0.767
       1.197
       2.458
       2.465
       1.491
       0.354
      -0.235
      -0.139
       0.246
       0.431
       0.242
      -0.106
      -0.260
      -0.025
       0.510
       1.062
       1.369
       1.364
       1.157
       0.848
       0.391
      -0.315
      -1.188
      -1.891
      -2.062
      -1.610
      -0.776
       0.049
       0.536
       0.506
      -0.013
      -0.740
      -1.189
      -0.924
       0.066
       1.197
       1.583
       0.694
      -1.134
      -2.840
      -3.389
      -2.543
      -1.013
       0.118
       0.210
      -0.533
      -1.339
      -1.520
      -0.915
       0.150
       1.196
       1.867
       2.011
       1.661
       0.983
       0.174
      -0.602
      -1.189
      -1.366
      -0.932
       0.034
       1.031
       1.387
       0.800
      -0.325
      -1.111
      -0.870
       0.318
       1.637
       2.154
       1.545
       0.316
      -0.626
      -0.662
       0.162
       1.304
       2.193
       2.554
       2.419
       1.958
       1.342
       0.705
       0.153
      -0.246
      -0.529
      -0.866
      -1.426
      -2.122
      -2.501
      -2.035
      -0.639
       1.044
       1.985
       1.574
       0.209
      -0.987
      -1.137
      -0.361
       0.442
       0.551
       0.112
      -0.096
       0.457
       1.479
       2.117
       1.795
       0.745
      -0.261
      -0.697
      -0.770
      -1.125
      -2.121
      -3.446
      -4.361
      -4.278
      -3.121
      -1.313
       0.472
       1.627
       1.883
       1.424
       0.735
       0.260
       0.141
       0.230
       0.290
       0.156
      -0.261
      -0.972
      -1.778
      -2.192
      -1.670
      -0.134
       1.722
       2.774
       2.306
       0.616
      -1.130
      -1.716
      -0.698
       1.338
       3.207
       3.885
       3.080
       1.292
      -0.579
      -1.775
      -2.010
      -1.475
      -0.566
       0.422
       1.383
       2.235
       2.761
       2.754
       2.312
       1.868
       1.808
       2.067
       2.146
       1.551
       0.230
      -1.325
      -2.370
      -2.373
      -1.381
      -0.031
       0.840
       0.732
      -0.256
      -1.602
      -2.718
      -3.181
      -2.795
      -1.652
      -0.220
       0.775
       0.787
      -0.132
      -1.384
      -2.374
      -3.004
      -3.655
      -4.735
      -6.315
      -8.120
      -9.757
     -10.944
     -11.603
     -11.794
     -11.518
     -10.551
      -8.512
      -5.198
      -0.904
       3.593
       7.405
      10.015
      11.543
      12.601
      13.786
      15.096
      15.730
      14.578
      11.150
       6.155
       1.164
      -2.402
      -4.013
      -3.959
      -2.778
      -0.915
       1.159
       2.777
       3.285
       2.487
       0.832
      -0.945
      -2.441
      -3.900
      -5.881
      -8.522
     -11.019
     -11.811
      -9.438
      -3.464
       5.118
      14.247
      21.668
      25.835
      26.329
      23.633
      18.540
      11.756
       3.968
      -3.829
     -10.284
     -14.126
     -14.790
     -12.673
      -8.815
      -4.304
       0.072
       3.734
       6.053
       6.349
       4.259
       0.159
      -4.751
      -8.833
     -10.674
      -9.720
      -6.547
      -2.590
       0.620
       2.275
       2.605
       2.465
       2.540
       2.833
       2.820
       2.000
       0.329
      -1.764
      -3.700
      -5.125
      -6.078
      -6.851
      -7.633
      -8.264
      -8.345
      -7.622
      -6.243
      -4.651
      -3.222
      -1.991
      -0.662
       1.107
       3.334
       5.435
       6.301
       4.853
       0.896
      -4.362
      -8.712
     -10.221
      -8.528
      -5.116
      -2.230
      -1.265
      -1.896
      -2.519
      -1.480
       1.871
       6.833
      11.711
      14.651
      14.565
      11.651
       7.127
       2.383
      -1.716
      -4.865
      -6.864
      -7.353
      -6.067
      -3.265
       0.221
       3.420
       5.699
       6.870
       6.981
       6.145
       4.553
       2.555
       0.635
      -0.719
      -1.187
      -0.745
       0.353
       1.818
       3.609
       5.899
       8.658
      11.249
      12.507
      11.358
       7.505
       1.701
      -4.564
      -9.731
     -12.860
     -13.904
     -13.352
     -11.503
      -8.085
      -2.765
       3.866
       9.950
      13.304
      12.960
       9.827
       5.732
       1.756
      -2.454
      -7.652
     -13.327
     -17.208
     -16.684
     -11.048
      -2.623
       4.340
       6.335
       2.912
      -3.063
      -7.420
      -7.530
      -3.975
       0.072
       1.197
      -1.943
      -7.876
     -13.358
     -15.276
     -12.276
      -5.418
       2.385
       7.896
       9.254
       6.763
       2.288
      -2.106
      -5.121
      -6.275
      -5.496
      -2.925
       0.957
       5.195
       8.506
       9.712
       8.333
       5.025
       1.504
      -0.233
       0.947
       4.592
       8.936
      11.965
      12.456
      10.372
       6.616
       2.584
      -0.259
      -0.843
       0.999
       4.278
       7.235
       8.346
       7.337
       5.385
       4.203
       4.607
       5.722
       5.635
       3.108
      -1.127
      -4.758
      -5.755
      -4.047
      -1.532
      -0.492
      -1.870
      -4.778
      -7.352
      -7.992
      -6.139
      -2.428
       1.585
       3.996
       3.376
      -0.463
      -6.202
     -11.525
     -14.268
     -13.588
     -10.413
      -6.796
      -4.539
      -4.063
      -4.384
      -4.196
      -3.072
      -1.721
      -1.196
      -1.914
      -3.412
      -4.849
      -5.623
      -5.555
      -4.669
      -2.971
      -0.450
       2.737
       6.134
       9.057
      10.839
      11.134
      10.134
       8.535
       7.175
       6.488
       6.179
       5.473
       3.846
       1.641
      -0.084
      -0.427
       0.527
       1.700
       1.852
       0.483
      -1.961
      -4.619
      -6.887
      -8.597
      -9.713
     -10.032
      -9.264
      -7.353
      -4.592
      -1.440
       1.721
       4.659
       7.276
       9.645
      11.972
      14.287
      16.030
      16.078
      13.469
       8.386
       2.482
      -1.902
      -3.185
      -1.590
       0.992
       2.204
       0.685
      -3.163
      -7.528
     -10.364
     -10.618
      -8.801
      -6.588
      -5.711
      -6.749
      -8.622
      -9.221
      -6.914
      -1.891
       3.752
       7.372
       7.570
       5.031
       1.859
       0.074
       0.477
       2.533
       5.010
       6.683
       6.744
       4.978
       1.811
      -1.805
      -4.742
      -6.155
      -5.869
      -4.485
      -3.090
      -2.628
      -3.272
      -4.312
      -4.764
      -4.255
      -3.382
      -3.157
      -3.997
      -5.210
      -5.465
      -3.840
      -0.531
       3.335
       6.567
       8.642
       9.751
      10.252
      10.157
       9.116
       6.855
       3.584
      -0.015
      -3.188
      -5.473
      -6.715
      -6.868
      -5.963
      -4.350
      -2.830
      -2.250
      -2.731
      -3.300
      -2.555
       0.040
       3.447
       5.740
       5.727
       4.041
       2.660
       3.223
       5.650
       8.258
       9.169
       7.720
       4.776
       1.932
       0.434
       0.557
       1.622
       2.448
       1.986
      -0.066
      -2.982
      -5.350
      -5.975
      -4.779
      -2.971
      -2.239
      -3.494
      -6.103
      -8.234
      -8.101
      -5.264
      -1.046
       2.283
       3.075
       1.495
      -0.628
      -1.293
       0.044
       2.073
       2.826
       1.402
      -1.306
      -3.450
      -3.828
      -2.793
      -1.746
      -1.788
      -2.802
      -3.719
      -3.593
      -2.419
      -1.007
      -0.164
      -0.038
      -0.168
      -0.077
       0.257
       0.504
       0.485
       0.519
       1.224
       2.972
       5.500
       7.954
       9.268
       8.589
       5.627
       0.864
      -4.461
      -8.724
     -10.595
      -9.696
      -6.817
      -3.478
      -1.043
       0.077
       0.572
       1.570
       3.652
       6.357
       8.582
       9.454
       8.937
       7.704
       6.541
       5.801
       5.281
       4.537
       3.341
       1.889
       0.574
      -0.464
      -1.492
      -2.826
      -4.351
      -5.521
      -5.912
      -5.707
      -5.509
      -5.637
      -5.731
      -5.132
      -3.638
      -1.791
      -0.382
       0.289
       0.631
       1.317
       2.684
       4.522
       6.280
       7.409
       7.598
       6.852
       5.468
       3.866
       2.306
       0.643
      -1.580
      -4.634
      -8.037
     -10.508
     -10.694
