Origin Time       23/02/2014 17:04:50 UTC
Lat.              27.2 N	
Long.             92.5 E	
Depth (Km)         10.0
Magnitude         4.8
 Region           Kameng-Arunachal-Pradesh                                         
 Above details taken from IMD 
    
Station Code      TZP
Station Lat.       26.619  N
Station Long.      92.797  E
Station Height(m)   76.0
Site Class        B   Vs30 between 375 m/sec to 700 m/sec *  
Record Time       23.02.2014 17:04:43.879 UTC
Sampling Rate     200. Hz
 Record Duration   82.685 Sec.
 Direction         N-S (N positive)
Max. Acceleration      9.016 cm/sec**2
     
  * For reference see Site Classification link of website 
     
 Base Line Corrected and Low Pass Filtered (Cut Off at 35 Hz) Time History
 Acceleration data in cm/sec**2
    
[...]
      -0.146
      -0.047
       0.019
       0.030
      -0.029
      -0.132
      -0.205
      -0.169
      -0.009
       0.198
       0.338
       0.350
       0.287
       0.270
       0.384
       0.603
       0.798
       0.829
       0.645
       0.330
       0.047
      -0.067
       0.007
       0.173
       0.305
       0.343
       0.316
       0.302
       0.352
       0.450
       0.530
       0.524
       0.414
       0.240
       0.062
      -0.079
      -0.180
      -0.259
      -0.329
      -0.398
      -0.472
      -0.558
      -0.633
      -0.647
      -0.548
      -0.336
      -0.094
       0.054
       0.024
      -0.166
      -0.396
      -0.517
      -0.448
      -0.235
      -0.017
       0.066
      -0.028
      -0.232
      -0.425
      -0.522
      -0.514
      -0.442
      -0.358
      -0.300
      -0.294
      -0.356
      -0.471
      -0.580
      -0.599
      -0.466
      -0.191
       0.138
       0.402
       0.529
       0.539
       0.512
       0.511
       0.541
       0.565
       0.559
       0.520
       0.448
       0.325
       0.146
      -0.045
      -0.163
      -0.135
       0.029
       0.230
       0.348
       0.344
       0.293
       0.319
       0.473
       0.677
       0.780
       0.685
       0.420
       0.116
      -0.100
      -0.172
      -0.130
      -0.045
       0.013
      -0.003
      -0.104
      -0.252
      -0.367
      -0.370
      -0.246
      -0.080
      -0.003
      -0.092
      -0.291
      -0.439
      -0.389
      -0.123
       0.217
       0.421
       0.366
       0.105
      -0.171
      -0.281
      -0.182
       0.014
       0.157
       0.172
       0.088
      -0.036
      -0.175
      -0.333
      -0.485
      -0.554
      -0.477
      -0.276
      -0.072
       0.008
      -0.061
      -0.168
      -0.166
      -0.009
       0.195
       0.276
       0.161
      -0.051
      -0.173
      -0.100
       0.094
       0.224
       0.148
      -0.116
      -0.411
      -0.563
      -0.489
      -0.236
       0.057
       0.236
       0.212
       0.017
      -0.205
      -0.290
      -0.166
       0.104
       0.378
       0.542
       0.567
       0.486
       0.334
       0.131
      -0.089
      -0.250
      -0.270
      -0.133
       0.067
       0.181
       0.109
      -0.110
      -0.327
      -0.390
      -0.257
      -0.018
       0.189
       0.281
       0.275
       0.253
       0.278
       0.353
       0.427
       0.452
       0.420
       0.359
       0.303
       0.256
       0.191
       0.078
      -0.073
      -0.194
      -0.206
      -0.080
       0.112
       0.236
       0.192
       0.006
      -0.178
      -0.206
      -0.037
       0.217
       0.382
       0.350
       0.157
      -0.070
      -0.212
      -0.250
      -0.251
      -0.296
      -0.414
      -0.562
      -0.663
      -0.657
      -0.530
      -0.314
      -0.073
       0.106
       0.150
       0.049
      -0.128
      -0.266
      -0.297
      -0.250
      -0.212
      -0.236
      -0.282
      -0.260
      -0.135
       0.021
       0.076
      -0.037
      -0.244
      -0.373
      -0.297
      -0.053
       0.190
       0.266
       0.147
      -0.034
      -0.098
       0.034
       0.275
       0.438
       0.389
       0.168
      -0.026
       0.014
       0.323
       0.708
       0.884
       0.696
       0.251
      -0.157
      -0.282
      -0.111
       0.127
       0.162
      -0.090
      -0.447
      -0.606
      -0.382
       0.140
       0.669
       0.918
       0.798
       0.449
       0.116
      -0.028
       0.022
       0.139
       0.196
       0.153
       0.062
      -0.009
      -0.042
      -0.057
      -0.072
      -0.082
      -0.092
      -0.141
      -0.264
      -0.413
      -0.449
      -0.245
       0.179
       0.622
       0.827
       0.669
       0.259
      -0.134
      -0.284
      -0.172
       0.016
       0.059
      -0.118
      -0.404
      -0.613
      -0.640
      -0.519
      -0.366
      -0.268
      -0.233
      -0.212
      -0.166
      -0.103
      -0.059
      -0.063
      -0.106
      -0.149
      -0.158
      -0.126
      -0.081
      -0.052
      -0.050
      -0.069
      -0.108
      -0.173
      -0.261
      -0.345
      -0.373
      -0.303
      -0.131
       0.088
       0.271
       0.355
       0.345
       0.309
       0.310
       0.345
       0.335
       0.208
      -0.020
      -0.241
      -0.333
      -0.257
      -0.082
       0.071
       0.121
       0.078
       0.033
       0.082
       0.257
       0.488
       0.642
       0.613
       0.400
       0.113
      -0.100
      -0.142
      -0.030
       0.132
       0.227
       0.203
       0.100
       0.010
      -0.003
       0.047
       0.085
       0.049
      -0.039
      -0.084
      -0.010
       0.166
       0.329
       0.361
       0.236
       0.050
      -0.061
      -0.028
       0.094
       0.185
       0.161
       0.048
      -0.051
      -0.046
       0.060
       0.180
       0.200
       0.065
      -0.177
      -0.403
      -0.495
      -0.426
      -0.285
      -0.205
      -0.261
      -0.406
      -0.513
      -0.482
      -0.335
      -0.203
      -0.221
      -0.403
      -0.616
      -0.677
      -0.499
      -0.163
       0.145
       0.275
       0.200
       0.004
      -0.200
      -0.327
      -0.333
      -0.212
      -0.003
       0.196
       0.266
       0.137
      -0.149
      -0.446
      -0.594
      -0.519
      -0.270
       0.034
       0.284
       0.431
       0.485
       0.480
       0.455
       0.444
       0.471
       0.534
       0.588
       0.572
       0.457
       0.285
       0.152
       0.134
       0.219
       0.312
       0.310
       0.189
       0.029
      -0.049
       0.022
       0.205
       0.386
       0.463
       0.408
       0.276
       0.158
       0.112
       0.129
       0.151
       0.123
       0.046
      -0.031
      -0.072
      -0.112
      -0.237
      -0.487
      -0.776
      -0.916
      -0.756
      -0.331
       0.125
       0.335
       0.185
      -0.181
      -0.471
      -0.465
      -0.177
       0.180
       0.372
       0.303
       0.045
      -0.257
      -0.487
      -0.590
      -0.558
      -0.417
      -0.236
      -0.118
      -0.144
      -0.305
      -0.475
      -0.487
      -0.251
       0.151
       0.511
       0.636
       0.493
       0.223
       0.019
      -0.012
       0.098
       0.232
       0.294
       0.258
       0.148
      -0.008
      -0.191
      -0.364
      -0.465
      -0.434
      -0.275
      -0.071
       0.067
       0.090
       0.054
       0.079
       0.256
       0.574
       0.918
       1.136
       1.110
       0.822
       0.369
      -0.070
      -0.320
      -0.316
      -0.157
      -0.032
      -0.075
      -0.255
      -0.409
      -0.385
      -0.169
       0.115
       0.313
       0.358
       0.299
       0.228
       0.190
       0.166
       0.118
       0.043
      -0.034
      -0.098
      -0.170
      -0.273
      -0.382
      -0.424
      -0.343
      -0.172
      -0.034
      -0.049
      -0.222
      -0.426
      -0.490
      -0.339
      -0.050
       0.205
       0.289
       0.179
      -0.034
      -0.220
      -0.281
      -0.192
      -0.005
       0.192
       0.307
       0.293
       0.159
      -0.028
      -0.179
      -0.220
      -0.147
      -0.033
       0.023
      -0.018
      -0.094
      -0.101
      -0.005
       0.114
       0.137
       0.025
      -0.136
      -0.205
      -0.114
       0.078
       0.236
       0.254
       0.127
      -0.051
      -0.158
      -0.118
       0.057
       0.273
       0.416
       0.415
       0.284
       0.097
      -0.062
      -0.147
      -0.156
      -0.119
      -0.074
      -0.062
      -0.103
      -0.185
      -0.251
      -0.238
      -0.122
       0.055
       0.219
       0.319
       0.361
       0.379
       0.388
       0.364
       0.277
       0.128
      -0.042
      -0.183
      -0.265
      -0.275
      -0.205
      -0.062
       0.103
       0.199
       0.152
      -0.015
      -0.173
      -0.170
       0.051
       0.394
       0.657
       0.649
       0.307
      -0.248
      -0.775
      -1.044
      -0.961
      -0.617
      -0.207
       0.097
       0.237
       0.264
       0.260
       0.256
       0.213
       0.082
      -0.116
      -0.277
      -0.291
      -0.140
       0.063
       0.166
       0.087
      -0.118
      -0.300
      -0.321
      -0.143
       0.146
       0.388
       0.455
       0.327
       0.093
      -0.121
      -0.241
      -0.282
      -0.297
      -0.306
      -0.270
      -0.136
       0.094
       0.340
       0.492
       0.478
       0.311
       0.077
      -0.112
      -0.169
      -0.070
       0.127
       0.292
       0.284
       0.039
      -0.354
      -0.684
      -0.749
      -0.499
      -0.075
       0.296
       0.463
       0.423
       0.284
       0.164
       0.112
       0.111
       0.113
       0.084
       0.009
      -0.109
      -0.249
      -0.370
      -0.419
      -0.363
      -0.219
      -0.047
       0.089
       0.161
       0.188
       0.204
       0.229
       0.251
       0.257
       0.253
       0.258
       0.278
       0.282
       0.237
       0.145
       0.055
       0.019
       0.035
       0.040
      -0.032
      -0.175
      -0.301
      -0.315
      -0.203
      -0.046
       0.051
       0.062
       0.046
       0.070
       0.128
       0.139
       0.044
      -0.121
      -0.245
      -0.245
      -0.154
      -0.091
      -0.137
      -0.247
      -0.298
      -0.233
      -0.147
      -0.195
      -0.427
      -0.713
      -0.846
      -0.710
      -0.360
       0.054
       0.396
       0.596
       0.628
       0.483
       0.195
      -0.127
      -0.345
      -0.376
      -0.263
      -0.124
      -0.056
      -0.063
      -0.073
      -0.025
       0.088
       0.234
       0.387
       0.528
       0.628
       0.638
       0.546
       0.409
       0.316
       0.300
       0.298
       0.217
       0.045
      -0.124
      -0.180
      -0.103
       0.032
       0.141
       0.206
       0.254
       0.288
       0.254
       0.108
      -0.109
      -0.267
      -0.237
      -0.008
       0.285
       0.452
       0.377
       0.095
      -0.247
      -0.502
      -0.587
      -0.496
      -0.269
       0.018
       0.258
       0.341
       0.211
      -0.074
      -0.352
      -0.445
      -0.284
       0.027
       0.277
       0.297
       0.085
      -0.198
      -0.359
      -0.326
      -0.208
      -0.184
      -0.335
      -0.550
      -0.620
      -0.420
      -0.042
       0.259
       0.267
      -0.026
      -0.411
      -0.619
      -0.519
      -0.198
       0.113
       0.211
       0.054
      -0.219
      -0.400
      -0.348
      -0.065
       0.322
       0.645
       0.777
       0.698
       0.501
       0.343
       0.335
       0.460
       0.578
       0.538
       0.305
      -0.003
      -0.210
      -0.223
      -0.100
       0.012
       0.009
      -0.085
      -0.150
      -0.089
       0.080
       0.222
       0.193
      -0.039
      -0.345
      -0.517
      -0.415
      -0.072
       0.321
       0.553
       0.533
       0.327
       0.073
      -0.133
      -0.277
      -0.367
      -0.376
      -0.267
      -0.060
       0.126
       0.153
      -0.016
      -0.267
      -0.411
      -0.333
      -0.066
       0.247
       0.466
       0.526
       0.444
       0.278
       0.084
      -0.086
      -0.186
      -0.203
      -0.184
      -0.217
      -0.349
      -0.515
      -0.566
      -0.401
      -0.080
       0.212
       0.309
       0.201
       0.034
      -0.024
       0.080
       0.268
       0.406
       0.402
       0.237
      -0.038
      -0.317
      -0.470
      -0.424
      -0.224
      -0.019
       0.055
      -0.003
      -0.077
      -0.052
       0.059
       0.134
       0.076
      -0.077
      -0.173
      -0.081
       0.178
       0.439
       0.515
       0.331
      -0.025
      -0.364
      -0.514
      -0.426
      -0.202
      -0.026
      -0.030
      -0.205
      -0.406
      -0.462
      -0.299
       0.002
       0.270
       0.380
       0.346
       0.292
       0.312
       0.377
       0.364
       0.196
      -0.066
      -0.254
      -0.235
      -0.027
       0.223
       0.350
       0.287
       0.100
      -0.069
      -0.086
       0.102
       0.435
       0.761
       0.911
       0.813
       0.550
       0.324
       0.312
       0.526
       0.790
       0.873
       0.670
       0.290
      -0.036
      -0.147
      -0.049
       0.134
       0.309
       0.488
       0.731
       1.038
       1.311
       1.428
       1.368
       1.237
       1.194
       1.310
       1.505
       1.610
       1.492
       1.131
       0.608
       0.021
      -0.599
      -1.294
      -2.129
      -3.097
      -4.070
      -4.849
      -5.290
      -5.405
      -5.334
      -5.206
      -5.012
      -4.586
      -3.738
      -2.418
      -0.795
       0.814
       2.120
       3.006
       3.567
       3.995
       4.416
       4.770
       4.847
       4.435
       3.465
       2.057
       0.457
      -1.079
      -2.382
      -3.401
      -4.183
      -4.814
      -5.357
      -5.806
      -6.076
      -6.040
      -5.577
      -4.620
      -3.189
      -1.404
       0.543
       2.447
       4.169
       5.669
       6.962
       8.027
       8.761
       9.016
       8.691
       7.775
       6.319
       4.399
       2.125
      -0.294
      -2.528
      -4.221
      -5.146
      -5.320
      -4.976
      -4.434
      -3.940
      -3.560
      -3.135
      -2.348
      -0.929
       1.078
       3.175
       4.613
       4.840
       3.895
       2.412
       1.194
       0.692
       0.766
       0.897
       0.656
       0.036
      -0.585
      -0.792
      -0.494
       0.000
       0.227
      -0.059
      -0.716
      -1.335
      -1.546
      -1.254
      -0.649
      -0.058
       0.252
       0.179
      -0.188
      -0.611
      -0.792
      -0.498
       0.300
       1.367
       2.270
       2.573
       2.061
       0.853
      -0.678
      -2.116
      -3.187
      -3.807
      -4.018
      -3.913
      -3.619
      -3.291
      -3.031
      -2.777
      -2.295
      -1.353
       0.032
       1.508
       2.573
       2.909
       2.604
       2.078
       1.772
       1.863
       2.191
       2.422
       2.279
       1.672
       0.668
      -0.578
      -1.846
      -2.843
      -3.269
      -2.989
      -2.161
      -1.193
      -0.514
      -0.302
      -0.402
      -0.481
      -0.314
       0.066
       0.458
       0.740
       1.006
       1.459
       2.168
       2.946
       3.477
       3.550
       3.189
       2.596
       2.008
       1.580
       1.359
       1.270
       1.142
       0.784
       0.134
      -0.625
      -1.111
      -0.981
      -0.215
       0.778
       1.374
       1.164
       0.266
      -0.749
      -1.287
      -1.165
      -0.688
      -0.338
      -0.376
      -0.712
      -1.107
      -1.454
      -1.849
      -2.393
      -2.947
      -3.120
      -2.545
      -1.217
       0.409
       1.642
       1.974
       1.379
       0.318
      -0.546
      -0.753
      -0.321
       0.268
       0.392
      -0.288
      -1.609
      -3.039
      -4.058
      -4.467
      -4.434
      -4.262
      -4.110
      -3.864
      -3.244
      -2.047
      -0.341
       1.522
       3.077
       3.988
       4.184
       3.830
       3.184
       2.452
       1.735
       1.082
       0.558
       0.274
       0.354
       0.863
       1.735
       2.753
       3.602
       4.010
       3.909
       3.498
       3.127
       3.077
       3.366
       3.730
       3.787
       3.265
       2.130
       0.589
      -1.012
      -2.297
      -2.950
      -2.807
      -1.925
      -0.601
       0.720
       1.604
       1.784
       1.255
       0.296
      -0.623
      -1.051
      -0.823
      -0.194
       0.300
       0.206
      -0.534
      -1.590
      -2.535
      -3.155
      -3.544
      -3.928
      -4.452
      -5.091
      -5.721
      -6.210
      -6.446
      -6.308
      -5.699
      -4.635
      -3.312
      -2.029
      -1.017
      -0.320
       0.157
       0.505
       0.729
       0.797
       0.752
       0.728
       0.857
       1.144
       1.438
       1.532
       1.334
       0.991
       0.840
       1.188
       2.050
       3.077
       3.790
       3.923
       3.587
       3.113
       2.727
       2.377
       1.836
       0.967
      -0.092
      -0.961
      -1.228
      -0.677
       0.612
       2.309
       3.968
       5.177
       5.683
       5.473
       4.783
       3.992
       3.415
       3.114
       2.864
       2.327
       1.294
      -0.168
      -1.751
      -3.049
      -3.735
      -3.714
      -3.200
      -2.637
      -2.440
      -2.694
      -3.071
      -3.077
      -2.480
      -1.544
      -0.837
      -0.745
      -1.124
      -1.385
      -0.984
       0.129
       1.446
       2.262
       2.151
       1.205
      -0.076
      -1.115
      -1.558
      -1.422
      -1.037
      -0.824
      -1.040
      -1.622
      -2.262
      -2.653
      -2.683
      -2.431
      -2.002
      -1.414
      -0.661
       0.125
       0.631
       0.535
      -0.229
      -1.348
      -2.301
      -2.691
      -2.472
      -1.908
      -1.336
      -0.954
      -0.765
      -0.664
      -0.561
      -0.440
      -0.339
      -0.276
      -0.195
       0.017
       0.438
       0.998
       1.488
       1.706
       1.659
       1.617
       1.913
       2.644
       3.550
       4.224
       4.474
       4.467
       4.499
       4.617
       4.496
       3.740
       2.333
       0.793
      -0.170
      -0.197
       0.436
       1.069
       1.188
       0.794
       0.299
       0.119
       0.328
       0.673
       0.873
       0.866
       0.804
       0.826
       0.885
       0.795
       0.427
      -0.146
      -0.694
      -1.016
      -1.092
      -1.079
      -1.183
      -1.521
      -2.071
      -2.735
      -3.417
      -4.053
      -4.578
      -4.889
      -4.862
      -4.440
      -3.714
      -2.905
      -2.220
      -1.687
      -1.128
      -0.327
       0.724
       1.730
       2.262
       2.084
       1.385
       0.678
       0.429
       0.710
       1.154
       1.258
       0.778
      -0.113
      -1.000
      -1.556
      -1.737
      -1.699
      -1.584
      -1.396
      -1.088
      -0.729
      -0.519
      -0.617
      -0.940
      -1.151
      -0.900
      -0.118
       0.880
       1.600
       1.704
       1.234
       0.562
       0.141
       0.226
       0.750
       1.396
       1.812
       1.827
       1.537
       1.192
       0.997
       0.969
       0.962
       0.822
       0.528
       0.205
       0.007
      -0.015
       0.056
       0.074
      -0.052
      -0.276
      -0.421
      -0.260
       0.361
       1.416
       2.671
       3.790
       4.504
       4.760
       4.698
       4.491
       4.174
       3.635
       2.796
       1.779
       0.874
       0.300
      -0.013
      -0.389
      -1.110
      -2.116
      -2.993
      -3.280
      -2.838
