Origin Time       21/08/2013 08:41:51 UTC
Lat.              26.7 N	
Long.             92.4 E	
Depth (Km)         22.0
Magnitude         3.9
 Region           Sonitpur-Assam                                                   
 Above details taken from IMD 
    
Station Code      TZP
Station Lat.       26.619  N
Station Long.      92.797  E
Station Height(m)   76.0
Site Class        B   Vs30 between 375 m/sec to 700 m/sec *  
Record Time       21.08.2013 08:41:35.284 UTC
Sampling Rate     200. Hz
 Record Duration   82.210 Sec.
 Direction         N-S (N positive)
Max. Acceleration     -7.548 cm/sec**2
     
  * For reference see Site Classification link of website 
     
 Base Line Corrected and Low Pass Filtered (Cut Off at 35 Hz) Time History
 Acceleration data in cm/sec**2
    
[...]
       0.421
       0.494
       0.548
       0.521
       0.370
       0.082
      -0.282
      -0.579
      -0.659
      -0.475
      -0.149
       0.105
       0.143
       0.004
      -0.139
      -0.152
      -0.057
      -0.007
      -0.133
      -0.408
      -0.656
      -0.695
      -0.492
      -0.192
      -0.001
      -0.017
      -0.168
      -0.275
      -0.187
       0.129
       0.558
       0.902
       0.991
       0.800
       0.457
       0.147
      -0.025
      -0.079
      -0.082
      -0.069
      -0.032
       0.010
      -0.001
      -0.117
      -0.308
      -0.473
      -0.520
      -0.453
      -0.365
      -0.350
      -0.411
      -0.472
      -0.461
      -0.390
      -0.329
      -0.303
      -0.240
      -0.035
       0.316
       0.664
       0.810
       0.693
       0.457
       0.336
       0.452
       0.707
       0.870
       0.760
       0.382
      -0.087
      -0.420
      -0.466
      -0.224
       0.160
       0.459
       0.493
       0.246
      -0.113
      -0.359
      -0.375
      -0.231
      -0.111
      -0.142
      -0.291
      -0.405
      -0.378
      -0.261
      -0.206
      -0.299
      -0.459
      -0.521
      -0.399
      -0.149
       0.110
       0.304
       0.427
       0.482
       0.447
       0.308
       0.093
      -0.125
      -0.271
      -0.310
      -0.254
      -0.138
       0.016
       0.187
       0.333
       0.384
       0.293
       0.105
      -0.040
      -0.005
       0.213
       0.459
       0.529
       0.343
       0.017
      -0.234
      -0.268
      -0.123
       0.034
       0.056
      -0.068
      -0.218
      -0.254
      -0.129
       0.073
       0.201
       0.142
      -0.098
      -0.377
      -0.490
      -0.292
       0.189
       0.735
       1.046
       0.916
       0.362
      -0.387
      -1.005
      -1.226
      -0.942
      -0.255
       0.539
       1.046
       0.965
       0.290
      -0.626
      -1.243
      -1.185
      -0.509
       0.319
       0.738
       0.482
      -0.250
      -0.949
      -1.152
      -0.731
       0.064
       0.791
       1.092
       0.874
       0.318
      -0.261
      -0.588
      -0.555
      -0.235
       0.198
       0.562
       0.743
       0.708
       0.491
       0.167
      -0.163
      -0.413
      -0.533
      -0.513
      -0.356
      -0.081
       0.251
       0.521
       0.603
       0.445
       0.129
      -0.154
      -0.220
      -0.025
       0.289
       0.487
       0.423
       0.138
      -0.178
      -0.347
      -0.314
      -0.152
       0.020
       0.116
       0.119
       0.057
      -0.044
      -0.167
      -0.284
      -0.321
      -0.204
       0.041
       0.258
       0.289
       0.141
       0.005
       0.057
       0.268
       0.413
       0.283
      -0.134
      -0.628
      -0.910
      -0.788
      -0.296
       0.313
       0.706
       0.679
       0.289
      -0.201
      -0.506
      -0.494
      -0.235
       0.081
       0.266
       0.251
       0.110
      -0.002
       0.018
       0.146
       0.251
       0.204
      -0.021
      -0.329
      -0.560
      -0.582
      -0.378
      -0.088
       0.065
      -0.067
      -0.413
      -0.713
      -0.716
      -0.381
       0.105
       0.481
       0.590
       0.451
       0.210
       0.042
       0.069
       0.295
       0.597
       0.797
       0.778
       0.572
       0.318
       0.136
       0.035
      -0.054
      -0.165
      -0.232
      -0.159
       0.051
       0.243
       0.215
      -0.089
      -0.489
      -0.691
      -0.529
      -0.115
       0.247
       0.316
       0.102
      -0.157
      -0.206
       0.003
       0.284
       0.375
       0.170
      -0.183
      -0.395
      -0.277
       0.099
       0.441
       0.476
       0.163
      -0.277
      -0.546
      -0.494
      -0.195
       0.151
       0.372
       0.391
       0.210
      -0.123
      -0.502
      -0.740
      -0.643
      -0.168
       0.472
       0.890
       0.778
       0.143
      -0.662
      -1.155
      -1.031
      -0.357
       0.490
       1.065
       1.131
       0.757
       0.220
      -0.203
      -0.363
      -0.251
       0.049
       0.388
       0.575
       0.472
       0.097
      -0.349
      -0.596
      -0.497
      -0.128
       0.270
       0.466
       0.388
       0.142
      -0.086
      -0.189
      -0.203
      -0.236
      -0.325
      -0.382
      -0.289
      -0.051
       0.185
       0.235
       0.031
      -0.328
      -0.636
      -0.709
      -0.489
      -0.085
       0.289
       0.442
       0.322
       0.036
      -0.238
      -0.357
      -0.283
      -0.067
       0.186
       0.370
       0.410
       0.306
       0.142
       0.056
       0.161
       0.467
       0.844
       1.076
       0.992
       0.586
       0.048
      -0.346
      -0.412
      -0.175
       0.160
       0.373
       0.375
       0.219
       0.009
      -0.184
      -0.339
      -0.445
      -0.474
      -0.401
      -0.254
      -0.130
      -0.139
      -0.308
      -0.539
      -0.678
      -0.628
      -0.420
      -0.185
      -0.039
       0.003
       0.020
       0.096
       0.240
       0.379
       0.432
       0.378
       0.281
       0.225
       0.226
       0.199
       0.028
      -0.294
      -0.608
      -0.697
      -0.476
      -0.088
       0.200
       0.213
      -0.004
      -0.250
      -0.350
      -0.260
      -0.049
       0.178
       0.328
       0.339
       0.195
      -0.038
      -0.229
      -0.253
      -0.086
       0.168
       0.342
       0.333
       0.187
       0.049
       0.033
       0.132
       0.256
       0.332
       0.369
       0.414
       0.491
       0.558
       0.536
       0.363
       0.057
      -0.256
      -0.396
      -0.250
       0.107
       0.438
       0.505
       0.242
      -0.206
      -0.608
      -0.811
      -0.806
      -0.667
      -0.459
      -0.199
       0.107
       0.400
       0.547
       0.419
       0.026
      -0.432
      -0.661
      -0.487
      -0.011
       0.446
       0.558
       0.244
      -0.276
      -0.635
      -0.595
      -0.223
       0.173
       0.296
       0.095
      -0.211
      -0.337
      -0.185
       0.082
       0.207
       0.076
      -0.196
      -0.395
      -0.407
      -0.306
      -0.258
      -0.353
      -0.524
      -0.617
      -0.534
      -0.328
      -0.146
      -0.086
      -0.081
       0.050
       0.409
       0.866
       1.129
       0.996
       0.565
       0.165
       0.084
       0.343
       0.725
       0.985
       1.007
       0.812
       0.469
       0.053
      -0.337
      -0.580
      -0.584
      -0.361
      -0.037
       0.216
       0.286
       0.188
       0.027
      -0.099
      -0.166
      -0.204
      -0.234
      -0.243
      -0.235
      -0.255
      -0.348
      -0.482
      -0.539
      -0.414
      -0.130
       0.158
       0.290
       0.236
       0.124
       0.116
       0.261
       0.458
       0.552
       0.468
       0.266
       0.075
      -0.033
      -0.094
      -0.192
      -0.356
      -0.533
      -0.646
      -0.670
      -0.647
      -0.635
      -0.628
      -0.522
      -0.201
       0.313
       0.783
       0.889
       0.494
      -0.193
      -0.733
      -0.783
      -0.348
       0.237
       0.584
       0.510
       0.123
      -0.319
      -0.597
      -0.627
      -0.438
      -0.101
       0.288
       0.605
       0.730
       0.629
       0.410
       0.271
       0.359
       0.650
       0.949
       1.018
       0.740
       0.198
      -0.383
      -0.776
      -0.871
      -0.698
      -0.369
      -0.022
       0.206
       0.200
      -0.073
      -0.497
      -0.806
      -0.729
      -0.202
       0.512
       0.972
       0.879
       0.329
      -0.261
      -0.488
      -0.282
       0.083
       0.267
       0.163
      -0.056
      -0.156
      -0.077
       0.043
       0.050
      -0.042
      -0.078
       0.057
       0.286
       0.392
       0.230
      -0.127
      -0.447
      -0.534
      -0.368
      -0.079
       0.176
       0.287
       0.186
      -0.153
      -0.651
      -1.084
      -1.169
      -0.785
      -0.117
       0.420
       0.479
       0.061
      -0.474
      -0.673
      -0.335
       0.357
       0.997
       1.247
       1.029
       0.536
       0.074
      -0.133
      -0.071
       0.099
       0.199
       0.205
       0.235
       0.383
       0.554
       0.529
       0.184
      -0.333
      -0.685
      -0.604
      -0.126
       0.419
       0.643
       0.407
      -0.071
      -0.404
      -0.378
      -0.109
       0.112
       0.114
      -0.022
      -0.112
      -0.103
      -0.133
      -0.356
      -0.711
      -0.906
      -0.658
       0.005
       0.674
       0.851
       0.363
      -0.440
      -0.919
      -0.639
       0.268
       1.181
       1.458
       0.926
       0.006
      -0.631
      -0.598
      -0.067
       0.431
       0.474
       0.063
      -0.472
      -0.810
      -0.887
      -0.833
      -0.746
      -0.581
      -0.264
       0.132
       0.384
       0.340
       0.106
      -0.029
       0.120
       0.440
       0.624
       0.467
       0.055
      -0.314
      -0.383
      -0.121
       0.269
       0.526
       0.531
       0.370
       0.217
       0.174
       0.203
       0.193
       0.080
      -0.084
      -0.168
      -0.094
       0.055
       0.071
      -0.172
      -0.536
      -0.695
      -0.429
       0.152
       0.657
       0.706
       0.214
      -0.543
      -1.100
      -1.091
      -0.489
       0.359
       0.943
       0.937
       0.413
      -0.214
      -0.493
      -0.251
       0.308
       0.779
       0.846
       0.488
      -0.041
      -0.411
      -0.448
      -0.233
      -0.005
       0.040
      -0.106
      -0.286
      -0.338
      -0.239
      -0.104
      -0.067
      -0.155
      -0.299
      -0.424
      -0.513
      -0.572
      -0.574
      -0.455
      -0.175
       0.215
       0.573
       0.737
       0.650
       0.414
       0.216
       0.179
       0.262
       0.312
       0.192
      -0.103
      -0.429
      -0.578
      -0.423
      -0.022
       0.397
       0.585
       0.445
       0.102
      -0.177
      -0.168
       0.143
       0.550
       0.781
       0.688
       0.335
      -0.077
      -0.361
      -0.460
      -0.450
      -0.442
      -0.487
      -0.546
      -0.567
      -0.539
      -0.476
      -0.351
      -0.086
       0.370
       0.929
       1.348
       1.374
       0.942
       0.275
      -0.261
      -0.429
      -0.288
      -0.106
      -0.105
      -0.279
      -0.440
      -0.437
      -0.306
      -0.214
      -0.258
      -0.344
      -0.296
      -0.074
       0.140
       0.093
      -0.258
      -0.624
      -0.581
       0.050
       0.983
       1.643
       1.608
       0.931
       0.096
      -0.369
      -0.288
       0.078
       0.288
       0.094
      -0.412
      -0.934
      -1.215
      -1.162
      -0.820
      -0.310
       0.187
       0.460
       0.354
      -0.106
      -0.673
      -1.000
      -0.842
      -0.217
       0.590
       1.204
       1.377
       1.111
       0.600
       0.069
      -0.367
      -0.691
      -0.878
      -0.854
      -0.569
      -0.116
       0.271
       0.375
       0.175
      -0.127
      -0.278
      -0.184
       0.041
       0.224
       0.291
       0.290
       0.298
       0.333
       0.351
       0.299
       0.157
      -0.038
      -0.201
      -0.266
      -0.268
      -0.338
      -0.579
      -0.942
      -1.249
      -1.344
      -1.215
      -0.965
      -0.676
      -0.325
       0.161
       0.779
       1.391
       1.833
       2.077
       2.277
       2.604
       3.017
       3.165
       2.582
       1.069
      -1.018
      -2.885
      -3.782
      -3.521
      -2.592
      -1.780
      -1.579
      -1.857
      -2.018
      -1.514
      -0.268
       1.325
       2.747
       3.704
       4.171
       4.172
       3.603
       2.309
       0.370
      -1.733
      -3.265
      -3.630
      -2.693
      -0.843
       1.192
       2.624
       2.893
       1.936
       0.303
      -1.031
      -1.179
       0.090
       2.112
       3.646
       3.581
       1.612
      -1.523
      -4.399
      -5.667
      -4.790
      -2.332
       0.372
       1.955
       1.713
      -0.107
      -2.523
      -4.334
      -4.652
      -3.266
      -0.763
       1.664
       2.753
       1.903
      -0.338
      -2.490
      -3.056
      -1.570
       1.055
       3.174
       3.574
       2.242
       0.181
      -1.454
      -2.134
      -2.063
      -1.729
      -1.447
      -1.264
      -1.123
      -0.971
      -0.681
      -0.010
       1.213
       2.762
       3.927
       3.934
       2.598
       0.638
      -0.702
      -0.502
       1.209
       3.549
       5.448
       6.281
       5.983
       4.748
       2.759
       0.245
      -2.306
      -4.181
      -4.841
      -4.372
      -3.501
      -3.073
      -3.394
      -3.993
      -3.987
      -2.742
      -0.324
       2.540
       4.881
       5.954
       5.487
       3.671
       1.041
      -1.632
      -3.490
      -3.853
      -2.534
      -0.022
       2.631
       4.231
       3.998
       1.995
      -0.835
      -3.108
      -3.734
      -2.538
      -0.373
       1.418
       1.863
       0.924
      -0.681
      -2.223
      -3.551
      -4.962
      -6.509
      -7.548
      -7.107
      -4.824
      -1.502
       1.349
       2.636
       2.463
       1.870
       1.807
       2.326
       2.700
       2.292
       1.278
       0.530
       0.796
       1.966
       3.090
       3.104
       1.646
      -0.647
      -2.498
      -2.766
      -1.152
       1.597
       4.147
       5.391
       5.039
       3.569
       1.737
       0.118
      -0.962
      -1.304
      -0.860
       0.047
       0.664
       0.221
      -1.392
      -3.274
      -3.969
      -2.541
       0.570
       3.662
       4.850
       3.295
      -0.312
      -4.254
      -6.832
      -7.181
      -5.454
      -2.482
       0.679
       3.051
       3.955
       3.241
       1.421
      -0.526
      -1.684
      -1.711
      -0.948
      -0.056
       0.507
       0.759
       1.053
       1.718
       2.757
       3.786
       4.208
       3.551
       1.796
      -0.492
      -2.427
      -3.351
      -3.237
      -2.593
      -1.980
      -1.602
      -1.340
      -1.090
      -0.958
      -1.090
      -1.349
      -1.262
      -0.376
       1.249
       2.918
       3.703
       3.128
       1.577
       0.082
      -0.391
       0.376
       1.719
       2.593
       2.289
       0.856
      -1.041
      -2.622
      -3.451
      -3.557
      -3.216
      -2.651
      -1.901
      -0.952
       0.051
       0.789
       1.008
       0.778
       0.479
       0.477
       0.784
       1.010
       0.649
      -0.500
      -2.108
      -3.438
      -3.781
      -2.915
      -1.274
       0.320
       1.180
       1.161
       0.633
       0.143
       0.063
       0.482
       1.259
       2.118
       2.732
       2.892
       2.679
       2.455
       2.578
       3.053
       3.464
       3.307
       2.422
       1.118
      -0.101
      -0.898
      -1.218
      -1.150
      -0.780
      -0.218
       0.312
       0.512
       0.201
      -0.506
      -1.222
      -1.522
      -1.202
      -0.394
       0.520
       1.095
       1.003
       0.157
      -1.227
      -2.686
      -3.700
      -3.965
      -3.584
      -3.012
      -2.771
      -3.115
      -3.850
      -4.433
      -4.295
      -3.215
      -1.465
       0.374
       1.825
       2.798
       3.541
       4.302
       5.022
       5.329
       4.862
       3.639
       2.140
       0.997
       0.524
       0.505
       0.446
       0.072
      -0.395
      -0.454
       0.159
       1.140
       1.777
       1.492
       0.333
      -1.008
      -1.697
      -1.404
      -0.543
       0.073
      -0.123
      -1.061
      -2.144
      -2.707
      -2.412
      -1.358
       0.062
       1.351
       2.072
       1.967
       1.041
      -0.425
      -1.961
      -3.077
      -3.436
      -2.965
      -1.895
      -0.709
       0.006
      -0.169
      -1.215
      -2.621
      -3.640
      -3.719
      -2.786
      -1.228
       0.386
       1.588
       2.150
       2.077
       1.574
       1.017
       0.870
       1.472
       2.787
       4.307
       5.261
       5.086
       3.857
       2.321
       1.416
       1.583
       2.426
       3.039
       2.732
       1.540
       0.114
      -0.859
      -1.180
      -1.165
      -1.225
      -1.427
      -1.446
      -0.912
       0.181
       1.377
       2.049
       1.844
       0.923
      -0.151
      -0.804
      -0.821
      -0.440
      -0.126
      -0.237
      -0.834
      -1.731
      -2.656
      -3.354
      -3.615
      -3.309
      -2.511
      -1.584
      -1.060
      -1.311
      -2.243
      -3.321
      -3.943
      -3.850
      -3.233
      -2.471
      -1.805
      -1.223
      -0.611
       0.070
       0.765
       1.424
       2.063
       2.699
       3.248
       3.536
       3.435
       3.003
       2.476
       2.079
       1.864
       1.721
       1.540
       1.329
       1.139
       0.912
       0.463
      -0.339
      -1.376
      -2.304
      -2.783
      -2.700
      -2.212
      -1.602
      -1.109
      -0.838
      -0.732
      -0.607
      -0.234
       0.492
       1.421
       2.197
       2.526
       2.396
       2.042
       1.698
       1.417
       1.149
       0.942
       0.977
       1.364
       1.936
       2.289
       2.079
       1.292
       0.270
      -0.551
      -0.934
      -0.936
      -0.758
      -0.534
      -0.296
      -0.085
      -0.032
      -0.259
      -0.719
      -1.151
      -1.259
      -0.951
      -0.433
      -0.060
      -0.060
      -0.369
      -0.714
      -0.870
      -0.844
      -0.850
      -1.113
      -1.660
      -2.257
      -2.558
      -2.361
      -1.778
      -1.144
      -0.759
      -0.681
      -0.758
      -0.807
      -0.771
      -0.703
      -0.654
      -0.597
      -0.461
      -0.230
       0.020
       0.191
       0.275
       0.400
       0.730
       1.290
       1.892
       2.226
       2.097
       1.602
       1.081
       0.861
       1.007
       1.296
       1.438
       1.312
       1.022
       0.771
       0.693
       0.781
       0.950
       1.137
       1.335
       1.526
       1.605
       1.397
       0.779
      -0.161
      -1.077
      -1.539
      -1.336
      -0.666
      -0.014
       0.182
      -0.191
      -0.889
      -1.510
      -1.728
      -1.441
      -0.792
      -0.115
       0.208
      -0.051
      -0.795
      -1.601
      -1.976
      -1.710
      -1.047
      -0.486
      -0.356
      -0.555
      -0.676
      -0.402
       0.203
       0.765
       0.952
       0.784
       0.636
       0.909
       1.638
       2.379
       2.523
       1.817
       0.613
      -0.371
      -0.610
      -0.149
       0.490
       0.764
       0.506
      -0.039
      -0.507
      -0.750
      -0.924
      -1.274
      -1.848
      -2.391
      -2.522
      -2.016
      -0.970
