Origin Time       22/02/2010 17:23:43 UTC
Lat.              30.0 N	
Long.             80.1 E	
Depth (Km)          2.0
Magnitude         4.7
 Region           BAGESHWER-UTTARAKHAND                                            
 Above details taken from IMD 
    
Station Code      UDH
Station Lat.       28.997  N
Station Long.      79.403  E
Station Height(m)  213.0
Site Class        C   Vs30 between 200 m/sec to 375 m/sec *  
Record Time       22.02.2010 17:23:39.594 UTC
Sampling Rate     200. Hz
 Record Duration   98.610 Sec.
 Direction         N-S (N positive)
Max. Acceleration     -3.147 cm/sec**2
     
  * For reference see Site Classification link of website 
     
 Base Line Corrected and Low Pass Filtered (Cut Off at 35 Hz) Time History
 Acceleration data in cm/sec**2
    
[...]
      -0.047
      -0.067
      -0.086
      -0.095
      -0.083
      -0.052
      -0.014
       0.018
       0.037
       0.049
       0.062
       0.079
       0.098
       0.111
       0.104
       0.068
       0.008
      -0.058
      -0.106
      -0.124
      -0.114
      -0.089
      -0.062
      -0.038
      -0.015
       0.009
       0.031
       0.043
       0.048
       0.049
       0.050
       0.050
       0.045
       0.034
       0.019
       0.008
       0.010
       0.030
       0.059
       0.085
       0.096
       0.092
       0.080
       0.069
       0.068
       0.080
       0.095
       0.103
       0.095
       0.074
       0.045
       0.010
      -0.025
      -0.055
      -0.077
      -0.088
      -0.090
      -0.087
      -0.090
      -0.103
      -0.121
      -0.133
      -0.130
      -0.112
      -0.086
      -0.061
      -0.041
      -0.031
      -0.029
      -0.029
      -0.024
      -0.012
       0.005
       0.022
       0.034
       0.040
       0.045
       0.051
       0.059
       0.066
       0.073
       0.082
       0.092
       0.099
       0.099
       0.089
       0.072
       0.051
       0.035
       0.030
       0.035
       0.041
       0.042
       0.036
       0.028
       0.023
       0.019
       0.010
      -0.016
      -0.062
      -0.114
      -0.152
      -0.158
      -0.133
      -0.093
      -0.058
      -0.041
      -0.043
      -0.053
      -0.059
      -0.056
      -0.052
      -0.053
      -0.057
      -0.051
      -0.028
       0.013
       0.057
       0.083
       0.078
       0.044
      -0.003
      -0.044
      -0.069
      -0.076
      -0.066
      -0.042
      -0.009
       0.033
       0.079
       0.122
       0.155
       0.169
       0.166
       0.150
       0.129
       0.111
       0.098
       0.092
       0.086
       0.083
       0.085
       0.093
       0.100
       0.097
       0.079
       0.048
       0.011
      -0.022
      -0.045
      -0.058
      -0.065
      -0.067
      -0.059
      -0.041
      -0.023
      -0.024
      -0.050
      -0.097
      -0.145
      -0.173
      -0.170
      -0.145
      -0.114
      -0.096
      -0.096
      -0.107
      -0.117
      -0.115
      -0.101
      -0.082
      -0.071
      -0.072
      -0.077
      -0.079
      -0.076
      -0.072
      -0.072
      -0.077
      -0.083
      -0.085
      -0.078
      -0.064
      -0.053
      -0.049
      -0.052
      -0.054
      -0.050
      -0.043
      -0.039
      -0.042
      -0.048
      -0.047
      -0.026
       0.014
       0.062
       0.105
       0.133
       0.147
       0.148
       0.141
       0.128
       0.109
       0.083
       0.053
       0.025
       0.005
      -0.008
      -0.016
      -0.021
      -0.021
      -0.015
      -0.004
       0.011
       0.030
       0.046
       0.060
       0.072
       0.082
       0.089
       0.089
       0.081
       0.061
       0.029
      -0.008
      -0.039
      -0.050
      -0.038
      -0.008
       0.025
       0.051
       0.068
       0.081
       0.098
       0.116
       0.122
       0.105
       0.068
       0.025
      -0.010
      -0.033
      -0.048
      -0.065
      -0.089
      -0.113
      -0.125
      -0.117
      -0.090
      -0.056
      -0.027
      -0.011
      -0.013
      -0.026
      -0.042
      -0.050
      -0.048
      -0.039
      -0.027
      -0.015
      -0.006
      -0.003
      -0.009
      -0.020
      -0.029
      -0.027
      -0.003
       0.041
       0.093
       0.138
       0.171
       0.197
       0.220
       0.242
       0.262
       0.275
       0.279
       0.276
       0.273
       0.277
       0.286
       0.290
       0.278
       0.243
       0.186
       0.115
       0.043
      -0.018
      -0.061
      -0.087
      -0.100
      -0.105
      -0.109
      -0.116
      -0.131
      -0.153
      -0.183
      -0.218
      -0.247
      -0.261
      -0.256
      -0.240
      -0.220
      -0.200
      -0.181
      -0.154
      -0.115
      -0.066
      -0.017
       0.020
       0.040
       0.045
       0.040
       0.030
       0.018
       0.011
       0.011
       0.021
       0.039
       0.059
       0.071
       0.069
       0.051
       0.024
      -0.003
      -0.027
      -0.044
      -0.061
      -0.083
      -0.112
      -0.136
      -0.140
      -0.118
      -0.080
      -0.039
      -0.007
       0.014
       0.030
       0.046
       0.064
       0.078
       0.080
       0.070
       0.054
       0.047
       0.053
       0.067
       0.080
       0.077
       0.056
       0.021
      -0.012
      -0.036
      -0.049
      -0.055
      -0.060
      -0.067
      -0.078
      -0.085
      -0.079
      -0.060
      -0.032
      -0.004
       0.019
       0.032
       0.034
       0.024
       0.004
      -0.025
      -0.060
      -0.091
      -0.107
      -0.104
      -0.084
      -0.058
      -0.033
      -0.016
      -0.009
      -0.013
      -0.025
      -0.049
      -0.081
      -0.113
      -0.130
      -0.123
      -0.095
      -0.056
      -0.018
       0.010
       0.027
       0.045
       0.070
       0.102
       0.132
       0.153
       0.167
       0.175
       0.178
       0.173
       0.155
       0.121
       0.074
       0.027
      -0.007
      -0.024
      -0.031
      -0.039
      -0.055
      -0.078
      -0.099
      -0.115
      -0.128
      -0.148
      -0.183
      -0.227
      -0.261
      -0.266
      -0.235
      -0.177
      -0.110
      -0.051
      -0.006
       0.029
       0.059
       0.086
       0.102
       0.102
       0.087
       0.065
       0.043
       0.027
       0.018
       0.011
       0.001
      -0.015
      -0.034
      -0.054
      -0.072
      -0.081
      -0.079
      -0.067
      -0.047
      -0.017
       0.021
       0.063
       0.099
       0.125
       0.140
       0.151
       0.160
       0.168
       0.170
       0.160
       0.135
       0.102
       0.076
       0.065
       0.067
       0.071
       0.068
       0.051
       0.022
      -0.011
      -0.041
      -0.062
      -0.076
      -0.081
      -0.081
      -0.076
      -0.071
      -0.067
      -0.063
      -0.059
      -0.053
      -0.045
      -0.035
      -0.023
      -0.012
      -0.003
       0.007
       0.021
       0.040
       0.063
       0.087
       0.106
       0.115
       0.117
       0.117
       0.121
       0.130
       0.142
       0.155
       0.162
       0.159
       0.143
       0.118
       0.083
       0.038
      -0.018
      -0.077
      -0.127
      -0.158
      -0.167
      -0.163
      -0.160
      -0.170
      -0.187
      -0.198
      -0.194
      -0.178
      -0.160
      -0.145
      -0.130
      -0.112
      -0.089
      -0.072
      -0.074
      -0.097
      -0.133
      -0.159
      -0.155
      -0.115
      -0.052
       0.014
       0.065
       0.093
       0.104
       0.111
       0.114
       0.105
       0.077
       0.029
      -0.028
      -0.082
      -0.121
      -0.136
      -0.131
      -0.111
      -0.086
      -0.057
      -0.023
       0.013
       0.049
       0.079
       0.099
       0.107
       0.105
       0.096
       0.081
       0.056
       0.025
      -0.005
      -0.025
      -0.028
      -0.014
       0.011
       0.034
       0.039
       0.019
      -0.020
      -0.061
      -0.088
      -0.089
      -0.065
      -0.026
       0.017
       0.057
       0.097
       0.140
       0.185
       0.231
       0.275
       0.319
       0.360
       0.398
       0.435
       0.472
       0.511
       0.557
       0.612
       0.673
       0.733
       0.782
       0.819
       0.845
       0.864
       0.879
       0.888
       0.889
       0.878
       0.854
       0.819
       0.774
       0.714
       0.635
       0.534
       0.415
       0.282
       0.141
      -0.007
      -0.166
      -0.341
      -0.530
      -0.721
      -0.894
      -1.040
      -1.162
      -1.269
      -1.376
      -1.486
      -1.591
      -1.670
      -1.712
      -1.715
      -1.691
      -1.648
      -1.590
      -1.516
      -1.418
      -1.288
      -1.121
      -0.922
      -0.705
      -0.480
      -0.254
      -0.032
       0.179
       0.378
       0.562
       0.728
       0.873
       0.999
       1.104
       1.186
       1.241
       1.274
       1.295
       1.315
       1.344
       1.383
       1.423
       1.450
       1.457
       1.444
       1.423
       1.397
       1.357
       1.280
       1.146
       0.944
       0.690
       0.410
       0.125
      -0.163
      -0.463
      -0.781
      -1.110
      -1.429
      -1.722
      -1.981
      -2.210
      -2.409
      -2.569
      -2.670
      -2.691
      -2.630
      -2.496
      -2.303
      -2.067
      -1.800
      -1.514
      -1.219
      -0.920
      -0.622
      -0.334
      -0.064
       0.176
       0.371
       0.509
       0.585
       0.604
       0.570
       0.489
       0.373
       0.238
       0.101
      -0.023
      -0.122
      -0.180
      -0.178
      -0.102
       0.052
       0.271
       0.533
       0.816
       1.109
       1.412
       1.723
       2.028
       2.308
       2.535
       2.685
       2.740
       2.695
       2.554
       2.329
       2.035
       1.683
       1.276
       0.812
       0.296
      -0.248
      -0.782
      -1.269
      -1.686
      -2.021
      -2.265
      -2.418
      -2.480
      -2.456
      -2.349
      -2.163
      -1.900
      -1.569
      -1.184
      -0.768
      -0.343
       0.069
       0.450
       0.787
       1.075
       1.314
       1.502
       1.634
       1.704
       1.713
       1.666
       1.565
       1.411
       1.208
       0.972
       0.730
       0.513
       0.343
       0.225
       0.147
       0.090
       0.042
      -0.003
      -0.041
      -0.072
      -0.095
      -0.116
      -0.141
      -0.174
      -0.209
      -0.239
      -0.262
      -0.279
      -0.292
      -0.300
      -0.303
      -0.302
      -0.303
      -0.310
      -0.321
      -0.330
      -0.326
      -0.295
      -0.234
      -0.146
      -0.043
       0.066
       0.181
       0.308
       0.452
       0.604
       0.736
       0.812
       0.806
       0.716
       0.556
       0.347
       0.109
      -0.147
      -0.415
      -0.696
      -0.985
      -1.280
      -1.574
      -1.850
      -2.088
      -2.269
      -2.385
      -2.438
      -2.434
      -2.376
      -2.270
      -2.123
      -1.936
      -1.706
      -1.428
      -1.109
      -0.764
      -0.418
      -0.097
       0.183
       0.421
       0.626
       0.807
       0.960
       1.077
       1.151
       1.182
       1.182
       1.163
       1.129
       1.076
       1.000
       0.906
       0.810
       0.731
       0.675
       0.641
       0.619
       0.598
       0.567
       0.523
       0.467
       0.396
       0.307
       0.201
       0.086
      -0.027
      -0.129
      -0.218
      -0.287
      -0.332
      -0.347
      -0.324
      -0.256
      -0.146
      -0.005
       0.159
       0.336
       0.521
       0.708
       0.892
       1.062
       1.206
       1.311
       1.369
       1.387
       1.376
       1.342
       1.289
       1.218
       1.135
       1.051
       0.980
       0.935
       0.915
       0.911
       0.905
       0.880
       0.825
       0.735
       0.619
       0.486
       0.339
       0.176
      -0.008
      -0.215
      -0.443
      -0.691
      -0.953
      -1.218
      -1.471
      -1.702
      -1.904
      -2.080
      -2.240
      -2.388
      -2.521
      -2.619
      -2.660
      -2.634
      -2.545
      -2.411
      -2.247
      -2.060
      -1.838
      -1.566
      -1.234
      -0.852
      -0.436
      -0.004
       0.432
       0.863
       1.278
       1.664
       2.000
       2.267
       2.447
       2.534
       2.526
       2.429
       2.252
       2.012
       1.728
       1.419
       1.105
       0.805
       0.533
       0.293
       0.088
      -0.078
      -0.204
      -0.296
      -0.367
      -0.429
      -0.487
      -0.532
      -0.554
      -0.542
      -0.500
      -0.439
      -0.373
      -0.305
      -0.229
      -0.137
      -0.026
       0.094
       0.203
       0.275
       0.297
       0.275
       0.223
       0.155
       0.071
      -0.040
      -0.188
      -0.378
      -0.595
      -0.812
      -0.999
      -1.132
      -1.201
      -1.200
      -1.136
      -1.023
      -0.873
      -0.694
      -0.494
      -0.286
      -0.086
       0.098
       0.271
       0.443
       0.626
       0.820
       1.016
       1.203
       1.370
       1.517
       1.640
       1.723
       1.746
       1.693
       1.559
       1.350
       1.075
       0.744
       0.371
      -0.027
      -0.423
      -0.791
      -1.107
      -1.362
      -1.550
      -1.667
      -1.712
      -1.689
      -1.607
      -1.478
      -1.316
      -1.136
      -0.948
      -0.760
      -0.574
      -0.394
      -0.224
      -0.064
       0.089
       0.235
       0.375
       0.508
       0.631
       0.737
       0.818
       0.872
       0.907
       0.939
       0.981
       1.037
       1.099
       1.156
       1.201
       1.232
       1.251
       1.258
       1.254
       1.241
       1.222
       1.205
       1.199
       1.217
       1.264
       1.325
       1.372
       1.376
       1.308
       1.154
       0.904
       0.562
       0.140
      -0.340
      -0.847
      -1.347
      -1.809
      -2.220
      -2.572
      -2.854
      -3.051
      -3.147
      -3.135
      -3.017
      -2.810
      -2.539
      -2.232
      -1.912
      -1.596
      -1.290
      -1.000
      -0.729
      -0.473
      -0.226
       0.020
       0.273
       0.534
       0.793
       1.033
       1.238
       1.395
       1.492
       1.514
       1.456
       1.318
       1.109
       0.845
       0.547
       0.238
      -0.062
      -0.338
      -0.572
      -0.749
      -0.855
      -0.878
      -0.803
      -0.626
      -0.363
      -0.047
       0.280
       0.580
       0.829
       1.018
       1.144
       1.207
       1.202
       1.133
       1.012
       0.862
       0.703
       0.543
       0.378
       0.194
      -0.017
      -0.253
      -0.499
      -0.736
      -0.954
      -1.147
      -1.308
      -1.429
      -1.500
      -1.518
      -1.484
      -1.397
      -1.255
      -1.054
      -0.793
      -0.482
      -0.145
       0.186
       0.485
       0.736
       0.935
       1.089
       1.205
       1.289
       1.333
       1.328
       1.266
       1.146
       0.976
       0.761
       0.509
       0.230
      -0.059
      -0.337
      -0.579
      -0.767
      -0.894
      -0.960
      -0.969
      -0.920
      -0.816
      -0.668
      -0.496
      -0.323
      -0.162
      -0.019
       0.115
       0.254
       0.409
       0.577
       0.750
       0.907
       1.026
       1.090
       1.091
       1.031
       0.915
       0.754
       0.559
       0.350
       0.147
      -0.030
      -0.170
      -0.271
      -0.332
      -0.358
      -0.354
      -0.332
      -0.311
      -0.308
      -0.326
      -0.353
      -0.368
      -0.359
      -0.321
      -0.267
      -0.215
      -0.182
      -0.176
      -0.195
      -0.232
      -0.280
      -0.331
      -0.376
      -0.403
      -0.399
      -0.354
      -0.264
      -0.143
      -0.012
       0.108
       0.210
       0.295
       0.365
       0.420
       0.456
       0.467
       0.455
       0.430
       0.408
       0.402
       0.410
       0.426
       0.440
       0.444
       0.425
       0.377
       0.291
       0.162
      -0.005
      -0.196
      -0.384
      -0.543
      -0.655
      -0.716
      -0.735
      -0.729
      -0.718
      -0.712
      -0.709
      -0.701
      -0.680
      -0.637
      -0.567
      -0.472
      -0.362
      -0.243
      -0.122
      -0.007
       0.094
       0.177
       0.245
       0.305
       0.365
       0.427
       0.490
       0.548
       0.595
       0.629
       0.644
       0.631
       0.579
       0.488
       0.368
       0.237
       0.114
       0.008
      -0.075
      -0.135
      -0.172
      -0.182
      -0.161
      -0.111
      -0.042
       0.029
       0.089
       0.128
       0.142
       0.129
       0.090
       0.023
      -0.065
      -0.160
      -0.237
      -0.269
      -0.240
      -0.151
      -0.023
       0.112
       0.224
       0.298
       0.341
       0.362
       0.366
       0.350
       0.312
       0.255
       0.185
       0.109
       0.026
      -0.066
      -0.169
      -0.272
      -0.358
      -0.415
      -0.443
      -0.453
      -0.459
      -0.468
      -0.485
      -0.507
      -0.523
      -0.524
      -0.506
      -0.465
      -0.395
      -0.290
      -0.148
       0.027
       0.225
       0.430
       0.623
       0.792
       0.930
       1.040
       1.126
       1.191
       1.232
       1.243
       1.218
       1.161
       1.076
       0.961
       0.808
       0.611
       0.379
       0.130
      -0.120
      -0.361
      -0.593
      -0.811
      -1.003
      -1.150
      -1.228
      -1.226
      -1.146
      -1.002
      -0.815
      -0.608
      -0.402
      -0.219
      -0.077
       0.009
       0.035
       0.013
      -0.029
      -0.059
      -0.055
      -0.016
       0.043
       0.098
       0.130
       0.132
       0.110
       0.077
       0.036
      -0.018
      -0.092
      -0.184
      -0.279
      -0.357
      -0.403
      -0.410
      -0.382
      -0.330
      -0.263
      -0.190
      -0.129
      -0.095
      -0.096
      -0.126
      -0.177
      -0.232
      -0.280
      -0.311
      -0.321
      -0.307
      -0.268
      -0.208
      -0.139
      -0.082
      -0.054
      -0.064
      -0.109
      -0.171
      -0.223
      -0.237
      -0.201
      -0.120
      -0.011
       0.103
       0.208
       0.302
       0.393
       0.485
       0.572
       0.645
       0.700
       0.740
       0.776
       0.816
       0.863
       0.912
       0.956
       0.989
       1.007
       1.007
       0.983
       0.930
       0.850
       0.743
       0.613
       0.467
       0.317
       0.178
       0.062
      -0.031
      -0.103
      -0.169
      -0.243
      -0.338
      -0.457
      -0.589
      -0.719
      -0.831
      -0.911
      -0.955
      -0.964
      -0.944
      -0.900
      -0.843
      -0.786
      -0.753
      -0.761
      -0.817
      -0.911
      -1.013
      -1.079
      -1.071
      -0.974
      -0.799
      -0.569
      -0.309
      -0.034
       0.248
       0.529
       0.791
       1.010
       1.161
       1.220
       1.180
       1.047
       0.849
       0.626
       0.421
       0.265
       0.174
       0.150
       0.184
       0.263
       0.372
       0.500
       0.635
       0.764
       0.871
       0.943
       0.969
       0.943
       0.867
       0.753
       0.620
       0.483
       0.350
       0.225
       0.107
      -0.003
      -0.105
      -0.199
      -0.289
      -0.375
      -0.455
      -0.518
      -0.557
      -0.571
      -0.572
      -0.575
      -0.588
      -0.613
      -0.641
      -0.662
      -0.675
      -0.690
      -0.727
      -0.800
      -0.907
      -1.033
      -1.157
      -1.259
      -1.331
      -1.371
      -1.383
      -1.357
