Origin Time       20/06/2011 06:27:18
Lat.              30.5 N	
Long.             79.4 E	
Depth (Km)         12.0
Magnitude         4.6
 Region           Chamoli-Uttarakhand                                              
 Above details taken from IMD 
     
Station Code      UDH
Station Lat.       28.997  N
Station Long.      79.403  E
Station Height(m)  213.0
Site Class        C   Vs30 between 200 m/sec to 375 m/sec *  
Record Time       20.06.2011 06:27:41.359
Sampling Rate     200. Hz
 Record Duration   80.845 Sec.
 Direction         E-W (E positive)
Max. Acceleration     -1.767 cm/sec**2
     
  * For reference see Site Classification link of website 
     
 Base Line Corrected and Low Pass Filtered (Cut Off at 35 Hz) Time History
 Acceleration data in cm/sec**2
    
[...]
       0.105
       0.079
       0.044
       0.011
      -0.014
      -0.034
      -0.054
      -0.080
      -0.109
      -0.137
      -0.158
      -0.167
      -0.161
      -0.142
      -0.123
      -0.118
      -0.123
      -0.123
      -0.104
      -0.066
      -0.019
       0.024
       0.055
       0.075
       0.087
       0.098
       0.114
       0.137
       0.170
       0.203
       0.219
       0.208
       0.176
       0.144
       0.126
       0.120
       0.116
       0.108
       0.093
       0.072
       0.046
       0.019
       0.001
      -0.004
       0.002
       0.008
      -0.001
      -0.030
      -0.072
      -0.110
      -0.131
      -0.136
      -0.134
      -0.130
      -0.133
      -0.145
      -0.159
      -0.162
      -0.147
      -0.117
      -0.085
      -0.061
      -0.050
      -0.050
      -0.048
      -0.032
      -0.001
       0.036
       0.071
       0.097
       0.110
       0.106
       0.091
       0.078
       0.074
       0.077
       0.078
       0.069
       0.047
       0.023
       0.010
       0.013
       0.028
       0.044
       0.052
       0.052
       0.044
       0.034
       0.032
       0.045
       0.073
       0.106
       0.133
       0.148
       0.148
       0.137
       0.121
       0.105
       0.092
       0.079
       0.062
       0.035
      -0.006
      -0.054
      -0.093
      -0.111
      -0.110
      -0.101
      -0.097
      -0.095
      -0.090
      -0.077
      -0.055
      -0.026
       0.006
       0.040
       0.073
       0.099
       0.112
       0.109
       0.099
       0.089
       0.077
       0.057
       0.031
       0.004
      -0.017
      -0.034
      -0.054
      -0.079
      -0.105
      -0.125
      -0.132
      -0.126
      -0.106
      -0.075
      -0.037
      -0.003
       0.013
       0.007
      -0.012
      -0.024
      -0.021
      -0.007
       0.008
       0.020
       0.031
       0.040
       0.043
       0.041
       0.038
       0.037
       0.036
       0.030
       0.013
      -0.017
      -0.049
      -0.071
      -0.074
      -0.062
      -0.043
      -0.022
      -0.004
       0.007
       0.011
       0.014
       0.024
       0.045
       0.068
       0.080
       0.071
       0.046
       0.026
       0.030
       0.055
       0.080
       0.087
       0.073
       0.042
       0.002
      -0.038
      -0.065
      -0.074
      -0.071
      -0.066
      -0.068
      -0.080
      -0.099
      -0.117
      -0.125
      -0.123
      -0.113
      -0.096
      -0.078
      -0.066
      -0.061
      -0.055
      -0.034
       0.001
       0.037
       0.057
       0.059
       0.049
       0.039
       0.040
       0.053
       0.071
       0.086
       0.090
       0.082
       0.064
       0.047
       0.044
       0.058
       0.081
       0.095
       0.093
       0.080
       0.065
       0.054
       0.049
       0.055
       0.072
       0.089
       0.093
       0.073
       0.032
      -0.010
      -0.032
      -0.031
      -0.025
      -0.033
      -0.055
      -0.074
      -0.076
      -0.064
      -0.050
      -0.041
      -0.035
      -0.026
      -0.013
      -0.001
       0.006
       0.012
       0.024
       0.039
       0.047
       0.038
       0.018
       0.004
       0.004
       0.013
       0.019
       0.018
       0.013
       0.008
       0.002
      -0.009
      -0.024
      -0.038
      -0.047
      -0.051
      -0.055
      -0.062
      -0.066
      -0.058
      -0.038
      -0.016
      -0.002
       0.003
       0.006
       0.008
       0.006
      -0.003
      -0.013
      -0.016
      -0.008
       0.001
      -0.003
      -0.025
      -0.049
      -0.051
      -0.022
       0.020
       0.048
       0.052
       0.037
       0.017
       0.006
       0.005
       0.007
       0.004
      -0.009
      -0.031
      -0.057
      -0.082
      -0.093
      -0.081
      -0.046
      -0.003
       0.035
       0.058
       0.066
       0.070
       0.082
       0.111
       0.149
       0.180
       0.193
       0.183
       0.158
       0.129
       0.110
       0.110
       0.122
       0.130
       0.120
       0.084
       0.028
      -0.035
      -0.086
      -0.116
      -0.132
      -0.148
      -0.170
      -0.193
      -0.204
      -0.198
      -0.176
      -0.142
      -0.103
      -0.066
      -0.040
      -0.030
      -0.032
      -0.032
      -0.017
       0.014
       0.047
       0.062
       0.058
       0.045
       0.038
       0.040
       0.047
       0.052
       0.050
       0.040
       0.022
      -0.001
      -0.024
      -0.038
      -0.038
      -0.022
      -0.005
       0.001
      -0.004
      -0.009
       0.000
       0.023
       0.053
       0.081
       0.098
       0.099
       0.087
       0.071
       0.061
       0.058
       0.058
       0.057
       0.051
       0.043
       0.041
       0.049
       0.063
       0.069
       0.061
       0.038
       0.004
      -0.037
      -0.071
      -0.084
      -0.074
      -0.055
      -0.046
      -0.056
      -0.078
      -0.095
      -0.097
      -0.084
      -0.070
      -0.064
      -0.067
      -0.072
      -0.073
      -0.071
      -0.060
      -0.036
       0.002
       0.039
       0.061
       0.062
       0.051
       0.042
       0.051
       0.075
       0.100
       0.109
       0.100
       0.080
       0.053
       0.027
       0.008
       0.000
      -0.004
      -0.018
      -0.048
      -0.088
      -0.123
      -0.142
      -0.140
      -0.125
      -0.109
      -0.102
      -0.106
      -0.118
      -0.130
      -0.134
      -0.126
      -0.106
      -0.086
      -0.078
      -0.082
      -0.091
      -0.096
      -0.090
      -0.076
      -0.056
      -0.040
      -0.035
      -0.047
      -0.076
      -0.111
      -0.133
      -0.129
      -0.107
      -0.084
      -0.080
      -0.091
      -0.102
      -0.096
      -0.073
      -0.038
      -0.004
       0.021
       0.027
       0.011
      -0.020
      -0.049
      -0.063
      -0.054
      -0.033
      -0.017
      -0.021
      -0.040
      -0.061
      -0.072
      -0.073
      -0.064
      -0.051
      -0.041
      -0.043
      -0.055
      -0.067
      -0.065
      -0.046
      -0.019
       0.002
       0.011
       0.010
       0.008
       0.010
       0.011
       0.005
      -0.007
      -0.023
      -0.041
      -0.065
      -0.094
      -0.116
      -0.120
      -0.108
      -0.087
      -0.067
      -0.050
      -0.032
      -0.006
       0.026
       0.060
       0.090
       0.120
       0.154
       0.184
       0.200
       0.204
       0.209
       0.221
       0.229
       0.215
       0.177
       0.127
       0.083
       0.054
       0.034
       0.010
      -0.020
      -0.045
      -0.058
      -0.063
      -0.069
      -0.074
      -0.070
      -0.056
      -0.040
      -0.033
      -0.034
      -0.032
      -0.017
       0.017
       0.062
       0.101
       0.126
       0.136
       0.135
       0.130
       0.125
       0.126
       0.135
       0.143
       0.140
       0.125
       0.105
       0.093
       0.093
       0.102
       0.113
       0.117
       0.110
       0.095
       0.078
       0.066
       0.065
       0.083
       0.117
       0.154
       0.181
       0.194
       0.204
       0.217
       0.235
       0.256
       0.276
       0.290
       0.294
       0.287
       0.275
       0.266
       0.269
       0.281
       0.292
       0.288
       0.262
       0.221
       0.182
       0.159
       0.151
       0.151
       0.150
       0.140
       0.119
       0.092
       0.070
       0.064
       0.071
       0.082
       0.088
       0.083
       0.068
       0.049
       0.034
       0.026
       0.025
       0.032
       0.045
       0.056
       0.055
       0.044
       0.035
       0.037
       0.046
       0.057
       0.061
       0.059
       0.055
       0.056
       0.064
       0.078
       0.094
       0.113
       0.127
       0.129
       0.116
       0.106
       0.115
       0.148
       0.189
       0.220
       0.228
       0.217
       0.195
       0.171
       0.148
       0.123
       0.096
       0.070
       0.044
       0.013
      -0.023
      -0.058
      -0.088
      -0.121
      -0.163
      -0.213
      -0.258
      -0.286
      -0.298
      -0.307
      -0.323
      -0.349
      -0.377
      -0.400
      -0.421
      -0.448
      -0.476
      -0.496
      -0.504
      -0.514
      -0.541
      -0.580
      -0.613
      -0.625
      -0.618
      -0.603
      -0.589
      -0.575
      -0.557
      -0.535
      -0.512
      -0.488
      -0.457
      -0.411
      -0.356
      -0.312
      -0.292
      -0.292
      -0.291
      -0.272
      -0.235
      -0.187
      -0.138
      -0.096
      -0.059
      -0.025
       0.012
       0.052
       0.095
       0.134
       0.163
       0.174
       0.168
       0.156
       0.150
       0.157
       0.170
       0.181
       0.187
       0.187
       0.184
       0.186
       0.202
       0.233
       0.269
       0.293
       0.302
       0.297
       0.289
       0.289
       0.303
       0.325
       0.351
       0.374
       0.386
       0.375
       0.336
       0.279
       0.225
       0.183
       0.147
       0.100
       0.035
      -0.048
      -0.138
      -0.222
      -0.294
      -0.354
      -0.406
      -0.449
      -0.485
      -0.518
      -0.546
      -0.562
      -0.555
      -0.529
      -0.498
      -0.475
      -0.464
      -0.456
      -0.437
      -0.401
      -0.348
      -0.285
      -0.221
      -0.161
      -0.112
      -0.079
      -0.059
      -0.037
      -0.004
       0.039
       0.082
       0.121
       0.162
       0.206
       0.252
       0.296
       0.336
       0.372
       0.408
       0.447
       0.486
       0.518
       0.546
       0.569
       0.581
       0.568
       0.530
       0.477
       0.425
       0.376
       0.319
       0.252
       0.180
       0.111
       0.046
      -0.019
      -0.088
      -0.154
      -0.206
      -0.241
      -0.272
      -0.315
      -0.377
      -0.444
      -0.497
      -0.526
      -0.535
      -0.530
      -0.514
      -0.488
      -0.451
      -0.407
      -0.354
      -0.289
      -0.210
      -0.124
      -0.043
       0.024
       0.082
       0.147
       0.228
       0.319
       0.402
       0.465
       0.503
       0.520
       0.517
       0.499
       0.474
       0.450
       0.427
       0.396
       0.352
       0.290
       0.222
       0.165
       0.128
       0.107
       0.088
       0.064
       0.036
       0.007
      -0.024
      -0.051
      -0.063
      -0.053
      -0.019
       0.024
       0.057
       0.069
       0.063
       0.058
       0.072
       0.104
       0.138
       0.159
       0.159
       0.139
       0.106
       0.079
       0.066
       0.064
       0.058
       0.036
      -0.005
      -0.053
      -0.090
      -0.102
      -0.087
      -0.052
      -0.008
       0.041
       0.089
       0.136
       0.184
       0.240
       0.302
       0.355
       0.377
       0.361
       0.312
       0.242
       0.160
       0.072
      -0.019
      -0.110
      -0.203
      -0.296
      -0.390
      -0.484
      -0.570
      -0.638
      -0.681
      -0.698
      -0.699
      -0.690
      -0.677
      -0.662
      -0.636
      -0.596
      -0.544
      -0.494
      -0.456
      -0.432
      -0.411
      -0.384
      -0.350
      -0.313
      -0.284
      -0.268
      -0.266
      -0.268
      -0.269
      -0.267
      -0.264
      -0.255
      -0.234
      -0.200
      -0.160
      -0.116
      -0.066
      -0.002
       0.074
       0.148
       0.201
       0.223
       0.222
       0.215
       0.218
       0.231
       0.245
       0.254
       0.259
       0.258
       0.246
       0.225
       0.203
       0.186
       0.169
       0.142
       0.097
       0.042
      -0.006
      -0.032
      -0.034
      -0.028
      -0.031
      -0.047
      -0.076
      -0.116
      -0.162
      -0.202
      -0.220
      -0.212
      -0.191
      -0.173
      -0.167
      -0.165
      -0.149
      -0.110
      -0.050
       0.015
       0.072
       0.124
       0.178
       0.244
       0.326
       0.429
       0.552
       0.678
       0.784
       0.852
       0.876
       0.865
       0.834
       0.795
       0.755
       0.709
       0.656
       0.592
       0.519
       0.441
       0.371
       0.322
       0.297
       0.282
       0.260
       0.226
       0.187
       0.152
       0.128
       0.118
       0.124
       0.139
       0.152
       0.150
       0.126
       0.077
       0.014
      -0.054
      -0.129
      -0.222
      -0.339
      -0.471
      -0.601
      -0.709
      -0.783
      -0.820
      -0.824
      -0.805
      -0.774
      -0.736
      -0.686
      -0.614
      -0.514
      -0.389
      -0.256
      -0.132
      -0.021
       0.081
       0.183
       0.277
       0.355
       0.415
       0.462
       0.499
       0.520
       0.520
       0.501
       0.475
       0.452
       0.436
       0.421
       0.397
       0.362
       0.324
       0.289
       0.254
       0.219
       0.186
       0.163
       0.146
       0.125
       0.095
       0.061
       0.029
      -0.004
      -0.048
      -0.108
      -0.181
      -0.258
      -0.329
      -0.399
      -0.485
      -0.598
      -0.733
      -0.877
      -1.024
      -1.175
      -1.326
      -1.464
      -1.578
      -1.666
      -1.731
      -1.767
      -1.760
      -1.690
      -1.548
      -1.343
      -1.104
      -0.857
      -0.613
      -0.373
      -0.140
       0.087
       0.310
       0.531
       0.746
       0.943
       1.118
       1.271
       1.409
       1.531
       1.631
       1.698
       1.718
       1.685
       1.600
       1.469
       1.307
       1.135
       0.976
       0.837
       0.709
       0.579
       0.446
       0.318
       0.209
       0.133
       0.093
       0.082
       0.084
       0.083
       0.073
       0.060
       0.058
       0.081
       0.133
       0.197
       0.251
       0.278
       0.281
       0.267
       0.236
       0.184
       0.110
       0.019
      -0.080
      -0.180
      -0.280
      -0.377
      -0.465
      -0.532
      -0.575
      -0.604
      -0.636
      -0.678
      -0.718
      -0.735
      -0.721
      -0.680
      -0.625
      -0.562
      -0.494
      -0.421
      -0.342
      -0.253
      -0.152
      -0.041
       0.073
       0.173
       0.242
       0.274
       0.282
       0.280
       0.276
       0.263
       0.233
       0.183
       0.117
       0.043
      -0.030
      -0.098
      -0.162
      -0.226
      -0.288
      -0.343
      -0.383
      -0.397
      -0.373
      -0.302
      -0.187
      -0.033
       0.151
       0.350
       0.542
       0.712
       0.854
       0.972
       1.059
       1.107
       1.110
       1.070
       1.003
       0.924
       0.848
       0.779
       0.713
       0.646
       0.572
       0.484
       0.376
       0.248
       0.112
      -0.019
      -0.140
      -0.252
      -0.350
      -0.422
      -0.462
      -0.468
      -0.452
      -0.423
      -0.394
      -0.366
      -0.338
      -0.307
      -0.271
      -0.227
      -0.176
      -0.130
      -0.107
      -0.121
      -0.170
      -0.241
      -0.322
      -0.407
      -0.495
      -0.586
      -0.681
      -0.775
      -0.861
      -0.931
      -0.979
      -0.994
      -0.976
      -0.932
      -0.881
      -0.835
      -0.795
      -0.749
      -0.690
      -0.618
      -0.537
      -0.449
      -0.357
      -0.261
      -0.161
      -0.056
       0.055
       0.177
       0.305
       0.427
       0.526
       0.593
       0.637
       0.674
       0.710
       0.741
       0.753
       0.736
       0.683
       0.599
       0.500
       0.405
       0.328
       0.268
       0.215
       0.153
       0.078
      -0.003
      -0.074
      -0.116
      -0.126
      -0.104
      -0.061
      -0.007
       0.042
       0.078
       0.110
       0.153
       0.211
       0.270
       0.307
       0.313
       0.289
       0.247
       0.197
       0.140
       0.077
       0.012
      -0.045
      -0.090
      -0.135
      -0.187
      -0.243
      -0.289
      -0.319
      -0.336
      -0.346
      -0.345
      -0.328
      -0.290
      -0.234
      -0.172
      -0.116
      -0.072
      -0.044
      -0.040
      -0.067
      -0.127
      -0.207
      -0.291
      -0.373
      -0.455
      -0.536
      -0.607
      -0.654
      -0.664
      -0.632
      -0.563
      -0.463
      -0.337
      -0.191
      -0.039
       0.106
       0.238
       0.358
       0.462
       0.541
       0.590
       0.617
       0.641
       0.673
       0.714
       0.749
       0.763
       0.749
       0.714
       0.669
       0.622
       0.573
       0.528
       0.486
       0.442
       0.387
       0.317
       0.240
       0.171
       0.120
       0.093
       0.088
       0.096
       0.101
       0.089
       0.060
       0.023
      -0.010
      -0.036
      -0.066
      -0.118
      -0.204
      -0.317
      -0.435
      -0.535
      -0.605
      -0.646
      -0.666
      -0.669
      -0.664
      -0.660
      -0.659
      -0.649
      -0.615
      -0.548
      -0.453
      -0.351
      -0.262
      -0.192
      -0.126
      -0.048
       0.043
       0.133
       0.209
       0.261
       0.286
       0.291
       0.288
       0.288
       0.291
       0.291
       0.284
       0.268
       0.246
       0.226
       0.214
       0.216
       0.229
       0.248
       0.270
       0.285
       0.279
       0.243
       0.182
       0.113
       0.044
      -0.025
      -0.099
      -0.184
      -0.279
      -0.376
      -0.464
      -0.538
      -0.594
      -0.630
      -0.641
      -0.624
      -0.584
      -0.521
      -0.431
      -0.313
      -0.176
      -0.035
       0.099
       0.228
       0.353
       0.476
       0.592
       0.693
       0.770
       0.819
       0.837
       0.820
       0.772
       0.703
       0.626
       0.546
       0.457
       0.356
       0.252
       0.153
       0.060
      -0.030
      -0.120
      -0.201
      -0.259
      -0.284
      -0.278
      -0.252
      -0.211
      -0.157
      -0.090
      -0.026
       0.017
       0.037
       0.048
       0.069
       0.099
       0.121
       0.113
       0.061
      -0.033
      -0.158
      -0.298
      -0.436
      -0.549
      -0.619
      -0.642
      -0.633
      -0.615
      -0.605
      -0.599
      -0.586
      -0.560
      -0.531
      -0.515
      -0.520
      -0.544
      -0.574
      -0.591
      -0.580
      -0.534
      -0.453
      -0.344
      -0.219
      -0.090
       0.043
       0.192
       0.361
       0.539
       0.706
       0.847
       0.954
       1.023
       1.059
       1.074
       1.080
       1.075
       1.046
       0.977
       0.862
       0.715
       0.557
       0.414
       0.299
       0.210
       0.142
       0.093
       0.057
       0.024
      -0.009
      -0.036
      -0.042
      -0.022
       0.020
       0.067
       0.104
       0.120
       0.115
       0.097
       0.070
       0.032
      -0.023
      -0.103
      -0.216
      -0.358
      -0.509
      -0.640
