Origin Time       20/06/2011 06:27:18
Lat.              30.5 N	
Long.             79.4 E	
Depth (Km)         12.0
Magnitude         4.6
 Region           Chamoli-Uttarakhand                                              
 Above details taken from IMD 
   
Station Code      UDH
Station Lat.       28.997
Station Long.      79.403
Station Height(m)  213.0
Site Class        C   Vs30 between 200 m/sec to 375 m/sec *  
Record Time       20.06.2011 06:27:41.359
Sampling Rate     200. Hz
 Record Duration   80.845 Sec.
 Direction         Vert. (Up positive)
Max. Acceleration      1.142 cm/sec**2
     
  * For reference see Site Classification link of website 
     
 Base Line Corrected and Low Pass Filtered (Cut Off at 35 Hz) Time History
 Acceleration data in cm/sec**2
    
[...]
       0.156
       0.182
       0.110
      -0.018
      -0.138
      -0.192
      -0.154
      -0.045
       0.073
       0.128
       0.083
      -0.033
      -0.145
      -0.183
      -0.128
      -0.016
       0.085
       0.111
       0.031
      -0.131
      -0.292
      -0.365
      -0.313
      -0.175
      -0.037
       0.026
      -0.002
      -0.081
      -0.143
      -0.142
      -0.076
       0.022
       0.100
       0.107
       0.018
      -0.139
      -0.282
      -0.322
      -0.225
      -0.044
       0.118
       0.182
       0.142
       0.058
       0.003
       0.017
       0.085
       0.154
       0.163
       0.078
      -0.079
      -0.236
      -0.302
      -0.224
      -0.025
       0.205
       0.358
       0.363
       0.227
       0.020
      -0.161
      -0.247
      -0.220
      -0.114
       0.006
       0.077
       0.079
       0.036
       0.002
       0.019
       0.095
       0.201
       0.289
       0.314
       0.249
       0.105
      -0.059
      -0.162
      -0.154
      -0.064
       0.025
       0.041
      -0.030
      -0.143
      -0.251
      -0.332
      -0.385
      -0.404
      -0.371
      -0.281
      -0.156
      -0.031
       0.077
       0.184
       0.298
       0.398
       0.442
       0.403
       0.293
       0.148
       0.000
      -0.128
      -0.220
      -0.248
      -0.190
      -0.056
       0.093
       0.183
       0.177
       0.100
       0.008
      -0.058
      -0.084
      -0.076
      -0.046
      -0.018
      -0.022
      -0.082
      -0.184
      -0.270
      -0.276
      -0.186
      -0.051
       0.056
       0.089
       0.050
      -0.023
      -0.083
      -0.085
      -0.010
       0.122
       0.241
       0.267
       0.161
      -0.045
      -0.257
      -0.377
      -0.358
      -0.231
      -0.073
       0.039
       0.072
       0.040
      -0.006
      -0.017
       0.027
       0.105
       0.161
       0.144
       0.040
      -0.108
      -0.230
      -0.268
      -0.209
      -0.084
       0.048
       0.130
       0.140
       0.107
       0.099
       0.172
       0.323
       0.488
       0.568
       0.490
       0.255
      -0.053
      -0.309
      -0.417
      -0.358
      -0.192
      -0.025
       0.056
       0.023
      -0.079
      -0.162
      -0.155
      -0.042
       0.131
       0.280
       0.326
       0.240
       0.057
      -0.132
      -0.231
      -0.193
      -0.042
       0.133
       0.236
       0.217
       0.105
      -0.022
      -0.094
      -0.087
      -0.024
       0.054
       0.117
       0.145
       0.125
       0.064
      -0.008
      -0.056
      -0.069
      -0.067
      -0.081
      -0.124
      -0.178
      -0.211
      -0.192
      -0.105
       0.034
       0.185
       0.288
       0.294
       0.203
       0.075
      -0.006
      -0.005
       0.038
       0.051
       0.003
      -0.086
      -0.183
      -0.273
      -0.352
      -0.405
      -0.399
      -0.312
      -0.161
      -0.004
       0.097
       0.130
       0.129
       0.140
       0.176
       0.224
       0.273
       0.322
       0.362
       0.363
       0.293
       0.160
       0.019
      -0.065
      -0.070
      -0.033
      -0.009
      -0.029
      -0.080
      -0.133
      -0.161
      -0.139
      -0.053
       0.091
       0.242
       0.330
       0.309
       0.200
       0.082
       0.024
       0.041
       0.092
       0.120
       0.092
       0.015
      -0.075
      -0.125
      -0.092
       0.032
       0.206
       0.341
       0.343
       0.171
      -0.125
      -0.425
      -0.608
      -0.618
      -0.483
      -0.291
      -0.145
      -0.109
      -0.179
      -0.282
      -0.323
      -0.253
      -0.102
       0.038
       0.087
       0.021
      -0.109
      -0.215
      -0.215
      -0.073
       0.179
       0.450
       0.629
       0.635
       0.474
       0.241
       0.065
       0.027
       0.117
       0.257
       0.359
       0.375
       0.312
       0.210
       0.120
       0.077
       0.083
       0.108
       0.105
       0.049
      -0.047
      -0.134
      -0.165
      -0.133
      -0.072
      -0.037
      -0.060
      -0.136
      -0.226
      -0.285
      -0.270
      -0.161
       0.027
       0.240
       0.407
       0.476
       0.436
       0.314
       0.166
       0.044
      -0.032
      -0.086
      -0.162
      -0.283
      -0.427
      -0.540
      -0.565
      -0.484
      -0.327
      -0.158
      -0.030
       0.033
       0.030
      -0.031
      -0.137
      -0.249
      -0.308
      -0.272
      -0.145
       0.013
       0.129
       0.170
       0.154
       0.121
       0.090
       0.056
       0.014
      -0.028
      -0.061
      -0.098
      -0.152
      -0.216
      -0.253
      -0.223
      -0.125
       0.000
       0.093
       0.118
       0.077
      -0.003
      -0.086
      -0.138
      -0.125
      -0.037
       0.101
       0.225
       0.274
       0.237
       0.166
       0.128
       0.151
       0.208
       0.248
       0.239
       0.178
       0.084
      -0.009
      -0.051
       0.002
       0.148
       0.319
       0.411
       0.350
       0.155
      -0.068
      -0.199
      -0.188
      -0.072
       0.060
       0.124
       0.079
      -0.058
      -0.223
      -0.334
      -0.332
      -0.223
      -0.073
       0.031
       0.036
      -0.041
      -0.121
      -0.118
       0.013
       0.243
       0.487
       0.636
       0.621
       0.450
       0.204
      -0.014
      -0.139
      -0.176
      -0.186
      -0.230
      -0.335
      -0.472
      -0.588
      -0.629
      -0.566
      -0.414
      -0.230
      -0.089
      -0.043
      -0.079
      -0.119
      -0.069
       0.110
       0.365
       0.580
       0.651
       0.553
       0.348
       0.131
      -0.034
      -0.126
      -0.153
      -0.136
      -0.103
      -0.088
      -0.114
      -0.175
      -0.236
      -0.253
      -0.208
      -0.120
      -0.036
       0.009
       0.015
       0.008
       0.022
       0.065
       0.118
       0.150
       0.128
       0.034
      -0.130
      -0.339
      -0.536
      -0.656
      -0.646
      -0.498
      -0.247
       0.035
       0.273
       0.422
       0.472
       0.441
       0.350
       0.231
       0.115
       0.026
      -0.034
      -0.081
      -0.121
      -0.138
      -0.107
      -0.021
       0.092
       0.180
       0.201
       0.152
       0.062
      -0.031
      -0.096
      -0.105
      -0.029
       0.136
       0.340
       0.485
       0.484
       0.323
       0.072
      -0.165
      -0.318
      -0.380
      -0.389
      -0.381
      -0.372
      -0.360
      -0.337
      -0.281
      -0.165
       0.015
       0.210
       0.326
       0.278
       0.062
      -0.231
      -0.476
      -0.584
      -0.542
      -0.395
      -0.214
      -0.062
       0.033
       0.090
       0.158
       0.279
       0.447
       0.606
       0.676
       0.615
       0.453
       0.279
       0.186
       0.214
       0.333
       0.462
       0.508
       0.407
       0.167
      -0.132
      -0.375
      -0.477
      -0.430
      -0.299
      -0.188
      -0.170
      -0.252
      -0.365
      -0.406
      -0.302
      -0.056
       0.246
       0.480
       0.555
       0.472
       0.310
       0.168
       0.098
       0.088
       0.095
       0.073
      -0.003
      -0.137
      -0.300
      -0.442
      -0.508
      -0.474
      -0.364
      -0.242
      -0.164
      -0.146
      -0.158
      -0.155
      -0.114
      -0.038
       0.060
       0.177
       0.305
       0.421
       0.499
       0.532
       0.538
       0.529
       0.491
       0.398
       0.243
       0.058
      -0.109
      -0.223
      -0.275
      -0.269
      -0.210
      -0.106
       0.015
       0.101
       0.103
       0.019
      -0.104
      -0.214
      -0.290
      -0.335
      -0.349
      -0.316
      -0.225
      -0.088
       0.062
       0.202
       0.330
       0.460
       0.584
       0.656
       0.626
       0.477
       0.248
       0.006
      -0.192
      -0.325
      -0.401
      -0.449
      -0.504
      -0.592
      -0.711
      -0.826
      -0.887
      -0.859
      -0.738
      -0.554
      -0.347
      -0.158
      -0.008
       0.109
       0.225
       0.374
       0.555
       0.721
       0.803
       0.753
       0.586
       0.380
       0.235
       0.219
       0.333
       0.517
       0.677
       0.722
       0.608
       0.364
       0.084
      -0.137
      -0.266
      -0.337
      -0.417
      -0.542
      -0.696
      -0.819
      -0.849
      -0.759
      -0.564
      -0.322
      -0.117
      -0.036
      -0.107
      -0.262
      -0.363
      -0.288
      -0.016
       0.358
       0.696
       0.896
       0.945
       0.893
       0.803
       0.722
       0.667
       0.621
       0.540
       0.364
       0.071
      -0.293
      -0.617
      -0.792
      -0.785
      -0.656
      -0.508
      -0.422
      -0.410
      -0.433
      -0.432
      -0.360
      -0.202
       0.019
       0.238
       0.380
       0.401
       0.326
       0.232
       0.197
       0.246
       0.342
       0.425
       0.454
       0.423
       0.346
       0.246
       0.144
       0.057
      -0.016
      -0.098
      -0.209
      -0.352
      -0.512
      -0.659
      -0.765
      -0.816
      -0.810
      -0.753
      -0.658
      -0.535
      -0.396
      -0.241
      -0.059
       0.158
       0.393
       0.607
       0.764
       0.849
       0.865
       0.821
       0.725
       0.585
       0.418
       0.245
       0.075
      -0.101
      -0.299
      -0.510
      -0.689
      -0.772
      -0.711
      -0.505
      -0.213
       0.070
       0.252
       0.278
       0.148
      -0.086
      -0.338
      -0.518
      -0.570
      -0.493
      -0.329
      -0.139
       0.033
       0.176
       0.310
       0.469
       0.661
       0.844
       0.943
       0.896
       0.709
       0.450
       0.210
       0.045
      -0.044
      -0.096
      -0.162
      -0.285
      -0.485
      -0.741
      -0.982
      -1.107
      -1.044
      -0.799
      -0.459
      -0.140
       0.084
       0.222
       0.337
       0.476
       0.629
       0.738
       0.744
       0.621
       0.393
       0.128
      -0.079
      -0.153
      -0.076
       0.094
       0.251
       0.302
       0.219
       0.058
      -0.077
      -0.096
       0.021
       0.214
       0.372
       0.393
       0.248
      -0.011
      -0.281
      -0.469
      -0.535
      -0.504
      -0.437
      -0.396
      -0.403
      -0.438
      -0.447
      -0.377
      -0.207
       0.031
       0.256
       0.381
       0.365
       0.235
       0.065
      -0.073
      -0.143
      -0.149
      -0.123
      -0.108
      -0.130
      -0.188
      -0.243
      -0.246
      -0.177
      -0.065
       0.022
       0.033
      -0.031
      -0.124
      -0.194
      -0.214
      -0.183
      -0.104
       0.022
       0.180
       0.331
       0.439
       0.497
       0.540
       0.605
       0.688
       0.749
       0.744
       0.660
       0.515
       0.329
       0.111
      -0.131
      -0.375
      -0.574
      -0.688
      -0.714
      -0.680
      -0.608
      -0.493
      -0.327
      -0.117
       0.101
       0.286
       0.404
       0.434
       0.369
       0.223
       0.032
      -0.149
      -0.257
      -0.254
      -0.152
      -0.013
       0.090
       0.117
       0.073
       0.000
      -0.059
      -0.080
      -0.076
      -0.093
      -0.176
      -0.333
      -0.514
      -0.642
      -0.656
      -0.544
      -0.341
      -0.103
       0.115
       0.270
       0.346
       0.368
       0.390
       0.457
       0.556
       0.614
       0.552
       0.352
       0.089
      -0.121
      -0.195
      -0.130
       0.004
       0.112
       0.109
      -0.047
      -0.334
      -0.656
      -0.891
      -0.947
      -0.821
      -0.590
      -0.365
      -0.215
      -0.126
      -0.030
       0.135
       0.384
       0.670
       0.912
       1.027
       0.967
       0.755
       0.487
       0.279
       0.202
       0.237
       0.298
       0.295
       0.192
       0.020
      -0.153
      -0.255
      -0.248
      -0.131
       0.053
       0.228
       0.314
       0.280
       0.165
       0.049
      -0.006
       0.002
       0.025
       0.012
      -0.062
      -0.184
      -0.320
      -0.431
      -0.494
      -0.515
      -0.523
      -0.547
      -0.591
      -0.630
      -0.623
      -0.540
      -0.374
      -0.149
       0.087
       0.276
       0.376
       0.380
       0.324
       0.271
       0.262
       0.295
       0.327
       0.326
       0.289
       0.242
       0.204
       0.182
       0.177
       0.196
       0.242
       0.291
       0.288
       0.183
      -0.032
      -0.299
      -0.536
      -0.684
      -0.724
      -0.657
      -0.496
      -0.264
      -0.012
       0.199
       0.338
       0.421
       0.498
       0.596
       0.687
       0.697
       0.569
       0.311
      -0.009
      -0.306
      -0.512
      -0.593
      -0.543
      -0.391
      -0.201
      -0.048
       0.017
      -0.003
      -0.057
      -0.093
      -0.092
      -0.080
      -0.107
      -0.207
      -0.366
      -0.528
      -0.621
      -0.599
      -0.469
      -0.283
      -0.110
       0.002
       0.064
       0.132
       0.270
       0.500
       0.781
       1.025
       1.142
       1.077
       0.844
       0.530
       0.242
       0.053
      -0.047
      -0.123
      -0.251
      -0.461
      -0.715
      -0.921
      -0.981
      -0.842
      -0.526
      -0.125
       0.229
       0.428
       0.437
       0.319
       0.190
       0.150
       0.223
       0.357
       0.465
       0.490
       0.428
       0.323
       0.234
       0.208
       0.248
       0.309
       0.323
       0.236
       0.052
      -0.166
      -0.337
      -0.406
      -0.378
      -0.298
      -0.222
      -0.183
      -0.188
      -0.226
      -0.271
      -0.289
      -0.251
      -0.163
      -0.065
       0.003
       0.032
       0.055
       0.123
       0.258
       0.438
       0.607
       0.711
       0.726
       0.654
       0.514
       0.331
       0.141
      -0.026
      -0.159
      -0.272
      -0.382
      -0.494
      -0.589
      -0.640
      -0.623
      -0.541
      -0.417
      -0.291
      -0.202
      -0.174
      -0.208
      -0.274
      -0.321
      -0.303
      -0.199
      -0.012
       0.227
       0.464
       0.632
       0.673
       0.570
       0.361
       0.118
      -0.099
      -0.268
      -0.402
      -0.520
      -0.619
      -0.678
      -0.669
      -0.574
      -0.388
      -0.136
       0.131
       0.338
       0.426
       0.379
       0.248
       0.115
       0.042
       0.029
       0.031
       0.003
      -0.071
      -0.179
      -0.288
      -0.355
      -0.341
      -0.238
      -0.085
       0.042
       0.075
       0.001
      -0.121
      -0.197
      -0.158
      -0.007
       0.192
       0.353
       0.416
       0.370
       0.256
       0.144
       0.101
       0.149
       0.249
       0.322
       0.297
       0.153
      -0.059
      -0.250
      -0.344
      -0.324
      -0.234
      -0.154
      -0.150
      -0.237
      -0.362
      -0.431
      -0.364
      -0.151
       0.129
       0.349
       0.407
       0.286
       0.055
      -0.169
      -0.279
      -0.227
      -0.038
       0.208
       0.412
       0.508
       0.487
       0.388
       0.265
       0.155
       0.060
      -0.048
      -0.197
      -0.385
      -0.572
      -0.702
      -0.734
      -0.665
      -0.539
      -0.424
      -0.367
      -0.360
      -0.343
      -0.251
      -0.054
       0.226
       0.536
       0.818
       1.020
       1.100
       1.042
       0.877
       0.669
       0.477
       0.308
       0.129
      -0.089
      -0.330
      -0.543
      -0.684
      -0.739
      -0.724
      -0.663
      -0.578
      -0.488
      -0.412
      -0.365
      -0.336
      -0.286
      -0.178
      -0.005
       0.205
       0.409
       0.575
       0.687
       0.727
       0.684
       0.566
       0.414
       0.278
       0.177
       0.091
      -0.007
      -0.118
      -0.211
      -0.260
      -0.258
      -0.212
      -0.137
      -0.060
      -0.030
      -0.098
      -0.282
      -0.537
      -0.761
      -0.849
      -0.758
      -0.527
      -0.248
       0.001
       0.188
       0.318
       0.412
       0.496
       0.592
       0.705
       0.802
       0.826
       0.742
       0.576
       0.413
       0.336
       0.372
       0.465
       0.512
       0.422
       0.164
      -0.211
      -0.593
      -0.872
      -0.991
      -0.957
      -0.834
      -0.699
      -0.596
      -0.517
      -0.410
      -0.224
       0.053
       0.378
       0.662
       0.814
       0.778
       0.582
       0.327
       0.130
       0.056
       0.093
       0.163
       0.183
       0.110
      -0.039
      -0.204
      -0.319
      -0.354
      -0.323
      -0.277
      -0.279
      -0.357
      -0.473
      -0.535
      -0.458
      -0.214
       0.145
       0.517
       0.803
       0.939
       0.920
       0.784
       0.598
       0.424
       0.296
       0.204
       0.106
      -0.033
      -0.204
      -0.355
      -0.429
      -0.408
      -0.324
      -0.234
      -0.184
      -0.189
      -0.234
      -0.287
      -0.306
      -0.266
      -0.174
      -0.071
      -0.007
      -0.010
      -0.068
      -0.129
      -0.131
      -0.040
       0.132
       0.343
       0.543
       0.686
       0.736
       0.679
       0.542
       0.379
       0.235
       0.128
       0.051
      -0.006
      -0.052
      -0.107
      -0.186
      -0.293
      -0.405
      -0.484
      -0.504
      -0.466
      -0.394
      -0.307
      -0.202
      -0.063
       0.116
       0.317
       0.510
       0.664
       0.739
       0.692
       0.502
       0.202
      -0.109
      -0.318
      -0.361
      -0.266
      -0.120
      -0.013
       0.014
      -0.030
      -0.111
      -0.183
      -0.209
      -0.170
      -0.094
      -0.048
      -0.097
      -0.253
      -0.449
      -0.591
      -0.622
      -0.555
      -0.450
      -0.362
      -0.318
      -0.308
      -0.301
      -0.255
      -0.140
       0.038
       0.237
       0.382
       0.409
       0.311
       0.151
       0.026
      -0.008
       0.032
       0.076
       0.057
      -0.049
      -0.198
      -0.305
      -0.282
      -0.104
       0.178
       0.455
       0.620
       0.618
       0.471
       0.259
       0.079
       0.000
       0.030
       0.118
       0.180
       0.149
       0.021
      -0.140
      -0.246
      -0.251
      -0.172
      -0.073
      -0.016
      -0.031
      -0.110
      -0.211
      -0.275
      -0.250
      -0.126
       0.049
       0.191
       0.231
       0.162
       0.037
      -0.063
      -0.087
      -0.036
       0.044
       0.098
       0.090
       0.014
      -0.113
      -0.247
      -0.330
      -0.331
      -0.264
      -0.181
      -0.136
      -0.145
      -0.192
      -0.245
      -0.276
      -0.277
      -0.248
      -0.197
      -0.125
