Origin Time       04/04/2011 11:31:40
Lat.              29.6 N	
Long.             80.8 E	
Depth (Km)         10.0
Magnitude         5.7
 Region           NEPAL-INDIA-BORDER-REGION                                        
 Above details taken from IMD 
     
Station Code      UDH
Station Lat.       28.997  N
Station Long.      79.403  E
Station Height(m)  213.0
Site Class        C   Vs30 between 200 m/sec to 375 m/sec *  
Record Time       04.04.2011 11:31:39.714
Sampling Rate     200. Hz
 Record Duration  146.170 Sec.
 Direction         E-W (E positive)
Max. Acceleration    -10.977 cm/sec**2
     
  * For reference see Site Classification link of website 
     
 Base Line Corrected and Low Pass Filtered (Cut Off at 35 Hz) Time History
 Acceleration data in cm/sec**2
    
[...]
      -0.407
      -0.351
      -0.282
      -0.211
      -0.143
      -0.077
      -0.014
       0.033
       0.051
       0.039
       0.010
      -0.019
      -0.037
      -0.042
      -0.042
      -0.048
      -0.064
      -0.085
      -0.104
      -0.119
      -0.128
      -0.129
      -0.125
      -0.117
      -0.105
      -0.090
      -0.078
      -0.082
      -0.107
      -0.148
      -0.195
      -0.233
      -0.256
      -0.262
      -0.258
      -0.246
      -0.220
      -0.171
      -0.102
      -0.029
       0.029
       0.074
       0.125
       0.196
       0.285
       0.375
       0.444
       0.484
       0.500
       0.507
       0.512
       0.520
       0.535
       0.566
       0.605
       0.634
       0.629
       0.583
       0.507
       0.422
       0.339
       0.260
       0.177
       0.090
       0.005
      -0.065
      -0.119
      -0.159
      -0.188
      -0.204
      -0.209
      -0.216
      -0.230
      -0.250
      -0.265
      -0.271
      -0.272
      -0.277
      -0.288
      -0.300
      -0.301
      -0.285
      -0.260
      -0.235
      -0.213
      -0.190
      -0.166
      -0.151
      -0.145
      -0.130
      -0.085
       0.002
       0.125
       0.263
       0.393
       0.491
       0.540
       0.530
       0.464
       0.365
       0.262
       0.176
       0.103
       0.031
      -0.044
      -0.109
      -0.156
      -0.187
      -0.208
      -0.219
      -0.216
      -0.208
      -0.215
      -0.250
      -0.300
      -0.338
      -0.346
      -0.328
      -0.305
      -0.293
      -0.290
      -0.286
      -0.284
      -0.299
      -0.336
      -0.382
      -0.413
      -0.422
      -0.427
      -0.454
      -0.512
      -0.585
      -0.644
      -0.674
      -0.675
      -0.654
      -0.610
      -0.537
      -0.442
      -0.339
      -0.239
      -0.140
      -0.038
       0.067
       0.169
       0.263
       0.351
       0.439
       0.527
       0.611
       0.675
       0.700
       0.685
       0.639
       0.580
       0.520
       0.465
       0.413
       0.357
       0.288
       0.212
       0.139
       0.080
       0.035
       0.003
      -0.016
      -0.018
      -0.002
       0.031
       0.071
       0.102
       0.120
       0.138
       0.169
       0.213
       0.250
       0.268
       0.268
       0.254
       0.224
       0.160
       0.054
      -0.087
      -0.236
      -0.365
      -0.457
      -0.513
      -0.533
      -0.518
      -0.469
      -0.401
      -0.339
      -0.295
      -0.262
      -0.230
      -0.203
      -0.192
      -0.208
      -0.245
      -0.288
      -0.325
      -0.356
      -0.391
      -0.437
      -0.487
      -0.528
      -0.548
      -0.541
      -0.506
      -0.446
      -0.364
      -0.269
      -0.170
      -0.077
      -0.003
       0.046
       0.071
       0.077
       0.064
       0.031
      -0.019
      -0.068
      -0.101
      -0.108
      -0.091
      -0.057
      -0.009
       0.044
       0.095
       0.127
       0.127
       0.093
       0.047
       0.013
       0.003
       0.011
       0.024
       0.038
       0.053
       0.068
       0.085
       0.115
       0.168
       0.243
       0.327
       0.402
       0.450
       0.466
       0.455
       0.427
       0.388
       0.342
       0.294
       0.250
       0.213
       0.187
       0.173
       0.169
       0.167
       0.154
       0.120
       0.065
      -0.004
      -0.078
      -0.151
      -0.219
      -0.275
      -0.305
      -0.295
      -0.238
      -0.146
      -0.034
       0.093
       0.238
       0.390
       0.528
       0.631
       0.699
       0.747
       0.784
       0.806
       0.802
       0.771
       0.726
       0.682
       0.644
       0.599
       0.538
       0.467
       0.399
       0.342
       0.294
       0.254
       0.229
       0.225
       0.246
       0.282
       0.317
       0.334
       0.320
       0.275
       0.209
       0.131
       0.053
      -0.017
      -0.075
      -0.127
      -0.181
      -0.241
      -0.305
      -0.373
      -0.449
      -0.532
      -0.613
      -0.675
      -0.707
      -0.703
      -0.667
      -0.604
      -0.514
      -0.389
      -0.230
      -0.051
       0.127
       0.297
       0.459
       0.599
       0.689
       0.700
       0.633
       0.517
       0.391
       0.280
       0.192
       0.120
       0.062
       0.024
       0.006
      -0.005
      -0.032
      -0.080
      -0.130
      -0.165
      -0.186
      -0.215
      -0.266
      -0.328
      -0.373
      -0.382
      -0.356
      -0.312
      -0.256
      -0.185
      -0.101
      -0.023
       0.027
       0.047
       0.051
       0.051
       0.041
       0.001
      -0.079
      -0.190
      -0.302
      -0.383
      -0.424
      -0.435
      -0.435
      -0.430
      -0.413
      -0.382
      -0.346
      -0.313
      -0.289
      -0.273
      -0.264
      -0.258
      -0.251
      -0.243
      -0.226
      -0.195
      -0.149
      -0.101
      -0.067
      -0.044
      -0.016
       0.027
       0.083
       0.135
       0.173
       0.195
       0.204
       0.207
       0.208
       0.217
       0.241
       0.285
       0.344
       0.398
       0.428
       0.427
       0.403
       0.367
       0.328
       0.292
       0.259
       0.228
       0.198
       0.174
       0.165
       0.172
       0.186
       0.195
       0.187
       0.158
       0.115
       0.073
       0.048
       0.047
       0.068
       0.106
       0.151
       0.195
       0.230
       0.254
       0.268
       0.270
       0.258
       0.228
       0.184
       0.131
       0.075
       0.020
      -0.042
      -0.119
      -0.210
      -0.301
      -0.380
      -0.443
      -0.495
      -0.527
      -0.525
      -0.481
      -0.406
      -0.321
      -0.248
      -0.196
      -0.164
      -0.143
      -0.122
      -0.096
      -0.057
      -0.004
       0.059
       0.121
       0.177
       0.234
       0.305
       0.393
       0.486
       0.568
       0.624
       0.646
       0.628
       0.571
       0.481
       0.369
       0.255
       0.152
       0.065
      -0.020
      -0.114
      -0.214
      -0.308
      -0.385
      -0.445
      -0.486
      -0.502
      -0.498
      -0.491
      -0.496
      -0.516
      -0.531
      -0.520
      -0.471
      -0.397
      -0.324
      -0.267
      -0.224
      -0.189
      -0.165
      -0.163
      -0.186
      -0.233
      -0.304
      -0.398
      -0.509
      -0.618
      -0.699
      -0.738
      -0.733
      -0.695
      -0.635
      -0.565
      -0.486
      -0.402
      -0.317
      -0.235
      -0.159
      -0.091
      -0.032
       0.024
       0.087
       0.155
       0.209
       0.229
       0.215
       0.190
       0.179
       0.191
       0.217
       0.240
       0.249
       0.238
       0.210
       0.169
       0.122
       0.076
       0.037
       0.004
      -0.035
      -0.090
      -0.162
      -0.247
      -0.344
      -0.445
      -0.536
      -0.594
      -0.611
      -0.598
      -0.580
      -0.578
      -0.595
      -0.612
      -0.607
      -0.570
      -0.508
      -0.432
      -0.339
      -0.228
      -0.110
      -0.011
       0.051
       0.074
       0.072
       0.057
       0.038
       0.016
      -0.013
      -0.055
      -0.116
      -0.196
      -0.287
      -0.377
      -0.453
      -0.510
      -0.548
      -0.571
      -0.575
      -0.558
      -0.521
      -0.467
      -0.399
      -0.318
      -0.229
      -0.139
      -0.058
       0.007
       0.047
       0.057
       0.038
       0.001
      -0.044
      -0.087
      -0.124
      -0.164
      -0.221
      -0.304
      -0.411
      -0.530
      -0.647
      -0.751
      -0.826
      -0.858
      -0.842
      -0.786
      -0.696
      -0.581
      -0.450
      -0.315
      -0.189
      -0.086
      -0.013
       0.037
       0.077
       0.116
       0.160
       0.208
       0.261
       0.319
       0.374
       0.415
       0.443
       0.461
       0.466
       0.449
       0.402
       0.322
       0.218
       0.099
      -0.022
      -0.135
      -0.228
      -0.296
      -0.333
      -0.343
      -0.336
      -0.323
      -0.310
      -0.300
      -0.293
      -0.279
      -0.239
      -0.154
      -0.024
       0.129
       0.274
       0.394
       0.486
       0.560
       0.620
       0.669
       0.702
       0.722
       0.736
       0.748
       0.759
       0.774
       0.794
       0.809
       0.799
       0.747
       0.654
       0.541
       0.437
       0.363
       0.320
       0.298
       0.292
       0.307
       0.358
       0.443
       0.542
       0.630
       0.697
       0.745
       0.781
       0.805
       0.816
       0.819
       0.821
       0.829
       0.851
       0.881
       0.904
       0.904
       0.874
       0.816
       0.747
       0.685
       0.640
       0.606
       0.563
       0.497
       0.416
       0.340
       0.281
       0.230
       0.178
       0.120
       0.057
      -0.010
      -0.089
      -0.186
      -0.299
      -0.408
      -0.485
      -0.511
      -0.493
      -0.448
      -0.392
      -0.337
      -0.292
      -0.263
      -0.246
      -0.231
      -0.207
      -0.171
      -0.126
      -0.075
      -0.017
       0.052
       0.130
       0.201
       0.248
       0.263
       0.258
       0.246
       0.226
       0.185
       0.112
       0.014
      -0.096
      -0.204
      -0.305
      -0.389
      -0.443
      -0.451
      -0.411
      -0.340
      -0.259
      -0.185
      -0.120
      -0.068
      -0.040
      -0.043
      -0.076
      -0.128
      -0.192
      -0.259
      -0.320
      -0.365
      -0.390
      -0.395
      -0.393
      -0.404
      -0.452
      -0.543
      -0.665
      -0.797
      -0.930
      -1.072
      -1.234
      -1.419
      -1.623
      -1.829
      -2.016
      -2.161
      -2.248
      -2.264
      -2.210
      -2.108
      -1.994
      -1.898
      -1.830
      -1.783
      -1.746
      -1.717
      -1.690
      -1.651
      -1.582
      -1.469
      -1.306
      -1.103
      -0.876
      -0.640
      -0.407
      -0.195
      -0.022
       0.094
       0.144
       0.122
       0.026
      -0.139
      -0.357
      -0.607
      -0.870
      -1.131
      -1.371
      -1.567
      -1.702
      -1.777
      -1.811
      -1.834
      -1.860
      -1.878
      -1.856
      -1.766
      -1.597
      -1.355
      -1.056
      -0.733
      -0.419
      -0.147
       0.073
       0.250
       0.403
       0.551
       0.705
       0.861
       1.014
       1.159
       1.296
       1.423
       1.538
       1.637
       1.715
       1.757
       1.748
       1.685
       1.580
       1.438
       1.261
       1.049
       0.815
       0.573
       0.335
       0.109
      -0.085
      -0.222
      -0.292
      -0.303
      -0.284
      -0.267
      -0.271
      -0.291
      -0.298
      -0.256
      -0.140
       0.059
       0.331
       0.644
       0.949
       1.205
       1.404
       1.563
       1.714
       1.873
       2.036
       2.186
       2.313
       2.418
       2.503
       2.563
       2.578
       2.531
       2.420
       2.258
       2.066
       1.863
       1.669
       1.511
       1.419
       1.412
       1.492
       1.642
       1.839
       2.072
       2.333
       2.603
       2.850
       3.056
       3.222
       3.363
       3.495
       3.630
       3.774
       3.931
       4.100
       4.284
       4.488
       4.715
       4.961
       5.213
       5.454
       5.663
       5.823
       5.922
       5.947
       5.878
       5.689
       5.364
       4.918
       4.380
       3.779
       3.133
       2.454
       1.750
       1.031
       0.306
      -0.417
      -1.138
      -1.857
      -2.565
      -3.248
      -3.890
      -4.484
      -5.020
      -5.490
      -5.894
      -6.239
      -6.528
      -6.744
      -6.861
      -6.847
      -6.671
      -6.314
      -5.777
      -5.093
      -4.310
      -3.479
      -2.633
      -1.788
      -0.952
      -0.135
       0.657
       1.426
       2.191
       2.970
       3.754
       4.511
       5.209
       5.831
       6.366
       6.787
       7.060
       7.174
       7.151
       7.032
       6.841
       6.580
       6.255
       5.897
       5.563
       5.288
       5.069
       4.875
       4.681
       4.480
       4.276
       4.066
       3.840
       3.585
       3.281
       2.916
       2.496
       2.057
       1.639
       1.268
       0.948
       0.660
       0.383
       0.094
      -0.214
      -0.535
      -0.852
      -1.143
      -1.391
      -1.592
      -1.776
      -1.991
      -2.275
      -2.632
      -3.037
      -3.455
      -3.851
      -4.193
      -4.447
      -4.596
      -4.639
      -4.591
      -4.467
      -4.266
      -3.985
      -3.625
      -3.210
      -2.772
      -2.333
      -1.901
      -1.487
      -1.112
      -0.794
      -0.530
      -0.293
      -0.052
       0.209
       0.481
       0.737
       0.945
       1.076
       1.110
       1.046
       0.894
       0.676
       0.408
       0.094
      -0.272
      -0.696
      -1.175
      -1.697
      -2.237
      -2.762
      -3.243
      -3.670
      -4.058
      -4.431
      -4.808
      -5.199
      -5.609
      -6.036
      -6.473
      -6.910
      -7.349
      -7.794
      -8.247
      -8.700
      -9.135
      -9.538
      -9.907
     -10.243
     -10.544
     -10.786
     -10.938
     -10.977
     -10.894
     -10.684
     -10.345
      -9.886
      -9.327
      -8.680
      -7.937
      -7.075
      -6.075
      -4.941
      -3.703
      -2.408
      -1.102
       0.177
       1.408
       2.576
       3.657
       4.614
       5.393
       5.946
       6.257
       6.355
       6.291
       6.108
       5.843
       5.543
       5.275
       5.095
       5.011
       4.993
       5.002
       5.022
       5.056
       5.096
       5.114
       5.077
       4.965
       4.776
       4.509
       4.163
       3.746
       3.282
       2.790
       2.252
       1.614
       0.827
      -0.122
      -1.203
      -2.379
      -3.617
      -4.883
      -6.120
      -7.233
      -8.113
      -8.670
      -8.869
      -8.732
      -8.315
      -7.685
      -6.905
      -6.022
      -5.060
      -4.028
      -2.952
      -1.876
      -0.838
       0.151
       1.111
       2.062
       2.990
       3.848
       4.570
       5.107
       5.445
       5.609
       5.634
       5.558
       5.422
       5.275
       5.164
       5.116
       5.123
       5.156
       5.181
       5.181
       5.158
       5.107
       5.006
       4.834
       4.598
       4.331
       4.061
       3.786
       3.485
       3.140
       2.741
       2.270
       1.704
       1.045
       0.334
      -0.362
      -0.981
      -1.504
      -1.947
      -2.330
      -2.649
      -2.880
      -2.991
      -2.961
      -2.779
      -2.453
      -2.022
      -1.549
      -1.092
      -0.672
      -0.262
       0.203
       0.804
       1.597
       2.581
       3.678
       4.748
       5.623
       6.155
       6.258
       5.925
       5.227
       4.283
       3.227
       2.174
       1.198
       0.330
      -0.417
      -1.041
      -1.544
      -1.955
      -2.313
      -2.650
      -2.977
      -3.296
      -3.607
      -3.902
      -4.157
      -4.340
      -4.424
      -4.385
      -4.205
      -3.866
      -3.362
      -2.706
      -1.940
      -1.122
      -0.307
       0.460
       1.130
       1.641
       1.938
       2.000
       1.851
       1.535
       1.100
       0.609
       0.143
      -0.223
      -0.456
      -0.573
      -0.616
      -0.600
      -0.495
      -0.256
       0.120
       0.583
       1.066
       1.537
       2.002
       2.460
       2.865
       3.156
       3.294
       3.273
       3.089
       2.711
       2.094
       1.231
       0.182
      -0.939
      -2.014
      -2.952
      -3.702
      -4.238
      -4.553
      -4.664
      -4.616
      -4.454
      -4.209
      -3.896
      -3.538
      -3.166
      -2.810
      -2.471
      -2.118
      -1.698
      -1.187
      -0.599
       0.015
       0.600
       1.117
       1.533
       1.806
       1.883
       1.728
       1.352
       0.824
       0.253
      -0.249
      -0.596
      -0.740
      -0.668
      -0.405
      -0.005
       0.466
       0.947
       1.390
       1.748
       1.983
       2.087
       2.102
       2.096
       2.123
       2.200
       2.319
       2.466
       2.632
       2.803
       2.957
       3.075
       3.173
       3.300
       3.500
       3.780
       4.100
       4.400
       4.621
       4.706
       4.610
       4.326
       3.884
       3.330
       2.701
       2.032
       1.361
       0.731
       0.177
      -0.287
      -0.660
      -0.942
      -1.128
      -1.220
      -1.242
      -1.246
      -1.294
      -1.433
      -1.674
      -2.002
      -2.387
      -2.798
      -3.197
      -3.533
      -3.757
      -3.853
      -3.842
      -3.770
      -3.669
      -3.558
      -3.466
      -3.439
      -3.512
      -3.680
      -3.915
      -4.190
      -4.484
      -4.757
      -4.949
      -5.010
      -4.935
      -4.744
      -4.439
      -3.993
      -3.383
      -2.639
      -1.849
      -1.128
      -0.541
      -0.085
       0.291
       0.628
       0.936
       1.197
       1.381
       1.447
       1.368
       1.157
       0.878
       0.611
       0.406
       0.271
       0.192
       0.162
       0.180
       0.234
       0.303
       0.367
       0.432
       0.528
       0.687
       0.909
       1.164
       1.420
       1.652
       1.843
       1.974
       2.031
       2.019
       1.960
       1.869
       1.741
       1.559
       1.320
       1.042
       0.752
       0.477
       0.254
       0.150
       0.240
       0.549
       1.030
       1.595
       2.176
       2.744
       3.270
       3.702
       3.990
       4.115
       4.098
       3.954
       3.674
       3.233
       2.639
       1.964
       1.323
       0.811
       0.468
       0.293
       0.274
       0.385
       0.551
       0.657
       0.596
       0.321
      -0.140
      -0.727
      -1.398
      -2.135
      -2.912
      -3.659
      -4.286
      -4.743
      -5.051
      -5.259
      -5.385
      -5.404
      -5.297
      -5.068
      -4.725
      -4.242
      -3.576
      -2.719
      -1.731
      -0.722
       0.203
       0.984
       1.615
       2.113
       2.504
       2.831
       3.140
       3.448
       3.718
       3.877
       3.868
       3.682
       3.346
       2.902
       2.394
       1.868
       1.367
       0.907
       0.487
       0.105
      -0.201
      -0.352
      -0.270
       0.075
       0.629
       1.291
       1.959
       2.561
       3.048
       3.395
       3.597
       3.674
       3.652
       3.531
       3.288
       2.904
       2.398
       1.834
       1.285
       0.797
       0.383
       0.051
      -0.181
      -0.294
      -0.297
      -0.225
      -0.123
      -0.027
       0.043
       0.080
       0.081
       0.041
      -0.053
      -0.211
      -0.435
      -0.720
      -1.060
      -1.457
      -1.912
      -2.425
      -2.989
      -3.586
      -4.191
      -4.776
