Origin Time       22/02/2010 17:23:43
Lat.              30.0 N	
Long.             80.1 E	
Depth (Km)          2.0
Magnitude         4.7
 Region           BAGESHWER-UTTARAKHAND                                            
 Above details taken from IMD 
     
Station Code      UDH
Station Lat.       28.997  N
Station Long.      79.403  E
Station Height(m)  213.0
Site Class        C   Vs30 between 200 m/sec to 375 m/sec *  
Record Time       22.02.2010 17:23:39.594
Sampling Rate     200. Hz
 Record Duration   98.610 Sec.
 Direction         E-W (E positive)
Max. Acceleration     -3.185 cm/sec**2
     
  * For reference see Site Classification link of website 
     
 Base Line Corrected and Low Pass Filtered (Cut Off at 35 Hz) Time History
 Acceleration data in cm/sec**2
    
[...]
      -0.057
      -0.051
      -0.048
      -0.050
      -0.050
      -0.042
      -0.022
       0.007
       0.037
       0.058
       0.063
       0.061
       0.061
       0.066
       0.070
       0.069
       0.061
       0.047
       0.032
       0.018
       0.007
      -0.005
      -0.024
      -0.047
      -0.063
      -0.062
      -0.047
      -0.029
      -0.014
      -0.003
       0.012
       0.040
       0.085
       0.136
       0.177
       0.199
       0.201
       0.188
       0.163
       0.128
       0.090
       0.055
       0.025
       0.006
      -0.002
      -0.007
      -0.016
      -0.031
      -0.045
      -0.058
      -0.074
      -0.093
      -0.110
      -0.116
      -0.110
      -0.097
      -0.084
      -0.072
      -0.055
      -0.027
       0.011
       0.047
       0.067
       0.068
       0.061
       0.056
       0.053
       0.043
       0.019
      -0.016
      -0.052
      -0.073
      -0.079
      -0.080
      -0.093
      -0.120
      -0.147
      -0.157
      -0.148
      -0.129
      -0.112
      -0.099
      -0.086
      -0.064
      -0.034
      -0.004
       0.012
       0.009
      -0.006
      -0.021
      -0.027
      -0.024
      -0.014
      -0.002
       0.006
       0.013
       0.025
       0.043
       0.063
       0.081
       0.095
       0.102
       0.102
       0.097
       0.091
       0.086
       0.078
       0.062
       0.044
       0.030
       0.027
       0.040
       0.064
       0.086
       0.094
       0.087
       0.077
       0.075
       0.080
       0.085
       0.085
       0.079
       0.072
       0.067
       0.064
       0.057
       0.041
       0.016
      -0.010
      -0.030
      -0.045
      -0.055
      -0.057
      -0.053
      -0.047
      -0.040
      -0.032
      -0.022
      -0.013
      -0.009
      -0.012
      -0.018
      -0.023
      -0.023
      -0.016
      -0.007
      -0.005
      -0.013
      -0.026
      -0.039
      -0.049
      -0.054
      -0.056
      -0.057
      -0.062
      -0.066
      -0.062
      -0.046
      -0.025
      -0.009
      -0.002
       0.003
       0.014
       0.038
       0.073
       0.107
       0.128
       0.135
       0.136
       0.137
       0.130
       0.107
       0.065
       0.010
      -0.050
      -0.107
      -0.152
      -0.186
      -0.210
      -0.224
      -0.221
      -0.199
      -0.165
      -0.129
      -0.099
      -0.077
      -0.063
      -0.051
      -0.036
      -0.018
      -0.002
       0.009
       0.015
       0.017
       0.015
       0.017
       0.030
       0.057
       0.087
       0.102
       0.096
       0.072
       0.042
       0.012
      -0.013
      -0.034
      -0.054
      -0.068
      -0.069
      -0.060
      -0.052
      -0.055
      -0.064
      -0.065
      -0.052
      -0.031
      -0.012
      -0.001
       0.001
       0.005
       0.019
       0.044
       0.073
       0.101
       0.130
       0.159
       0.182
       0.194
       0.194
       0.190
       0.181
       0.164
       0.136
       0.099
       0.059
       0.026
       0.006
      -0.007
      -0.024
      -0.048
      -0.069
      -0.072
      -0.058
      -0.038
      -0.028
      -0.031
      -0.038
      -0.035
      -0.016
       0.012
       0.033
       0.036
       0.025
       0.014
       0.011
       0.010
       0.002
      -0.016
      -0.040
      -0.058
      -0.061
      -0.053
      -0.047
      -0.049
      -0.054
      -0.051
      -0.041
      -0.037
      -0.048
      -0.072
      -0.096
      -0.104
      -0.090
      -0.062
      -0.038
      -0.028
      -0.023
      -0.011
       0.007
       0.023
       0.031
       0.035
       0.041
       0.050
       0.058
       0.057
       0.044
       0.024
       0.007
      -0.001
      -0.003
      -0.008
      -0.013
      -0.015
      -0.012
      -0.009
      -0.012
      -0.023
      -0.037
      -0.047
      -0.046
      -0.033
      -0.022
      -0.022
      -0.032
      -0.039
      -0.038
      -0.030
      -0.022
      -0.019
      -0.016
      -0.004
       0.023
       0.061
       0.095
       0.110
       0.109
       0.105
       0.110
       0.122
       0.133
       0.131
       0.114
       0.084
       0.053
       0.030
       0.015
       0.000
      -0.017
      -0.036
      -0.056
      -0.074
      -0.087
      -0.091
      -0.088
      -0.077
      -0.058
      -0.030
       0.006
       0.045
       0.085
       0.124
       0.155
       0.173
       0.179
       0.175
       0.165
       0.143
       0.111
       0.069
       0.024
      -0.018
      -0.050
      -0.069
      -0.082
      -0.096
      -0.115
      -0.132
      -0.142
      -0.143
      -0.138
      -0.130
      -0.122
      -0.115
      -0.103
      -0.083
      -0.055
      -0.025
       0.001
       0.025
       0.044
       0.059
       0.069
       0.076
       0.079
       0.076
       0.072
       0.074
       0.082
       0.090
       0.088
       0.066
       0.026
      -0.023
      -0.067
      -0.091
      -0.093
      -0.079
      -0.059
      -0.039
      -0.025
      -0.022
      -0.026
      -0.032
      -0.036
      -0.036
      -0.029
      -0.009
       0.019
       0.045
       0.060
       0.065
       0.063
       0.064
       0.072
       0.089
       0.110
       0.124
       0.129
       0.127
       0.120
       0.104
       0.080
       0.053
       0.026
       0.003
      -0.016
      -0.031
      -0.046
      -0.064
      -0.083
      -0.100
      -0.113
      -0.124
      -0.130
      -0.127
      -0.113
      -0.094
      -0.077
      -0.064
      -0.055
      -0.045
      -0.033
      -0.020
      -0.011
      -0.007
      -0.008
      -0.009
      -0.013
      -0.027
      -0.052
      -0.078
      -0.090
      -0.081
      -0.052
      -0.016
       0.010
       0.018
       0.009
      -0.006
      -0.020
      -0.033
      -0.044
      -0.048
      -0.041
      -0.021
       0.007
       0.035
       0.055
       0.063
       0.065
       0.069
       0.078
       0.085
       0.084
       0.077
       0.071
       0.069
       0.073
       0.080
       0.085
       0.080
       0.063
       0.037
       0.007
      -0.025
      -0.056
      -0.077
      -0.084
      -0.075
      -0.051
      -0.016
       0.023
       0.052
       0.068
       0.069
       0.061
       0.048
       0.037
       0.035
       0.042
       0.054
       0.069
       0.085
       0.101
       0.111
       0.112
       0.099
       0.073
       0.036
       0.000
      -0.023
      -0.029
      -0.027
      -0.030
      -0.045
      -0.073
      -0.110
      -0.148
      -0.178
      -0.195
      -0.206
      -0.216
      -0.226
      -0.233
      -0.232
      -0.220
      -0.195
      -0.162
      -0.126
      -0.090
      -0.054
      -0.015
       0.025
       0.066
       0.101
       0.126
       0.136
       0.134
       0.130
       0.131
       0.138
       0.145
       0.152
       0.160
       0.167
       0.172
       0.171
       0.163
       0.148
       0.133
       0.130
       0.140
       0.155
       0.160
       0.151
       0.134
       0.116
       0.101
       0.089
       0.078
       0.065
       0.050
       0.038
       0.030
       0.021
       0.006
      -0.014
      -0.031
      -0.040
      -0.039
      -0.032
      -0.023
      -0.019
      -0.021
      -0.031
      -0.046
      -0.062
      -0.073
      -0.076
      -0.072
      -0.069
      -0.071
      -0.077
      -0.084
      -0.094
      -0.110
      -0.129
      -0.149
      -0.167
      -0.179
      -0.183
      -0.180
      -0.173
      -0.166
      -0.155
      -0.133
      -0.097
      -0.054
      -0.013
       0.018
       0.034
       0.039
       0.037
       0.028
       0.009
      -0.022
      -0.052
      -0.065
      -0.056
      -0.038
      -0.026
      -0.030
      -0.045
      -0.057
      -0.052
      -0.028
       0.001
       0.025
       0.043
       0.060
       0.080
       0.100
       0.114
       0.120
       0.117
       0.110
       0.105
       0.107
       0.113
       0.119
       0.126
       0.135
       0.144
       0.150
       0.153
       0.157
       0.159
       0.157
       0.149
       0.136
       0.121
       0.108
       0.100
       0.098
       0.090
       0.069
       0.036
       0.003
      -0.025
      -0.046
      -0.066
      -0.088
      -0.109
      -0.122
      -0.118
      -0.097
      -0.073
      -0.057
      -0.049
      -0.040
      -0.024
      -0.005
       0.010
       0.014
       0.006
      -0.007
      -0.016
      -0.019
      -0.024
      -0.034
      -0.044
      -0.046
      -0.041
      -0.040
      -0.052
      -0.075
      -0.102
      -0.124
      -0.134
      -0.130
      -0.115
      -0.091
      -0.055
      -0.010
       0.034
       0.063
       0.072
       0.065
       0.054
       0.046
       0.042
       0.041
       0.038
       0.034
       0.031
       0.030
       0.021
      -0.006
      -0.052
      -0.099
      -0.131
      -0.138
      -0.127
      -0.108
      -0.092
      -0.078
      -0.058
      -0.027
       0.009
       0.043
       0.069
       0.090
       0.110
       0.127
       0.139
       0.144
       0.139
       0.126
       0.110
       0.099
       0.094
       0.087
       0.070
       0.040
      -0.001
      -0.044
      -0.079
      -0.100
      -0.110
      -0.116
      -0.120
      -0.116
      -0.102
      -0.081
      -0.055
      -0.027
       0.002
       0.027
       0.045
       0.056
       0.062
       0.066
       0.071
       0.080
       0.090
       0.097
       0.097
       0.090
       0.073
       0.038
      -0.012
      -0.066
      -0.111
      -0.135
      -0.142
      -0.140
      -0.139
      -0.138
      -0.129
      -0.104
      -0.071
      -0.046
      -0.040
      -0.047
      -0.054
      -0.049
      -0.028
       0.000
       0.019
       0.018
       0.003
      -0.013
      -0.022
      -0.027
      -0.032
      -0.037
      -0.035
      -0.020
       0.010
       0.047
       0.080
       0.104
       0.122
       0.143
       0.165
       0.172
       0.149
       0.097
       0.033
      -0.024
      -0.058
      -0.065
      -0.055
      -0.041
      -0.030
      -0.022
      -0.016
      -0.013
      -0.016
      -0.026
      -0.044
      -0.069
      -0.097
      -0.118
      -0.122
      -0.103
      -0.062
      -0.006
       0.051
       0.100
       0.136
       0.163
       0.181
       0.187
       0.179
       0.164
       0.154
       0.154
       0.164
       0.176
       0.181
       0.172
       0.156
       0.140
       0.128
       0.112
       0.088
       0.056
       0.026
       0.003
      -0.011
      -0.020
      -0.029
      -0.043
      -0.060
      -0.074
      -0.090
      -0.116
      -0.154
      -0.192
      -0.215
      -0.219
      -0.210
      -0.198
      -0.188
      -0.178
      -0.161
      -0.137
      -0.109
      -0.086
      -0.068
      -0.052
      -0.036
      -0.026
      -0.027
      -0.033
      -0.036
      -0.029
      -0.009
       0.022
       0.054
       0.080
       0.099
       0.114
       0.125
       0.123
       0.106
       0.081
       0.060
       0.055
       0.064
       0.078
       0.085
       0.075
       0.051
       0.021
      -0.010
      -0.044
      -0.080
      -0.111
      -0.126
      -0.121
      -0.100
      -0.071
      -0.044
      -0.023
      -0.003
       0.026
       0.069
       0.114
       0.143
       0.146
       0.125
       0.093
       0.064
       0.047
       0.038
       0.030
       0.022
       0.018
       0.024
       0.037
       0.048
       0.056
       0.062
       0.067
       0.069
       0.069
       0.069
       0.072
       0.086
       0.114
       0.150
       0.183
       0.204
       0.217
       0.229
       0.241
       0.245
       0.236
       0.213
       0.184
       0.155
       0.131
       0.104
       0.066
       0.014
      -0.039
      -0.083
      -0.114
      -0.142
      -0.175
      -0.218
      -0.270
      -0.322
      -0.368
      -0.408
      -0.452
      -0.509
      -0.578
      -0.652
      -0.724
      -0.793
      -0.856
      -0.913
      -0.959
      -0.989
      -0.998
      -0.986
      -0.964
      -0.939
      -0.908
      -0.863
      -0.797
      -0.711
      -0.607
      -0.491
      -0.375
      -0.270
      -0.180
      -0.104
      -0.044
      -0.001
       0.027
       0.041
       0.036
       0.007
      -0.048
      -0.123
      -0.211
      -0.302
      -0.388
      -0.461
      -0.516
      -0.545
      -0.545
      -0.520
      -0.478
      -0.426
      -0.355
      -0.251
      -0.105
       0.075
       0.277
       0.488
       0.704
       0.931
       1.179
       1.446
       1.709
       1.944
       2.143
       2.316
       2.473
       2.613
       2.724
       2.794
       2.819
       2.807
       2.769
       2.708
       2.615
       2.476
       2.290
       2.071
       1.837
       1.602
       1.375
       1.152
       0.929
       0.703
       0.487
       0.294
       0.133
       0.000
      -0.110
      -0.208
      -0.298
      -0.382
      -0.452
      -0.501
      -0.527
      -0.534
      -0.527
      -0.511
      -0.492
      -0.484
      -0.499
      -0.547
      -0.637
      -0.772
      -0.949
      -1.158
      -1.394
      -1.655
      -1.931
      -2.211
      -2.481
      -2.723
      -2.920
      -3.062
      -3.149
      -3.185
      -3.168
      -3.090
      -2.945
      -2.729
      -2.438
      -2.076
      -1.654
      -1.188
      -0.693
      -0.187
       0.308
       0.765
       1.162
       1.482
       1.717
       1.863
       1.924
       1.909
       1.825
       1.687
       1.522
       1.353
       1.190
       1.028
       0.862
       0.691
       0.517
       0.348
       0.194
       0.065
      -0.032
      -0.094
      -0.122
      -0.118
      -0.082
      -0.020
       0.066
       0.164
       0.259
       0.335
       0.384
       0.410
       0.416
       0.398
       0.359
       0.301
       0.233
       0.166
       0.108
       0.057
       0.002
      -0.077
      -0.181
      -0.297
      -0.406
      -0.504
      -0.600
      -0.701
      -0.804
      -0.894
      -0.960
      -1.004
      -1.042
      -1.090
      -1.148
      -1.203
      -1.245
      -1.268
      -1.268
      -1.236
      -1.162
      -1.037
      -0.861
      -0.642
      -0.393
      -0.131
       0.132
       0.380
       0.595
       0.757
       0.861
       0.916
       0.932
       0.910
       0.845
       0.740
       0.612
       0.489
       0.394
       0.334
       0.292
       0.250
       0.207
       0.183
       0.192
       0.233
       0.289
       0.348
       0.410
       0.488
       0.596
       0.732
       0.873
       0.988
       1.064
       1.111
       1.148
       1.182
       1.199
       1.176
       1.095
       0.955
       0.773
       0.569
       0.354
       0.127
      -0.105
      -0.329
      -0.531
      -0.701
      -0.833
      -0.917
      -0.945
      -0.910
      -0.816
      -0.677
      -0.516
      -0.354
      -0.201
      -0.056
       0.076
       0.180
       0.241
       0.245
       0.187
       0.065
      -0.109
      -0.312
      -0.519
      -0.706
      -0.854
      -0.954
      -1.012
      -1.042
      -1.055
      -1.048
      -1.014
      -0.945
      -0.847
      -0.731
      -0.612
      -0.495
      -0.375
      -0.244
      -0.105
       0.026
       0.143
       0.253
       0.372
       0.508
       0.653
       0.782
       0.873
       0.913
       0.911
       0.889
       0.864
       0.839
       0.811
       0.781
       0.754
       0.732
       0.715
       0.696
       0.670
       0.635
       0.598
       0.576
       0.575
       0.588
       0.604
       0.612
       0.613
       0.609
       0.603
       0.592
       0.564
       0.502
       0.391
       0.229
       0.027
      -0.200
      -0.434
      -0.656
      -0.853
      -1.015
      -1.134
      -1.203
      -1.221
      -1.197
      -1.141
      -1.060
      -0.960
      -0.847
      -0.724
      -0.590
      -0.449
      -0.314
      -0.197
      -0.103
      -0.030
       0.024
       0.062
       0.082
       0.078
       0.042
      -0.029
      -0.124
      -0.224
      -0.315
      -0.387
      -0.435
      -0.459
      -0.461
      -0.445
      -0.416
      -0.384
      -0.356
      -0.329
      -0.290
      -0.227
      -0.136
      -0.025
       0.098
       0.219
       0.327
       0.415
       0.479
       0.516
       0.520
       0.492
       0.442
       0.385
       0.334
       0.291
       0.254
       0.214
       0.157
       0.084
       0.011
      -0.043
      -0.065
      -0.055
      -0.026
       0.007
       0.026
       0.018
      -0.025
      -0.108
      -0.230
      -0.379
      -0.531
      -0.661
      -0.756
      -0.811
      -0.826
      -0.804
      -0.752
      -0.681
      -0.595
      -0.495
      -0.382
      -0.256
      -0.119
       0.026
       0.177
       0.335
       0.504
       0.687
       0.875
       1.061
       1.240
       1.413
       1.570
       1.691
       1.757
       1.756
       1.690
       1.572
       1.423
       1.262
       1.103
       0.955
       0.828
       0.723
       0.634
       0.548
       0.452
       0.336
       0.197
       0.043
      -0.111
      -0.251
      -0.376
      -0.492
      -0.597
      -0.682
      -0.732
      -0.741
      -0.708
      -0.642
      -0.556
      -0.467
      -0.387
      -0.324
      -0.284
      -0.268
      -0.270
      -0.290
      -0.328
      -0.379
      -0.433
      -0.479
      -0.516
      -0.548
      -0.574
      -0.594
      -0.602
      -0.598
      -0.575
      -0.534
      -0.485
      -0.443
      -0.415
      -0.398
      -0.385
      -0.373
      -0.369
      -0.384
      -0.423
      -0.485
      -0.549
      -0.591
      -0.596
      -0.566
      -0.517
      -0.458
      -0.388
      -0.295
      -0.170
      -0.026
       0.111
       0.215
       0.279
       0.319
       0.349
       0.377
       0.399
       0.416
       0.438
       0.480
       0.554
       0.652
       0.751
       0.830
       0.887
       0.932
       0.967
       0.984
       0.971
       0.927
       0.860
       0.779
       0.691
       0.592
       0.480
       0.353
       0.225
       0.113
       0.029
      -0.028
      -0.060
      -0.068
      -0.057
      -0.035
      -0.013
       0.000
      -0.004
      -0.033
      -0.088
      -0.170
      -0.280
      -0.412
      -0.552
      -0.681
      -0.786
      -0.860
      -0.905
      -0.921
      -0.907
      -0.864
      -0.791
      -0.692
      -0.573
      -0.438
      -0.286
      -0.114
       0.071
       0.247
       0.394
       0.503
       0.579
       0.631
       0.671
       0.697
       0.703
       0.684
       0.646
       0.602
       0.552
       0.482
       0.375
       0.225
       0.036
      -0.174
      -0.387
      -0.587
      -0.764
      -0.917
      -1.040
      -1.128
      -1.177
      -1.188
      -1.161
      -1.095
      -0.989
      -0.843
      -0.660
      -0.442
      -0.199
       0.051
       0.285
       0.485
