Origin Time       23/08/2012 16:30:19 UTC
Lat.              28.4 N	
Long.             82.7 E	
Depth (Km)         10.0
Magnitude         5.0
 Region           NEPAL                                                            
 Above details taken from IMD 
    
Station Code      UDH
Station Lat.       28.997  N
Station Long.      79.403  E
Station Height(m)  213.0
Site Class        C   Vs30 between 200 m/sec to 375 m/sec *  
Record Time       23.08.2012 16:31:29.694 UTC
Sampling Rate     200. Hz
 Record Duration   80.030 Sec.
 Direction         N-S (N positive)
Max. Acceleration      1.594 cm/sec**2
     
  * For reference see Site Classification link of website 
     
 Base Line Corrected and Low Pass Filtered (Cut Off at 35 Hz) Time History
 Acceleration data in cm/sec**2
    
[...]
      -0.313
      -0.267
      -0.211
      -0.148
      -0.076
       0.006
       0.093
       0.182
       0.265
       0.336
       0.392
       0.433
       0.462
       0.481
       0.491
       0.490
       0.479
       0.456
       0.426
       0.392
       0.355
       0.307
       0.243
       0.160
       0.062
      -0.042
      -0.140
      -0.230
      -0.311
      -0.383
      -0.441
      -0.479
      -0.493
      -0.485
      -0.459
      -0.426
      -0.391
      -0.358
      -0.330
      -0.309
      -0.296
      -0.291
      -0.289
      -0.286
      -0.284
      -0.284
      -0.288
      -0.294
      -0.302
      -0.312
      -0.323
      -0.332
      -0.338
      -0.339
      -0.335
      -0.327
      -0.316
      -0.298
      -0.269
      -0.223
      -0.157
      -0.069
       0.037
       0.154
       0.272
       0.386
       0.496
       0.604
       0.706
       0.799
       0.877
       0.937
       0.980
       1.005
       1.013
       1.003
       0.973
       0.924
       0.857
       0.776
       0.683
       0.582
       0.476
       0.372
       0.271
       0.177
       0.089
       0.007
      -0.066
      -0.128
      -0.178
      -0.215
      -0.245
      -0.271
      -0.295
      -0.313
      -0.322
      -0.317
      -0.299
      -0.271
      -0.237
      -0.197
      -0.155
      -0.111
      -0.072
      -0.039
      -0.012
       0.012
       0.028
       0.034
       0.029
       0.019
       0.007
      -0.002
      -0.004
       0.004
       0.020
       0.043
       0.071
       0.101
       0.132
       0.163
       0.193
       0.222
       0.250
       0.276
       0.302
       0.324
       0.340
       0.351
       0.359
       0.364
       0.362
       0.344
       0.311
       0.265
       0.214
       0.160
       0.104
       0.045
      -0.019
      -0.085
      -0.151
      -0.218
      -0.288
      -0.364
      -0.441
      -0.513
      -0.573
      -0.616
      -0.641
      -0.651
      -0.650
      -0.641
      -0.625
      -0.603
      -0.572
      -0.533
      -0.481
      -0.414
      -0.338
      -0.262
      -0.194
      -0.134
      -0.079
      -0.024
       0.029
       0.074
       0.106
       0.124
       0.130
       0.127
       0.113
       0.082
       0.033
      -0.027
      -0.093
      -0.157
      -0.213
      -0.262
      -0.309
      -0.361
      -0.419
      -0.475
      -0.522
      -0.552
      -0.565
      -0.564
      -0.553
      -0.531
      -0.493
      -0.434
      -0.357
      -0.273
      -0.189
      -0.109
      -0.032
       0.045
       0.128
       0.218
       0.312
       0.405
       0.489
       0.560
       0.612
       0.646
       0.664
       0.671
       0.666
       0.644
       0.606
       0.555
       0.500
       0.444
       0.388
       0.327
       0.259
       0.185
       0.111
       0.045
      -0.012
      -0.058
      -0.088
      -0.100
      -0.094
      -0.077
      -0.053
      -0.026
       0.006
       0.043
       0.088
       0.139
       0.196
       0.259
       0.327
       0.397
       0.461
       0.514
       0.558
       0.596
       0.628
       0.652
       0.664
       0.662
       0.650
       0.632
       0.612
       0.587
       0.550
       0.498
       0.432
       0.355
       0.272
       0.181
       0.081
      -0.023
      -0.127
      -0.226
      -0.317
      -0.399
      -0.468
      -0.523
      -0.563
      -0.592
      -0.617
      -0.646
      -0.679
      -0.713
      -0.741
      -0.760
      -0.773
      -0.780
      -0.780
      -0.772
      -0.751
      -0.717
      -0.674
      -0.624
      -0.568
      -0.505
      -0.441
      -0.379
      -0.326
      -0.285
      -0.253
      -0.227
      -0.204
      -0.187
      -0.179
      -0.178
      -0.178
      -0.174
      -0.165
      -0.152
      -0.136
      -0.119
      -0.102
      -0.092
      -0.087
      -0.088
      -0.091
      -0.095
      -0.097
      -0.092
      -0.082
      -0.070
      -0.058
      -0.042
      -0.018
       0.013
       0.050
       0.085
       0.117
       0.146
       0.179
       0.221
       0.271
       0.325
       0.379
       0.434
       0.492
       0.550
       0.608
       0.661
       0.707
       0.744
       0.771
       0.791
       0.807
       0.815
       0.811
       0.792
       0.758
       0.709
       0.649
       0.579
       0.498
       0.409
       0.312
       0.213
       0.114
       0.019
      -0.069
      -0.144
      -0.205
      -0.256
      -0.301
      -0.335
      -0.355
      -0.357
      -0.341
      -0.309
      -0.264
      -0.211
      -0.156
      -0.102
      -0.053
      -0.008
       0.033
       0.070
       0.102
       0.126
       0.142
       0.155
       0.167
       0.179
       0.190
       0.195
       0.190
       0.174
       0.151
       0.129
       0.114
       0.108
       0.108
       0.107
       0.099
       0.085
       0.070
       0.060
       0.053
       0.043
       0.027
       0.008
      -0.006
      -0.013
      -0.020
      -0.033
      -0.056
      -0.083
      -0.104
      -0.113
      -0.112
      -0.110
      -0.112
      -0.117
      -0.123
      -0.128
      -0.136
      -0.148
      -0.170
      -0.206
      -0.255
      -0.309
      -0.356
      -0.394
      -0.424
      -0.457
      -0.496
      -0.542
      -0.584
      -0.615
      -0.635
      -0.650
      -0.669
      -0.693
      -0.715
      -0.727
      -0.727
      -0.714
      -0.695
      -0.671
      -0.642
      -0.605
      -0.557
      -0.501
      -0.437
      -0.366
      -0.291
      -0.214
      -0.140
      -0.073
      -0.015
       0.035
       0.081
       0.125
       0.168
       0.205
       0.231
       0.249
       0.264
       0.283
       0.309
       0.346
       0.390
       0.438
       0.484
       0.528
       0.567
       0.601
       0.628
       0.649
       0.661
       0.666
       0.667
       0.665
       0.661
       0.647
       0.620
       0.577
       0.520
       0.448
       0.364
       0.270
       0.168
       0.062
      -0.047
      -0.158
      -0.272
      -0.388
      -0.498
      -0.596
      -0.676
      -0.740
      -0.787
      -0.818
      -0.831
      -0.826
      -0.804
      -0.763
      -0.706
      -0.635
      -0.555
      -0.469
      -0.380
      -0.289
      -0.195
      -0.096
       0.004
       0.100
       0.182
       0.249
       0.302
       0.343
       0.377
       0.404
       0.421
       0.424
       0.412
       0.391
       0.365
       0.333
       0.293
       0.241
       0.183
       0.124
       0.071
       0.029
      -0.003
      -0.029
      -0.049
      -0.058
      -0.049
      -0.021
       0.024
       0.078
       0.131
       0.174
       0.205
       0.225
       0.237
       0.245
       0.252
       0.257
       0.258
       0.251
       0.234
       0.210
       0.183
       0.156
       0.132
       0.108
       0.078
       0.040
      -0.003
      -0.045
      -0.085
      -0.125
      -0.170
      -0.217
      -0.259
      -0.289
      -0.303
      -0.302
      -0.289
      -0.268
      -0.241
      -0.204
      -0.153
      -0.089
      -0.015
       0.064
       0.137
       0.199
       0.249
       0.292
       0.334
       0.373
       0.405
       0.423
       0.424
       0.409
       0.386
       0.359
       0.327
       0.282
       0.220
       0.144
       0.065
      -0.007
      -0.068
      -0.115
      -0.151
      -0.175
      -0.187
      -0.182
      -0.161
      -0.131
      -0.101
      -0.077
      -0.059
      -0.046
      -0.035
      -0.024
      -0.019
      -0.025
      -0.044
      -0.075
      -0.115
      -0.164
      -0.221
      -0.284
      -0.347
      -0.408
      -0.467
      -0.525
      -0.582
      -0.634
      -0.677
      -0.708
      -0.725
      -0.728
      -0.718
      -0.687
      -0.631
      -0.552
      -0.451
      -0.334
      -0.204
      -0.067
       0.073
       0.213
       0.348
       0.478
       0.601
       0.721
       0.838
       0.949
       1.044
       1.117
       1.163
       1.181
       1.172
       1.141
       1.091
       1.023
       0.938
       0.839
       0.732
       0.623
       0.518
       0.419
       0.320
       0.217
       0.107
      -0.002
      -0.102
      -0.191
      -0.270
      -0.342
      -0.404
      -0.453
      -0.484
      -0.496
      -0.493
      -0.478
      -0.457
      -0.431
      -0.404
      -0.376
      -0.348
      -0.315
      -0.275
      -0.226
      -0.170
      -0.111
      -0.055
      -0.007
       0.032
       0.065
       0.092
       0.107
       0.106
       0.088
       0.061
       0.028
      -0.009
      -0.051
      -0.101
      -0.161
      -0.226
      -0.291
      -0.353
      -0.408
      -0.457
      -0.497
      -0.525
      -0.539
      -0.536
      -0.512
      -0.466
      -0.401
      -0.327
      -0.249
      -0.172
      -0.096
      -0.021
       0.051
       0.117
       0.176
       0.230
       0.282
       0.335
       0.386
       0.433
       0.473
       0.508
       0.532
       0.540
       0.533
       0.513
       0.486
       0.454
       0.419
       0.379
       0.336
       0.294
       0.258
       0.230
       0.206
       0.184
       0.164
       0.151
       0.150
       0.161
       0.179
       0.202
       0.224
       0.247
       0.271
       0.298
       0.327
       0.351
       0.364
       0.358
       0.332
       0.292
       0.247
       0.205
       0.164
       0.118
       0.063
       0.002
      -0.060
      -0.119
      -0.174
      -0.231
      -0.292
      -0.355
      -0.415
      -0.463
      -0.497
      -0.516
      -0.525
      -0.529
      -0.533
      -0.537
      -0.538
      -0.533
      -0.520
      -0.502
      -0.479
      -0.454
      -0.430
      -0.408
      -0.388
      -0.370
      -0.352
      -0.341
      -0.341
      -0.351
      -0.368
      -0.383
      -0.390
      -0.386
      -0.377
      -0.371
      -0.371
      -0.373
      -0.372
      -0.366
      -0.357
      -0.349
      -0.347
      -0.350
      -0.352
      -0.346
      -0.331
      -0.306
      -0.271
      -0.224
      -0.168
      -0.105
      -0.042
       0.015
       0.062
       0.096
       0.117
       0.127
       0.131
       0.131
       0.129
       0.125
       0.122
       0.123
       0.130
       0.149
       0.182
       0.226
       0.281
       0.341
       0.402
       0.462
       0.522
       0.583
       0.643
       0.694
       0.733
       0.757
       0.769
       0.771
       0.761
       0.737
       0.695
       0.635
       0.564
       0.492
       0.424
       0.360
       0.294
       0.224
       0.149
       0.074
       0.004
      -0.061
      -0.130
      -0.208
      -0.295
      -0.380
      -0.451
      -0.503
      -0.536
      -0.554
      -0.560
      -0.558
      -0.548
      -0.533
      -0.517
      -0.505
      -0.495
      -0.483
      -0.465
      -0.439
      -0.402
      -0.352
      -0.293
      -0.227
      -0.160
      -0.094
      -0.030
       0.028
       0.078
       0.118
       0.146
       0.165
       0.180
       0.194
       0.208
       0.222
       0.235
       0.252
       0.271
       0.290
       0.307
       0.320
       0.328
       0.328
       0.321
       0.307
       0.288
       0.268
       0.248
       0.229
       0.208
       0.184
       0.158
       0.136
       0.123
       0.123
       0.134
       0.154
       0.176
       0.197
       0.219
       0.245
       0.281
       0.326
       0.376
       0.425
       0.463
       0.486
       0.494
       0.488
       0.467
       0.425
       0.358
       0.268
       0.161
       0.046
      -0.071
      -0.188
      -0.305
      -0.418
      -0.521
      -0.606
      -0.672
      -0.719
      -0.748
      -0.761
      -0.759
      -0.748
      -0.726
      -0.687
      -0.625
      -0.536
      -0.426
      -0.305
      -0.184
      -0.067
       0.053
       0.180
       0.313
       0.443
       0.560
       0.659
       0.737
       0.792
       0.821
       0.821
       0.790
       0.726
       0.632
       0.515
       0.387
       0.259
       0.138
       0.025
      -0.085
      -0.192
      -0.294
      -0.385
      -0.458
      -0.514
      -0.553
      -0.579
      -0.592
      -0.595
      -0.584
      -0.555
      -0.508
      -0.449
      -0.388
      -0.331
      -0.284
      -0.247
      -0.217
      -0.193
      -0.176
      -0.165
      -0.158
      -0.150
      -0.134
      -0.111
      -0.083
      -0.055
      -0.030
      -0.012
       0.003
       0.017
       0.031
       0.042
       0.051
       0.057
       0.058
       0.050
       0.032
       0.004
      -0.029
      -0.063
      -0.095
      -0.123
      -0.145
      -0.159
      -0.162
      -0.150
      -0.124
      -0.090
      -0.059
      -0.033
      -0.011
       0.012
       0.036
       0.058
       0.075
       0.084
       0.091
       0.098
       0.103
       0.096
       0.070
       0.025
      -0.039
      -0.117
      -0.204
      -0.297
      -0.391
      -0.486
      -0.578
      -0.665
      -0.741
      -0.804
      -0.848
      -0.872
      -0.876
      -0.863
      -0.832
      -0.784
      -0.717
      -0.628
      -0.516
      -0.383
      -0.234
      -0.070
       0.108
       0.303
       0.508
       0.711
       0.904
       1.080
       1.238
       1.374
       1.484
       1.559
       1.594
       1.591
       1.556
       1.503
       1.438
       1.361
       1.268
       1.157
       1.030
       0.893
       0.752
       0.611
       0.468
       0.324
       0.183
       0.054
      -0.054
      -0.139
      -0.203
      -0.252
      -0.291
      -0.325
      -0.353
      -0.375
      -0.388
      -0.394
      -0.393
      -0.391
      -0.392
      -0.397
      -0.400
      -0.394
      -0.375
      -0.354
      -0.340
      -0.339
      -0.347
      -0.356
      -0.361
      -0.362
      -0.362
      -0.362
      -0.357
      -0.340
      -0.307
      -0.260
      -0.208
      -0.159
      -0.120
      -0.091
      -0.069
      -0.050
      -0.035
      -0.027
      -0.024
      -0.021
      -0.015
      -0.002
       0.019
       0.048
       0.085
       0.127
       0.170
       0.207
       0.233
       0.245
       0.244
       0.238
       0.231
       0.225
       0.218
       0.210
       0.201
       0.192
       0.184
       0.178
       0.168
       0.151
       0.126
       0.096
       0.065
       0.033
      -0.002
      -0.042
      -0.084
      -0.124
      -0.157
      -0.181
      -0.198
      -0.214
      -0.232
      -0.250
      -0.270
      -0.290
      -0.315
      -0.347
      -0.383
      -0.420
      -0.450
      -0.468
      -0.473
      -0.469
      -0.459
      -0.447
      -0.434
      -0.423
      -0.413
      -0.401
      -0.385
      -0.369
      -0.354
      -0.344
      -0.336
      -0.327
      -0.314
      -0.299
      -0.286
      -0.276
      -0.269
      -0.259
      -0.243
      -0.224
      -0.209
      -0.204
      -0.209
      -0.217
      -0.217
      -0.200
      -0.168
      -0.126
      -0.084
      -0.046
      -0.007
       0.034
       0.077
       0.117
       0.151
       0.175
       0.192
       0.209
       0.231
       0.265
       0.315
       0.378
       0.447
       0.514
       0.573
       0.623
       0.668
       0.707
       0.737
       0.758
       0.768
       0.767
       0.756
       0.737
       0.713
       0.683
       0.644
       0.596
       0.542
       0.484
       0.426
       0.366
       0.301
       0.227
       0.147
       0.066
      -0.007
      -0.072
      -0.134
      -0.195
      -0.255
      -0.308
      -0.347
      -0.368
      -0.368
      -0.353
      -0.327
      -0.294
      -0.254
      -0.207
      -0.156
      -0.105
      -0.058
      -0.023
      -0.001
       0.012
       0.019
       0.022
       0.017
       0.006
      -0.011
      -0.033
      -0.059
      -0.087
      -0.114
      -0.144
      -0.183
      -0.232
      -0.286
      -0.336
      -0.373
      -0.393
      -0.398
      -0.388
      -0.363
      -0.321
      -0.262
      -0.191
      -0.114
      -0.037
       0.041
       0.120
       0.200
       0.279
       0.355
       0.423
       0.485
       0.544
       0.599
       0.648
       0.682
       0.698
       0.691
       0.659
       0.605
       0.536
       0.462
       0.390
       0.320
       0.250
       0.180
       0.111
       0.049
      -0.006
      -0.055
      -0.104
      -0.155
      -0.204
      -0.246
      -0.278
      -0.299
      -0.313
      -0.325
      -0.336
      -0.348
      -0.360
      -0.368
      -0.375
      -0.383
      -0.393
      -0.410
      -0.435
      -0.469
      -0.511
      -0.556
      -0.599
      -0.640
      -0.676
      -0.701
      -0.710
      -0.700
      -0.670
      -0.625
      -0.570
      -0.506
      -0.433
      -0.347
      -0.250
      -0.147
      -0.045
       0.049
       0.135
       0.216
       0.293
       0.363
       0.421
       0.461
       0.481
       0.485
       0.479
       0.467
       0.453
       0.439
       0.424
       0.408
       0.389
       0.370
       0.352
       0.338
       0.327
       0.316
       0.303
       0.288
       0.275
       0.268
       0.266
       0.264
       0.260
       0.252
       0.236
       0.212
       0.185
       0.160
       0.142
       0.129
       0.117
       0.102
       0.081
       0.055
       0.026
      -0.002
      -0.030
      -0.058
      -0.087
      -0.113
      -0.132
      -0.139
      -0.129
      -0.102
      -0.058
      -0.001
       0.064
       0.137
       0.214
       0.290
       0.359
       0.415
       0.453
       0.472
       0.477
       0.470
       0.451
       0.421
       0.382
       0.331
       0.264
       0.174
       0.060
      -0.074
      -0.218
      -0.365
      -0.505
      -0.632
      -0.741
      -0.826
      -0.886
      -0.917
      -0.923
      -0.909
      -0.880
      -0.839
      -0.792
      -0.743
      -0.692
      -0.639
      -0.581
      -0.519
      -0.453
      -0.385
      -0.318
      -0.255
      -0.196
      -0.143
      -0.098
      -0.061
      -0.028
       0.002
       0.030
       0.057
       0.087
       0.122
       0.161
       0.199
       0.234
       0.264
       0.291
       0.315
       0.336
       0.354
       0.366
       0.370
       0.365
       0.353
       0.338
       0.321
       0.307
       0.296
       0.285
       0.273
       0.258
       0.243
       0.228
       0.213
       0.196
       0.181
       0.169
       0.165
       0.170
       0.185
       0.208
       0.236
       0.269
       0.311
       0.369
       0.442
       0.525
       0.607
       0.675
       0.725
       0.757
       0.777
       0.788
       0.787
       0.771
       0.733
       0.666
       0.569
       0.444
       0.303
       0.158
       0.011
      -0.136
      -0.285
      -0.433
      -0.573
      -0.701
      -0.812
      -0.904
      -0.975
      -1.023
      -1.046
      -1.047
      -1.030
      -0.999
      -0.947
      -0.873
      -0.777
      -0.670
      -0.562
      -0.461
      -0.370
      -0.290
