Origin Time       22/02/2010 17:23:43
Lat.              30.0 N	
Long.             80.1 E	
Depth (Km)          2.0
Magnitude         4.7
 Region           BAGESHWER-UTTARAKHAND                                            
 Above details taken from IMD 
   
Station Code      UDH
Station Lat.       28.997
Station Long.      79.403
Station Height(m)  213.0
Site Class        C   Vs30 between 200 m/sec to 375 m/sec *  
Record Time       22.02.2010 17:23:39.594
Sampling Rate     200. Hz
 Record Duration   98.610 Sec.
 Direction         Vert. (Up positive)
Max. Acceleration     -3.996 cm/sec**2
     
  * For reference see Site Classification link of website 
     
 Base Line Corrected and Low Pass Filtered (Cut Off at 35 Hz) Time History
 Acceleration data in cm/sec**2
    
[...]
      -0.001
       0.001
       0.001
       0.003
       0.008
       0.010
       0.007
       0.000
      -0.004
      -0.003
       0.002
       0.005
       0.003
      -0.001
      -0.005
      -0.005
      -0.002
       0.002
       0.007
       0.011
       0.011
       0.008
       0.004
       0.000
       0.002
       0.008
       0.014
       0.014
       0.005
      -0.007
      -0.015
      -0.015
      -0.009
      -0.005
      -0.005
      -0.009
      -0.010
      -0.005
       0.003
       0.009
       0.008
       0.002
      -0.005
      -0.007
      -0.005
      -0.002
      -0.002
      -0.006
      -0.011
      -0.012
      -0.010
      -0.005
      -0.003
      -0.004
      -0.005
      -0.004
       0.001
       0.008
       0.010
       0.007
      -0.001
      -0.009
      -0.011
      -0.008
      -0.003
       0.000
      -0.002
      -0.004
      -0.006
      -0.005
      -0.003
      -0.003
      -0.005
      -0.008
      -0.007
      -0.002
       0.005
       0.011
       0.012
       0.007
      -0.004
      -0.015
      -0.023
      -0.022
      -0.015
      -0.007
      -0.005
      -0.010
      -0.017
      -0.018
      -0.012
      -0.002
       0.003
       0.003
      -0.001
      -0.004
      -0.005
      -0.003
      -0.002
      -0.002
      -0.001
       0.001
       0.002
       0.001
      -0.003
      -0.008
      -0.010
      -0.009
      -0.006
      -0.004
      -0.005
      -0.007
      -0.008
      -0.008
      -0.008
      -0.011
      -0.013
      -0.012
      -0.005
       0.003
       0.006
       0.004
       0.001
      -0.001
       0.001
       0.003
       0.001
      -0.005
      -0.010
      -0.008
      -0.004
      -0.002
      -0.008
      -0.018
      -0.021
      -0.016
      -0.008
      -0.005
      -0.011
      -0.016
      -0.013
      -0.001
       0.014
       0.021
       0.018
       0.009
       0.002
       0.000
       0.001
       0.001
      -0.002
      -0.005
      -0.007
      -0.007
      -0.004
       0.000
       0.002
       0.001
      -0.005
      -0.014
      -0.019
      -0.016
      -0.004
       0.008
       0.013
       0.010
       0.000
      -0.009
      -0.011
      -0.007
       0.000
       0.005
       0.004
       0.000
      -0.002
       0.002
       0.007
       0.007
       0.003
      -0.003
      -0.003
       0.004
       0.010
       0.010
       0.003
      -0.004
      -0.004
       0.003
       0.013
       0.018
       0.018
       0.015
       0.014
       0.014
       0.016
       0.015
       0.009
       0.001
      -0.007
      -0.012
      -0.013
      -0.011
      -0.007
      -0.004
      -0.002
      -0.001
       0.001
       0.002
       0.003
       0.001
      -0.003
      -0.011
      -0.019
      -0.023
      -0.020
      -0.014
      -0.010
      -0.011
      -0.015
      -0.015
      -0.010
      -0.001
       0.007
       0.009
       0.004
      -0.002
      -0.004
      -0.001
       0.005
       0.007
       0.001
      -0.010
      -0.018
      -0.014
      -0.001
       0.011
       0.016
       0.012
       0.007
       0.006
       0.009
       0.010
       0.003
      -0.008
      -0.014
      -0.009
       0.005
       0.016
       0.017
       0.008
       0.000
      -0.001
       0.006
       0.016
       0.018
       0.012
       0.001
      -0.007
      -0.007
      -0.003
       0.002
       0.003
       0.001
      -0.003
      -0.007
      -0.009
      -0.007
      -0.004
      -0.001
       0.002
       0.004
       0.007
       0.009
       0.010
       0.006
      -0.003
      -0.014
      -0.021
      -0.018
      -0.007
       0.005
       0.009
       0.006
       0.002
       0.002
       0.009
       0.016
       0.015
       0.008
       0.000
      -0.003
      -0.001
       0.002
       0.003
      -0.001
      -0.007
      -0.013
      -0.017
      -0.016
      -0.012
      -0.008
      -0.005
      -0.003
      -0.002
       0.000
       0.002
       0.003
       0.004
       0.004
       0.002
       0.000
      -0.002
      -0.003
      -0.003
      -0.002
       0.000
       0.002
       0.001
      -0.003
      -0.008
      -0.010
      -0.008
      -0.003
       0.001
       0.003
       0.003
       0.003
       0.001
      -0.003
      -0.008
      -0.010
      -0.007
      -0.002
       0.000
      -0.004
      -0.012
      -0.016
      -0.012
      -0.003
       0.004
       0.003
      -0.007
      -0.016
      -0.018
      -0.009
       0.003
       0.012
       0.014
       0.010
       0.007
       0.007
       0.010
       0.012
       0.010
       0.007
       0.005
       0.004
       0.004
       0.003
       0.001
      -0.001
      -0.003
      -0.002
       0.003
       0.010
       0.012
       0.007
      -0.005
      -0.013
      -0.012
       0.000
       0.012
       0.012
       0.003
      -0.004
      -0.001
       0.011
       0.022
       0.021
       0.010
      -0.001
      -0.006
      -0.005
      -0.001
      -0.002
      -0.006
      -0.011
      -0.013
      -0.012
      -0.009
      -0.007
      -0.007
      -0.009
      -0.008
      -0.004
       0.003
       0.010
       0.012
       0.012
       0.010
       0.008
       0.005
       0.001
      -0.004
      -0.009
      -0.012
      -0.011
      -0.007
      -0.003
       0.000
       0.001
      -0.001
      -0.006
      -0.012
      -0.015
      -0.015
      -0.011
      -0.008
      -0.010
      -0.016
      -0.021
      -0.018
      -0.008
       0.004
       0.009
       0.006
       0.001
      -0.003
      -0.003
      -0.001
       0.001
       0.002
       0.002
       0.001
       0.002
       0.005
       0.009
       0.011
       0.008
       0.003
      -0.001
      -0.001
       0.004
       0.009
       0.010
       0.007
       0.003
       0.002
       0.005
       0.008
       0.007
       0.001
      -0.008
      -0.014
      -0.014
      -0.010
      -0.006
      -0.007
      -0.010
      -0.012
      -0.008
      -0.002
       0.003
       0.000
      -0.009
      -0.018
      -0.020
      -0.012
      -0.001
       0.005
       0.002
      -0.005
      -0.010
      -0.007
       0.000
       0.005
       0.003
      -0.003
      -0.009
      -0.010
      -0.005
       0.001
       0.003
      -0.002
      -0.009
      -0.011
      -0.005
       0.007
       0.018
       0.020
       0.013
       0.003
      -0.005
      -0.006
      -0.002
       0.002
       0.003
       0.001
      -0.001
       0.001
       0.007
       0.016
       0.020
       0.016
       0.006
      -0.003
      -0.004
       0.005
       0.016
       0.020
       0.013
       0.000
      -0.010
      -0.009
      -0.001
       0.008
       0.011
       0.006
       0.001
       0.001
       0.007
       0.013
       0.011
       0.000
      -0.014
      -0.019
      -0.013
      -0.003
       0.001
      -0.005
      -0.015
      -0.019
      -0.016
      -0.011
      -0.008
      -0.012
      -0.019
      -0.024
      -0.022
      -0.014
      -0.007
      -0.007
      -0.015
      -0.025
      -0.028
      -0.023
      -0.012
      -0.005
      -0.006
      -0.014
      -0.023
      -0.025
      -0.017
      -0.006
       0.002
       0.000
      -0.008
      -0.012
      -0.008
       0.000
       0.004
      -0.001
      -0.009
      -0.013
      -0.009
       0.000
       0.008
       0.009
       0.004
      -0.004
      -0.011
      -0.015
      -0.016
      -0.015
      -0.013
      -0.012
      -0.010
      -0.008
      -0.006
      -0.004
      -0.004
      -0.008
      -0.014
      -0.021
      -0.024
      -0.022
      -0.016
      -0.012
      -0.013
      -0.018
      -0.024
      -0.024
      -0.019
      -0.015
      -0.015
      -0.019
      -0.024
      -0.027
      -0.026
      -0.022
      -0.019
      -0.017
      -0.015
      -0.012
      -0.006
       0.001
       0.006
       0.006
       0.002
      -0.002
       0.001
       0.009
       0.020
       0.026
       0.028
       0.030
       0.039
       0.056
       0.073
       0.082
       0.080
       0.070
       0.061
       0.059
       0.065
       0.071
       0.072
       0.070
       0.069
       0.070
       0.072
       0.068
       0.052
       0.025
      -0.004
      -0.029
      -0.043
      -0.049
      -0.047
      -0.040
      -0.026
      -0.004
       0.023
       0.048
       0.064
       0.063
       0.047
       0.019
      -0.014
      -0.042
      -0.057
      -0.053
      -0.035
      -0.013
       0.006
       0.017
       0.024
       0.030
       0.034
       0.034
       0.028
       0.019
       0.009
      -0.003
      -0.023
      -0.057
      -0.104
      -0.153
      -0.191
      -0.208
      -0.202
      -0.180
      -0.152
      -0.124
      -0.101
      -0.084
      -0.075
      -0.075
      -0.079
      -0.078
      -0.057
      -0.011
       0.051
       0.110
       0.145
       0.145
       0.111
       0.054
      -0.008
      -0.058
      -0.085
      -0.083
      -0.052
       0.006
       0.078
       0.145
       0.184
       0.178
       0.127
       0.047
      -0.037
      -0.102
      -0.135
      -0.137
      -0.115
      -0.078
      -0.032
       0.011
       0.039
       0.042
       0.024
      -0.003
      -0.015
       0.001
       0.049
       0.118
       0.193
       0.253
       0.286
       0.283
       0.245
       0.184
       0.120
       0.072
       0.051
       0.053
       0.070
       0.096
       0.124
       0.142
       0.135
       0.089
       0.009
      -0.080
      -0.147
      -0.170
      -0.156
      -0.128
      -0.105
      -0.091
      -0.081
      -0.069
      -0.058
      -0.057
      -0.061
      -0.056
      -0.030
       0.012
       0.046
       0.046
       0.010
      -0.034
      -0.056
      -0.048
      -0.025
      -0.007
      -0.001
       0.002
       0.008
       0.014
       0.006
      -0.016
      -0.038
      -0.046
      -0.039
      -0.041
      -0.074
      -0.144
      -0.228
      -0.291
      -0.313
      -0.293
      -0.245
      -0.182
      -0.109
      -0.032
       0.037
       0.080
       0.090
       0.075
       0.055
       0.044
       0.039
       0.026
      -0.003
      -0.042
      -0.071
      -0.072
      -0.047
      -0.015
       0.005
       0.007
       0.001
       0.001
       0.014
       0.035
       0.057
       0.078
       0.096
       0.106
       0.095
       0.051
      -0.023
      -0.108
      -0.173
      -0.193
      -0.159
      -0.081
       0.023
       0.132
       0.231
       0.300
       0.323
       0.292
       0.214
       0.116
       0.026
      -0.037
      -0.070
      -0.080
      -0.075
      -0.058
      -0.029
       0.010
       0.052
       0.087
       0.111
       0.125
       0.130
       0.129
       0.119
       0.103
       0.092
       0.097
       0.115
       0.132
       0.130
       0.109
       0.085
       0.081
       0.103
       0.129
       0.132
       0.094
       0.027
      -0.038
      -0.076
      -0.085
      -0.077
      -0.071
      -0.074
      -0.083
      -0.090
      -0.091
      -0.079
      -0.042
       0.033
       0.145
       0.271
       0.374
       0.420
       0.396
       0.315
       0.205
       0.083
      -0.046
      -0.184
      -0.320
      -0.424
      -0.463
      -0.418
      -0.298
      -0.138
       0.016
       0.128
       0.173
       0.138
       0.023
      -0.149
      -0.326
      -0.444
      -0.450
      -0.337
      -0.145
       0.053
       0.183
       0.196
       0.080
      -0.135
      -0.389
      -0.600
      -0.699
      -0.652
      -0.472
      -0.206
       0.088
       0.354
       0.542
       0.609
       0.534
       0.334
       0.072
      -0.168
      -0.320
      -0.360
      -0.313
      -0.224
      -0.129
      -0.050
       0.002
       0.018
      -0.001
      -0.047
      -0.103
      -0.154
      -0.193
      -0.221
      -0.236
      -0.225
      -0.174
      -0.079
       0.043
       0.155
       0.223
       0.242
       0.240
       0.263
       0.341
       0.471
       0.610
       0.698
       0.683
       0.538
       0.275
      -0.054
      -0.361
      -0.546
      -0.533
      -0.306
       0.074
       0.491
       0.817
       0.961
       0.889
       0.616
       0.196
      -0.292
      -0.741
      -1.030
      -1.055
      -0.773
      -0.211
       0.533
       1.324
       2.012
       2.456
       2.546
       2.233
       1.556
       0.639
      -0.340
      -1.204
      -1.817
      -2.094
      -2.008
      -1.601
      -0.994
      -0.373
       0.069
       0.212
       0.054
      -0.296
      -0.682
      -0.968
      -1.057
      -0.884
      -0.415
       0.324
       1.194
       1.944
       2.282
       2.002
       1.090
      -0.249
      -1.669
      -2.798
      -3.351
      -3.188
      -2.333
      -0.977
       0.549
       1.845
       2.559
       2.514
       1.773
       0.615
      -0.584
      -1.477
      -1.840
      -1.606
      -0.864
       0.167
       1.175
       1.839
       1.943
       1.454
       0.531
      -0.548
      -1.485
      -2.038
      -2.061
      -1.531
      -0.569
       0.568
       1.557
       2.120
       2.130
       1.626
       0.768
      -0.239
      -1.182
      -1.837
      -1.987
      -1.501
      -0.442
       0.903
       2.115
       2.823
       2.838
       2.164
       0.942
      -0.612
      -2.199
      -3.449
      -3.996
      -3.630
      -2.434
      -0.774
       0.861
       2.069
       2.662
       2.641
       2.097
       1.159
       0.018
      -1.032
      -1.664
      -1.682
      -1.152
      -0.369
       0.331
       0.770
       0.947
       0.934
       0.743
       0.329
      -0.294
      -0.957
      -1.396
      -1.405
      -0.985
      -0.332
       0.307
       0.771
       1.012
       1.026
       0.799
       0.341
      -0.227
      -0.683
      -0.811
      -0.552
      -0.051
       0.447
       0.758
       0.837
       0.739
       0.518
       0.191
      -0.215
      -0.608
      -0.846
      -0.836
      -0.601
      -0.263
       0.060
       0.329
       0.551
       0.705
       0.708
       0.491
       0.097
      -0.304
      -0.518
      -0.460
      -0.194
       0.146
       0.456
       0.701
       0.864
       0.885
       0.681
       0.230
      -0.371
      -0.933
      -1.280
      -1.334
      -1.110
      -0.663
      -0.054
       0.617
       1.171
       1.398
       1.179
       0.596
      -0.095
      -0.617
      -0.834
      -0.791
      -0.615
      -0.396
      -0.148
       0.122
       0.348
       0.420
       0.281
       0.007
      -0.220
      -0.244
      -0.052
       0.214
       0.378
       0.369
       0.253
       0.161
       0.164
       0.220
       0.229
       0.121
      -0.090
      -0.339
      -0.565
      -0.734
      -0.811
      -0.737
      -0.454
       0.019
       0.540
       0.894
       0.915
       0.599
       0.111
      -0.319
      -0.539
      -0.531
      -0.380
      -0.176
       0.030
       0.213
       0.339
       0.365
       0.280
       0.135
       0.016
      -0.021
       0.000
       0.003
      -0.076
      -0.221
      -0.347
      -0.371
      -0.272
      -0.097
       0.079
       0.202
       0.255
       0.233
       0.131
      -0.039
      -0.233
      -0.370
      -0.385
      -0.272
      -0.101
       0.034
       0.081
       0.068
       0.057
       0.083
       0.114
       0.090
      -0.008
      -0.139
      -0.235
      -0.262
      -0.231
      -0.167
      -0.063
       0.103
       0.323
       0.521
       0.592
       0.474
       0.206
      -0.090
      -0.290
      -0.352
      -0.315
      -0.237
      -0.137
       0.006
       0.194
       0.369
       0.447
       0.386
       0.228
       0.064
      -0.037
      -0.079
      -0.114
      -0.179
      -0.255
      -0.278
      -0.206
      -0.066
       0.062
       0.109
       0.074
       0.015
      -0.006
       0.027
       0.087
       0.146
       0.200
       0.260
       0.309
       0.293
       0.158
      -0.093
      -0.375
      -0.563
      -0.567
      -0.397
      -0.139
       0.100
       0.248
       0.280
       0.192
      -0.001
      -0.257
      -0.486
      -0.579
      -0.466
      -0.164
       0.222
       0.554
       0.721
       0.680
       0.458
       0.127
      -0.230
      -0.534
      -0.714
      -0.724
      -0.557
      -0.265
       0.061
       0.329
       0.489
       0.536
       0.493
       0.377
       0.201
      -0.018
      -0.244
      -0.426
      -0.525
      -0.532
      -0.466
      -0.350
      -0.196
      -0.011
       0.174
       0.304
       0.330
       0.261
       0.163
       0.119
       0.162
       0.257
       0.343
       0.380
       0.374
       0.343
       0.283
       0.172
       0.001
      -0.190
      -0.319
      -0.312
      -0.157
       0.091
       0.342
       0.525
       0.610
       0.585
       0.436
       0.156
      -0.220
      -0.607
      -0.907
      -1.060
      -1.068
      -0.971
      -0.801
      -0.560
      -0.251
       0.088
       0.373
       0.516
       0.486
       0.335
       0.162
       0.039
      -0.014
      -0.008
       0.063
       0.220
       0.452
       0.681
       0.786
       0.687
       0.407
       0.065
      -0.199
      -0.308
      -0.268
      -0.140
       0.012
       0.142
       0.209
       0.177
       0.029
      -0.198
      -0.415
      -0.527
      -0.493
      -0.346
      -0.164
      -0.009
       0.097
       0.166
       0.211
       0.228
       0.205
       0.139
       0.044
      -0.052
      -0.118
      -0.137
      -0.105
      -0.030
       0.065
       0.144
       0.164
       0.087
      -0.088
      -0.315
      -0.511
      -0.593
      -0.519
      -0.314
      -0.047
       0.202
       0.378
       0.457
       0.436
       0.322
       0.133
      -0.097
      -0.322
      -0.497
      -0.594
      -0.608
      -0.542
      -0.398
      -0.179
       0.091
       0.361
       0.560
       0.631
       0.558
       0.374
       0.143
      -0.065
      -0.200
      -0.231
      -0.166
      -0.047
       0.060
       0.101
       0.064
      -0.018
      -0.089
      -0.115
      -0.098
      -0.064
      -0.042
      -0.039
      -0.051
      -0.074
      -0.106
      -0.138
      -0.142
      -0.081
       0.059
       0.244
       0.399
       0.454
       0.392
       0.261
       0.135
       0.065
       0.049
       0.052
       0.045
       0.025
       0.010
       0.009
       0.010
      -0.006
      -0.038
      -0.060
      -0.040
       0.025
       0.097
       0.123
       0.070
      -0.052
      -0.198
      -0.316
      -0.369
      -0.350
      -0.275
      -0.172
      -0.069
       0.008
       0.052
       0.071
       0.092
       0.143
       0.224
       0.303
       0.333
       0.286
       0.174
       0.037
      -0.080
      -0.144
      -0.137
      -0.054
       0.087
       0.233
       0.314
       0.284
       0.155
      -0.009
      -0.138
      -0.205
      -0.229
      -0.246
      -0.264
      -0.255
      -0.185
      -0.058
       0.083
       0.188
       0.240
