Origin Time       23/08/2012 16:30:19
Lat.              28.4 N	
Long.             82.7 E	
Depth (Km)         10.0
Magnitude         5.0
 Region           NEPAL                                                            
 Above details taken from IMD 
   
Station Code      UDH
Station Lat.       28.997
Station Long.      79.403
Station Height(m)  213.0
Site Class        C   Vs30 between 200 m/sec to 375 m/sec *  
Record Time       23.08.2012 16:31:29.694
Sampling Rate     200. Hz
 Record Duration   80.030 Sec.
 Direction         Vert. (Up positive)
Max. Acceleration     -0.719 cm/sec**2
     
  * For reference see Site Classification link of website 
     
 Base Line Corrected and Low Pass Filtered (Cut Off at 35 Hz) Time History
 Acceleration data in cm/sec**2
    
[...]
      -0.139
      -0.123
      -0.102
      -0.081
      -0.061
      -0.040
      -0.020
      -0.009
      -0.010
      -0.019
      -0.027
      -0.024
      -0.010
       0.014
       0.046
       0.085
       0.131
       0.172
       0.196
       0.194
       0.167
       0.122
       0.068
       0.014
      -0.031
      -0.054
      -0.050
      -0.024
       0.014
       0.050
       0.079
       0.098
       0.103
       0.087
       0.051
       0.007
      -0.031
      -0.056
      -0.075
      -0.093
      -0.105
      -0.101
      -0.073
      -0.027
       0.023
       0.060
       0.080
       0.087
       0.086
       0.083
       0.080
       0.079
       0.083
       0.094
       0.104
       0.100
       0.075
       0.027
      -0.035
      -0.101
      -0.166
      -0.222
      -0.259
      -0.268
      -0.247
      -0.203
      -0.146
      -0.083
      -0.015
       0.055
       0.116
       0.159
       0.177
       0.168
       0.132
       0.074
       0.001
      -0.077
      -0.149
      -0.203
      -0.230
      -0.222
      -0.180
      -0.113
      -0.035
       0.042
       0.108
       0.152
       0.164
       0.143
       0.098
       0.044
      -0.006
      -0.049
      -0.086
      -0.116
      -0.137
      -0.146
      -0.144
      -0.135
      -0.126
      -0.125
      -0.135
      -0.147
      -0.147
      -0.123
      -0.073
       0.000
       0.082
       0.160
       0.221
       0.254
       0.258
       0.234
       0.190
       0.137
       0.088
       0.051
       0.036
       0.045
       0.078
       0.128
       0.178
       0.213
       0.218
       0.185
       0.115
       0.024
      -0.067
      -0.137
      -0.173
      -0.179
      -0.160
      -0.124
      -0.079
      -0.034
      -0.003
       0.005
      -0.009
      -0.036
      -0.058
      -0.063
      -0.047
      -0.019
       0.011
       0.032
       0.039
       0.029
       0.004
      -0.029
      -0.062
      -0.085
      -0.089
      -0.071
      -0.032
       0.018
       0.069
       0.108
       0.127
       0.123
       0.099
       0.059
       0.008
      -0.055
      -0.128
      -0.204
      -0.265
      -0.295
      -0.287
      -0.249
      -0.190
      -0.118
      -0.038
       0.042
       0.118
       0.183
       0.232
       0.259
       0.256
       0.220
       0.160
       0.092
       0.033
      -0.009
      -0.036
      -0.058
      -0.081
      -0.106
      -0.128
      -0.144
      -0.154
      -0.155
      -0.142
      -0.117
      -0.088
      -0.064
      -0.047
      -0.034
      -0.023
      -0.020
      -0.036
      -0.076
      -0.130
      -0.183
      -0.218
      -0.230
      -0.215
      -0.175
      -0.107
      -0.010
       0.103
       0.212
       0.298
       0.352
       0.376
       0.372
       0.347
       0.307
       0.264
       0.230
       0.204
       0.178
       0.144
       0.101
       0.058
       0.024
       0.003
      -0.005
      -0.003
       0.006
       0.016
       0.019
       0.005
      -0.033
      -0.095
      -0.168
      -0.233
      -0.276
      -0.294
      -0.293
      -0.279
      -0.257
      -0.229
      -0.195
      -0.157
      -0.114
      -0.065
      -0.008
       0.056
       0.128
       0.202
       0.272
       0.333
       0.378
       0.398
       0.389
       0.352
       0.300
       0.245
       0.193
       0.140
       0.079
       0.015
      -0.044
      -0.094
      -0.134
      -0.167
      -0.191
      -0.207
      -0.215
      -0.218
      -0.217
      -0.209
      -0.188
      -0.150
      -0.095
      -0.031
       0.034
       0.092
       0.137
       0.171
       0.191
       0.191
       0.171
       0.131
       0.079
       0.024
      -0.030
      -0.078
      -0.120
      -0.158
      -0.189
      -0.204
      -0.198
      -0.173
      -0.147
      -0.135
      -0.135
      -0.135
      -0.127
      -0.115
      -0.109
      -0.108
      -0.104
      -0.084
      -0.047
      -0.004
       0.031
       0.050
       0.053
       0.047
       0.039
       0.037
       0.042
       0.052
       0.065
       0.076
       0.083
       0.085
       0.083
       0.078
       0.073
       0.069
       0.065
       0.064
       0.066
       0.070
       0.078
       0.087
       0.101
       0.122
       0.153
       0.194
       0.238
       0.270
       0.273
       0.237
       0.161
       0.059
      -0.050
      -0.147
      -0.219
      -0.257
      -0.264
      -0.246
      -0.216
      -0.185
      -0.159
      -0.136
      -0.119
      -0.107
      -0.099
      -0.088
      -0.068
      -0.034
       0.012
       0.064
       0.115
       0.163
       0.207
       0.247
       0.280
       0.301
       0.305
       0.289
       0.248
       0.183
       0.098
       0.009
      -0.072
      -0.140
      -0.198
      -0.244
      -0.268
      -0.260
      -0.218
      -0.155
      -0.085
      -0.016
       0.053
       0.119
       0.174
       0.208
       0.220
       0.211
       0.189
       0.161
       0.137
       0.126
       0.135
       0.163
       0.202
       0.237
       0.252
       0.240
       0.205
       0.157
       0.106
       0.053
      -0.005
      -0.066
      -0.122
      -0.164
      -0.192
      -0.214
      -0.232
      -0.243
      -0.240
      -0.219
      -0.180
      -0.132
      -0.080
      -0.027
       0.021
       0.061
       0.087
       0.096
       0.096
       0.094
       0.096
       0.100
       0.095
       0.075
       0.041
       0.000
      -0.041
      -0.079
      -0.111
      -0.136
      -0.147
      -0.143
      -0.124
      -0.098
      -0.077
      -0.069
      -0.073
      -0.085
      -0.104
      -0.130
      -0.166
      -0.206
      -0.238
      -0.253
      -0.245
      -0.211
      -0.152
      -0.070
       0.027
       0.133
       0.239
       0.334
       0.403
       0.436
       0.430
       0.394
       0.341
       0.278
       0.208
       0.131
       0.053
      -0.021
      -0.084
      -0.133
      -0.167
      -0.181
      -0.174
      -0.144
      -0.100
      -0.053
      -0.016
       0.008
       0.020
       0.024
       0.022
       0.012
      -0.003
      -0.012
      -0.007
       0.013
       0.042
       0.074
       0.107
       0.140
       0.170
       0.194
       0.211
       0.224
       0.229
       0.221
       0.188
       0.128
       0.048
      -0.039
      -0.118
      -0.183
      -0.236
      -0.276
      -0.294
      -0.286
      -0.255
      -0.217
      -0.184
      -0.156
      -0.128
      -0.098
      -0.071
      -0.053
      -0.041
      -0.028
      -0.007
       0.026
       0.071
       0.131
       0.201
       0.268
       0.315
       0.330
       0.311
       0.266
       0.205
       0.135
       0.061
      -0.009
      -0.067
      -0.109
      -0.139
      -0.165
      -0.194
      -0.223
      -0.248
      -0.270
      -0.293
      -0.311
      -0.307
      -0.263
      -0.181
      -0.080
       0.016
       0.093
       0.152
       0.197
       0.224
       0.228
       0.206
       0.170
       0.140
       0.129
       0.136
       0.147
       0.142
       0.112
       0.060
      -0.008
      -0.084
      -0.165
      -0.240
      -0.296
      -0.316
      -0.296
      -0.241
      -0.163
      -0.077
       0.005
       0.076
       0.132
       0.173
       0.207
       0.244
       0.289
       0.342
       0.393
       0.426
       0.433
       0.409
       0.358
       0.289
       0.210
       0.130
       0.055
      -0.013
      -0.071
      -0.117
      -0.152
      -0.177
      -0.197
      -0.220
      -0.248
      -0.281
      -0.310
      -0.330
      -0.341
      -0.351
      -0.361
      -0.366
      -0.354
      -0.316
      -0.253
      -0.173
      -0.092
      -0.020
       0.041
       0.095
       0.147
       0.201
       0.260
       0.321
       0.378
       0.421
       0.440
       0.431
       0.400
       0.360
       0.320
       0.280
       0.235
       0.179
       0.114
       0.044
      -0.026
      -0.093
      -0.149
      -0.186
      -0.206
      -0.216
      -0.226
      -0.243
      -0.260
      -0.270
      -0.265
      -0.241
      -0.200
      -0.139
      -0.058
       0.034
       0.122
       0.192
       0.235
       0.253
       0.248
       0.223
       0.186
       0.150
       0.129
       0.121
       0.118
       0.107
       0.079
       0.034
      -0.025
      -0.090
      -0.154
      -0.213
      -0.265
      -0.315
      -0.359
      -0.388
      -0.389
      -0.362
      -0.318
      -0.271
      -0.226
      -0.174
      -0.103
      -0.012
       0.085
       0.170
       0.238
       0.294
       0.344
       0.383
       0.402
       0.403
       0.391
       0.371
       0.340
       0.290
       0.220
       0.138
       0.052
      -0.037
      -0.130
      -0.217
      -0.284
      -0.320
      -0.330
      -0.337
      -0.357
      -0.387
      -0.408
      -0.402
      -0.373
      -0.335
      -0.302
      -0.268
      -0.218
      -0.150
      -0.071
       0.003
       0.068
       0.132
       0.199
       0.260
       0.303
       0.326
       0.335
       0.343
       0.350
       0.348
       0.330
       0.292
       0.239
       0.174
       0.100
       0.020
      -0.062
      -0.135
      -0.191
      -0.230
      -0.253
      -0.263
      -0.262
      -0.248
      -0.222
      -0.185
      -0.135
      -0.071
       0.009
       0.098
       0.186
       0.259
       0.313
       0.349
       0.371
       0.376
       0.363
       0.331
       0.286
       0.230
       0.166
       0.094
       0.021
      -0.043
      -0.095
      -0.137
      -0.174
      -0.208
      -0.235
      -0.253
      -0.262
      -0.266
      -0.265
      -0.259
      -0.245
      -0.225
      -0.201
      -0.177
      -0.157
      -0.138
      -0.112
      -0.069
      -0.008
       0.064
       0.138
       0.209
       0.281
       0.355
       0.424
       0.471
       0.481
       0.446
       0.370
       0.268
       0.151
       0.030
      -0.087
      -0.193
      -0.278
      -0.340
      -0.377
      -0.391
      -0.381
      -0.351
      -0.307
      -0.260
      -0.219
      -0.184
      -0.151
      -0.115
      -0.072
      -0.021
       0.032
       0.083
       0.126
       0.156
       0.172
       0.170
       0.148
       0.103
       0.044
      -0.015
      -0.063
      -0.097
      -0.122
      -0.142
      -0.153
      -0.156
      -0.156
      -0.165
      -0.181
      -0.189
      -0.169
      -0.115
      -0.040
       0.036
       0.098
       0.148
       0.191
       0.230
       0.263
       0.294
       0.329
       0.374
       0.420
       0.452
       0.457
       0.434
       0.393
       0.342
       0.280
       0.204
       0.115
       0.021
      -0.066
      -0.135
      -0.184
      -0.211
      -0.221
      -0.215
      -0.198
      -0.174
      -0.150
      -0.134
      -0.127
      -0.126
      -0.125
      -0.120
      -0.110
      -0.094
      -0.069
      -0.038
      -0.009
       0.006
       0.001
      -0.017
      -0.036
      -0.050
      -0.056
      -0.058
      -0.055
      -0.046
      -0.032
      -0.021
      -0.014
      -0.011
      -0.007
       0.000
       0.009
       0.017
       0.032
       0.067
       0.126
       0.197
       0.255
       0.281
       0.272
       0.235
       0.175
       0.091
      -0.011
      -0.117
      -0.205
      -0.261
      -0.285
      -0.283
      -0.258
      -0.208
      -0.137
      -0.064
      -0.012
       0.008
       0.003
      -0.009
      -0.017
      -0.017
      -0.007
       0.017
       0.060
       0.122
       0.191
       0.244
       0.268
       0.259
       0.227
       0.183
       0.135
       0.087
       0.045
       0.019
       0.013
       0.025
       0.046
       0.067
       0.082
       0.089
       0.088
       0.079
       0.062
       0.040
       0.020
       0.008
      -0.001
      -0.013
      -0.031
      -0.056
      -0.084
      -0.112
      -0.147
      -0.190
      -0.235
      -0.271
      -0.288
      -0.284
      -0.262
      -0.222
      -0.158
      -0.074
       0.018
       0.095
       0.148
       0.177
       0.191
       0.190
       0.170
       0.129
       0.077
       0.030
      -0.004
      -0.032
      -0.064
      -0.101
      -0.134
      -0.156
      -0.167
      -0.171
      -0.165
      -0.140
      -0.094
      -0.035
       0.027
       0.086
       0.143
       0.196
       0.235
       0.249
       0.238
       0.211
       0.180
       0.149
       0.111
       0.062
       0.005
      -0.051
      -0.098
      -0.135
      -0.163
      -0.183
      -0.197
      -0.209
      -0.227
      -0.251
      -0.274
      -0.283
      -0.267
      -0.225
      -0.166
      -0.103
      -0.039
       0.025
       0.087
       0.144
       0.183
       0.202
       0.204
       0.200
       0.197
       0.191
       0.172
       0.133
       0.078
       0.023
      -0.020
      -0.048
      -0.072
      -0.101
      -0.139
      -0.178
      -0.210
      -0.226
      -0.222
      -0.186
      -0.113
      -0.004
       0.123
       0.247
       0.344
       0.399
       0.408
       0.383
       0.345
       0.311
       0.290
       0.283
       0.285
       0.289
       0.283
       0.248
       0.171
       0.050
      -0.098
      -0.253
      -0.397
      -0.521
      -0.621
      -0.690
      -0.719
      -0.700
      -0.633
      -0.529
      -0.404
      -0.277
      -0.156
      -0.044
       0.060
       0.153
       0.227
       0.279
       0.311
       0.328
       0.329
       0.314
       0.281
       0.232
       0.177
       0.130
       0.106
       0.110
       0.136
       0.173
       0.214
       0.252
       0.276
       0.273
       0.237
       0.176
       0.106
       0.042
      -0.009
      -0.046
      -0.067
      -0.070
      -0.055
      -0.033
      -0.019
      -0.024
      -0.047
      -0.073
      -0.087
      -0.084
      -0.069
      -0.053
      -0.045
      -0.055
      -0.093
      -0.164
      -0.262
      -0.366
      -0.454
      -0.507
      -0.516
      -0.479
      -0.400
      -0.291
      -0.170
      -0.054
       0.045
       0.120
       0.169
       0.197
       0.215
       0.235
       0.263
       0.297
       0.329
       0.357
       0.373
       0.372
       0.345
       0.289
       0.203
       0.096
      -0.021
      -0.134
      -0.230
      -0.300
      -0.339
      -0.350
      -0.337
      -0.309
      -0.275
      -0.245
      -0.225
      -0.215
      -0.210
      -0.201
      -0.180
      -0.142
      -0.089
      -0.025
       0.042
       0.107
       0.164
       0.212
       0.248
       0.271
       0.280
       0.275
       0.259
       0.238
       0.217
       0.196
       0.171
       0.140
       0.103
       0.064
       0.024
      -0.019
      -0.063
      -0.098
      -0.116
      -0.113
      -0.098
      -0.078
      -0.050
      -0.005
       0.057
       0.124
       0.176
       0.200
       0.203
       0.192
       0.175
       0.145
       0.094
       0.022
      -0.062
      -0.149
      -0.234
      -0.317
      -0.396
      -0.461
      -0.508
      -0.529
      -0.523
      -0.486
      -0.419
      -0.332
      -0.236
      -0.138
      -0.042
       0.049
       0.126
       0.182
       0.214
       0.225
       0.217
       0.196
       0.170
       0.149
       0.136
       0.127
       0.120
       0.116
       0.119
       0.128
       0.131
       0.116
       0.082
       0.042
       0.008
      -0.014
      -0.030
      -0.043
      -0.056
      -0.064
      -0.067
      -0.066
      -0.061
      -0.042
       0.001
       0.070
       0.151
       0.223
       0.274
       0.303
       0.312
       0.292
       0.241
       0.166
       0.082
       0.006
      -0.058
      -0.108
      -0.146
      -0.174
      -0.198
      -0.219
      -0.239
      -0.254
      -0.261
      -0.262
      -0.261
      -0.257
      -0.242
      -0.207
      -0.148
      -0.073
       0.007
       0.079
       0.133
       0.166
       0.175
       0.163
       0.145
       0.134
       0.141
       0.160
       0.174
       0.174
       0.157
       0.131
       0.097
       0.053
       0.001
      -0.050
      -0.087
      -0.104
      -0.102
      -0.088
      -0.067
      -0.045
      -0.029
      -0.018
      -0.009
       0.008
       0.042
       0.094
       0.155
       0.209
       0.240
       0.236
       0.193
       0.111
      -0.002
      -0.130
      -0.251
      -0.349
      -0.413
      -0.440
      -0.433
      -0.393
      -0.331
      -0.257
      -0.183
      -0.113
      -0.047
       0.013
       0.062
       0.095
       0.115
       0.132
       0.156
       0.186
       0.211
       0.222
       0.218
       0.202
       0.175
       0.128
       0.059
      -0.024
      -0.102
      -0.158
      -0.185
      -0.185
      -0.162
      -0.120
      -0.063
       0.003
       0.072
       0.142
       0.214
       0.282
       0.338
       0.374
       0.390
       0.387
       0.365
       0.318
       0.251
       0.177
       0.111
       0.062
       0.021
      -0.025
      -0.083
      -0.153
      -0.229
      -0.305
      -0.378
      -0.438
      -0.475
      -0.480
      -0.452
      -0.404
      -0.348
      -0.294
      -0.248
      -0.211
      -0.187
      -0.178
      -0.181
      -0.181
      -0.161
      -0.119
      -0.065
      -0.017
       0.017
       0.045
       0.071
       0.095
       0.106
       0.098
       0.072
       0.036
      -0.005
      -0.045
      -0.081
      -0.105
      -0.110
      -0.097
      -0.072
      -0.046
      -0.021
       0.007
       0.039
       0.072
       0.098
       0.114
       0.124
       0.138
       0.159
       0.181
       0.194
       0.195
       0.184
       0.167
       0.148
       0.133
       0.126
       0.124
       0.119
       0.102
       0.071
       0.033
      -0.003
      -0.029
      -0.044
      -0.051
      -0.053
      -0.052
      -0.055
      -0.067
      -0.097
      -0.143
      -0.199
      -0.250
      -0.286
      -0.300
      -0.289
      -0.255
      -0.202
      -0.135
      -0.059
       0.022
       0.104
       0.179
       0.234
       0.261
       0.258
       0.234
       0.208
       0.190
       0.187
       0.193
       0.198
       0.192
       0.170
       0.132
       0.079
       0.013
      -0.065
      -0.152
      -0.239
      -0.314
      -0.368
      -0.393
      -0.388
      -0.361
      -0.325
      -0.286
      -0.246
      -0.204
      -0.161
      -0.122
      -0.088
      -0.051
      -0.001
       0.067
       0.147
       0.224
       0.282
       0.309
       0.301
       0.257
       0.186
       0.099
       0.009
      -0.077
      -0.151
      -0.204
      -0.232
      -0.233
      -0.215
      -0.192
      -0.175
      -0.167
      -0.161
      -0.145
      -0.109
      -0.053
       0.014
       0.083
       0.149
       0.215
       0.277
       0.328
       0.359
       0.362
       0.339
       0.298
       0.249
       0.201
       0.157
       0.118
       0.082
       0.046
       0.001
      -0.059
