Origin Time       04/04/2011 11:31:40 UTC
Lat.              29.6 N	
Long.             80.8 E	
Depth (Km)         10.0
Magnitude         5.7
 Region           NEPAL-INDIA-BORDER-REGION                                        
 Above details taken from IMD 
    
Station Code      UDH
Station Lat.       28.997  N
Station Long.      79.403  E
Station Height(m)  213.0
Site Class        C   Vs30 between 200 m/sec to 375 m/sec *  
Record Time       04.04.2011 11:31:39.714 UTC
Sampling Rate     200. Hz
 Record Duration  146.170 Sec.
 Direction         N-S (N positive)
Max. Acceleration     -8.253 cm/sec**2
     
  * For reference see Site Classification link of website 
     
 Base Line Corrected and Low Pass Filtered (Cut Off at 35 Hz) Time History
 Acceleration data in cm/sec**2
    
[...]
      -0.025
      -0.054
      -0.084
      -0.122
      -0.169
      -0.221
      -0.270
      -0.312
      -0.350
      -0.394
      -0.455
      -0.540
      -0.641
      -0.737
      -0.805
      -0.830
      -0.816
      -0.770
      -0.700
      -0.608
      -0.500
      -0.388
      -0.289
      -0.213
      -0.164
      -0.130
      -0.102
      -0.068
      -0.020
       0.046
       0.129
       0.220
       0.300
       0.351
       0.357
       0.315
       0.243
       0.164
       0.092
       0.029
      -0.027
      -0.075
      -0.104
      -0.104
      -0.067
       0.003
       0.090
       0.177
       0.255
       0.322
       0.372
       0.396
       0.385
       0.336
       0.256
       0.156
       0.050
      -0.043
      -0.109
      -0.141
      -0.145
      -0.134
      -0.128
      -0.142
      -0.185
      -0.250
      -0.324
      -0.392
      -0.442
      -0.465
      -0.461
      -0.434
      -0.391
      -0.340
      -0.290
      -0.241
      -0.186
      -0.112
      -0.011
       0.108
       0.232
       0.347
       0.440
       0.498
       0.514
       0.486
       0.422
       0.336
       0.247
       0.167
       0.105
       0.063
       0.043
       0.045
       0.064
       0.089
       0.102
       0.088
       0.041
      -0.037
      -0.129
      -0.216
      -0.278
      -0.306
      -0.298
      -0.260
      -0.197
      -0.114
      -0.011
       0.104
       0.209
       0.281
       0.304
       0.281
       0.225
       0.154
       0.081
       0.012
      -0.053
      -0.112
      -0.157
      -0.177
      -0.170
      -0.143
      -0.111
      -0.087
      -0.077
      -0.078
      -0.079
      -0.067
      -0.035
       0.018
       0.093
       0.188
       0.297
       0.407
       0.505
       0.582
       0.632
       0.655
       0.655
       0.638
       0.609
       0.564
       0.499
       0.413
       0.306
       0.179
       0.039
      -0.108
      -0.254
      -0.394
      -0.521
      -0.628
      -0.712
      -0.769
      -0.801
      -0.803
      -0.774
      -0.711
      -0.613
      -0.484
      -0.328
      -0.150
       0.042
       0.238
       0.423
       0.580
       0.693
       0.762
       0.789
       0.782
       0.751
       0.696
       0.617
       0.515
       0.397
       0.274
       0.155
       0.040
      -0.072
      -0.183
      -0.287
      -0.374
      -0.426
      -0.433
      -0.400
      -0.342
      -0.276
      -0.218
      -0.178
      -0.156
      -0.144
      -0.128
      -0.092
      -0.028
       0.071
       0.205
       0.368
       0.546
       0.721
       0.868
       0.960
       0.977
       0.920
       0.807
       0.660
       0.502
       0.352
       0.226
       0.134
       0.070
       0.022
      -0.023
      -0.074
      -0.131
      -0.185
      -0.226
      -0.249
      -0.261
      -0.264
      -0.256
      -0.231
      -0.188
      -0.127
      -0.060
      -0.005
       0.023
       0.019
      -0.008
      -0.038
      -0.057
      -0.061
      -0.059
      -0.071
      -0.116
      -0.201
      -0.319
      -0.450
      -0.576
      -0.682
      -0.765
      -0.830
      -0.884
      -0.924
      -0.940
      -0.920
      -0.864
      -0.784
      -0.692
      -0.595
      -0.491
      -0.378
      -0.258
      -0.139
      -0.019
       0.108
       0.245
       0.385
       0.505
       0.591
       0.636
       0.645
       0.626
       0.586
       0.530
       0.465
       0.397
       0.340
       0.306
       0.294
       0.290
       0.278
       0.246
       0.200
       0.155
       0.135
       0.155
       0.208
       0.274
       0.328
       0.351
       0.331
       0.272
       0.191
       0.106
       0.024
      -0.057
      -0.144
      -0.233
      -0.311
      -0.360
      -0.366
      -0.328
      -0.255
      -0.169
      -0.091
      -0.036
      -0.009
      -0.002
      -0.001
       0.011
       0.047
       0.109
       0.188
       0.265
       0.319
       0.335
       0.312
       0.261
       0.194
       0.121
       0.045
      -0.027
      -0.090
      -0.134
      -0.146
      -0.122
      -0.066
       0.004
       0.069
       0.119
       0.149
       0.165
       0.173
       0.179
       0.185
       0.193
       0.200
       0.204
       0.197
       0.176
       0.142
       0.098
       0.046
      -0.012
      -0.076
      -0.148
      -0.232
      -0.327
      -0.422
      -0.505
      -0.568
      -0.617
      -0.663
      -0.713
      -0.767
      -0.818
      -0.855
      -0.870
      -0.859
      -0.823
      -0.767
      -0.702
      -0.638
      -0.581
      -0.521
      -0.445
      -0.345
      -0.229
      -0.112
      -0.005
       0.087
       0.163
       0.226
       0.278
       0.318
       0.347
       0.364
       0.374
       0.376
       0.373
       0.368
       0.360
       0.345
       0.321
       0.290
       0.261
       0.236
       0.220
       0.219
       0.242
       0.291
       0.358
       0.428
       0.485
       0.517
       0.517
       0.487
       0.439
       0.396
       0.379
       0.399
       0.445
       0.496
       0.534
       0.557
       0.567
       0.567
       0.553
       0.523
       0.481
       0.434
       0.384
       0.324
       0.242
       0.127
      -0.017
      -0.170
      -0.308
      -0.412
      -0.468
      -0.476
      -0.446
      -0.406
      -0.379
      -0.376
      -0.389
      -0.407
      -0.418
      -0.421
      -0.419
      -0.420
      -0.431
      -0.447
      -0.460
      -0.465
      -0.458
      -0.444
      -0.428
      -0.416
      -0.412
      -0.415
      -0.423
      -0.440
      -0.467
      -0.501
      -0.536
      -0.571
      -0.608
      -0.650
      -0.690
      -0.713
      -0.699
      -0.637
      -0.532
      -0.402
      -0.271
      -0.159
      -0.077
      -0.028
      -0.013
      -0.018
      -0.024
      -0.010
       0.033
       0.094
       0.152
       0.179
       0.157
       0.089
      -0.003
      -0.085
      -0.129
      -0.126
      -0.085
      -0.028
       0.026
       0.065
       0.081
       0.072
       0.041
      -0.002
      -0.044
      -0.079
      -0.102
      -0.112
      -0.104
      -0.077
      -0.035
       0.021
       0.081
       0.130
       0.152
       0.133
       0.071
      -0.027
      -0.141
      -0.248
      -0.332
      -0.390
      -0.425
      -0.442
      -0.443
      -0.430
      -0.399
      -0.340
      -0.241
      -0.104
       0.060
       0.230
       0.388
       0.516
       0.608
       0.670
       0.720
       0.778
       0.857
       0.955
       1.050
       1.111
       1.113
       1.054
       0.953
       0.832
       0.708
       0.589
       0.472
       0.349
       0.212
       0.068
      -0.068
      -0.173
      -0.226
      -0.222
      -0.170
      -0.093
      -0.020
       0.031
       0.047
       0.028
      -0.021
      -0.084
      -0.144
      -0.195
      -0.243
      -0.298
      -0.368
      -0.450
      -0.533
      -0.610
      -0.684
      -0.758
      -0.834
      -0.901
      -0.943
      -0.945
      -0.903
      -0.817
      -0.696
      -0.546
      -0.367
      -0.157
       0.075
       0.309
       0.516
       0.676
       0.784
       0.854
       0.907
       0.961
       1.022
       1.077
       1.115
       1.133
       1.132
       1.113
       1.070
       0.996
       0.891
       0.763
       0.628
       0.501
       0.389
       0.290
       0.202
       0.132
       0.088
       0.070
       0.067
       0.067
       0.057
       0.036
       0.008
      -0.012
      -0.007
       0.037
       0.121
       0.238
       0.370
       0.507
       0.643
       0.780
       0.920
       1.058
       1.188
       1.303
       1.397
       1.468
       1.523
       1.573
       1.632
       1.704
       1.781
       1.852
       1.901
       1.922
       1.916
       1.892
       1.866
       1.851
       1.850
       1.852
       1.840
       1.798
       1.725
       1.627
       1.516
       1.393
       1.255
       1.098
       0.927
       0.757
       0.609
       0.504
       0.452
       0.447
       0.475
       0.515
       0.551
       0.566
       0.553
       0.511
       0.449
       0.376
       0.303
       0.238
       0.181
       0.129
       0.081
       0.049
       0.049
       0.081
       0.135
       0.190
       0.233
       0.256
       0.260
       0.251
       0.235
       0.215
       0.193
       0.174
       0.163
       0.156
       0.140
       0.106
       0.047
      -0.033
      -0.132
      -0.249
      -0.393
      -0.571
      -0.781
      -1.002
      -1.202
      -1.356
      -1.457
      -1.512
      -1.541
      -1.564
      -1.599
      -1.656
      -1.729
      -1.800
      -1.844
      -1.842
      -1.801
      -1.739
      -1.679
      -1.629
      -1.594
      -1.576
      -1.578
      -1.602
      -1.641
      -1.679
      -1.693
      -1.656
      -1.552
      -1.383
      -1.171
      -0.946
      -0.728
      -0.520
      -0.310
      -0.083
       0.167
       0.432
       0.696
       0.950
       1.191
       1.425
       1.655
       1.873
       2.055
       2.163
       2.164
       2.041
       1.797
       1.444
       0.999
       0.482
      -0.090
      -0.711
      -1.377
      -2.087
      -2.833
      -3.598
      -4.351
      -5.053
      -5.676
      -6.207
      -6.652
      -7.022
      -7.319
      -7.533
      -7.637
      -7.605
      -7.419
      -7.083
      -6.614
      -6.039
      -5.391
      -4.714
      -4.048
      -3.427
      -2.871
      -2.386
      -1.964
      -1.592
      -1.250
      -0.915
      -0.572
      -0.220
       0.127
       0.440
       0.695
       0.881
       1.001
       1.071
       1.114
       1.156
       1.221
       1.327
       1.484
       1.687
       1.920
       2.156
       2.368
       2.539
       2.660
       2.733
       2.765
       2.767
       2.742
       2.688
       2.593
       2.440
       2.207
       1.880
       1.469
       1.006
       0.538
       0.111
      -0.239
      -0.489
      -0.626
      -0.648
      -0.555
      -0.358
      -0.083
       0.226
       0.517
       0.739
       0.851
       0.828
       0.667
       0.390
       0.037
      -0.342
      -0.699
      -0.998
      -1.219
      -1.357
      -1.414
      -1.393
      -1.305
      -1.175
      -1.042
      -0.943
      -0.904
      -0.926
      -0.993
      -1.083
      -1.183
      -1.290
      -1.397
      -1.485
      -1.523
      -1.484
      -1.355
      -1.147
      -0.894
      -0.640
      -0.422
      -0.250
      -0.123
      -0.031
       0.024
       0.038
       0.015
      -0.029
      -0.064
      -0.057
       0.016
       0.159
       0.359
       0.591
       0.823
       1.035
       1.221
       1.383
       1.524
       1.634
       1.702
       1.731
       1.735
       1.731
       1.736
       1.757
       1.799
       1.856
       1.908
       1.921
       1.857
       1.700
       1.461
       1.183
       0.913
       0.686
       0.526
       0.440
       0.420
       0.449
       0.500
       0.542
       0.541
       0.466
       0.292
       0.005
      -0.403
      -0.919
      -1.509
      -2.118
      -2.689
      -3.178
      -3.553
      -3.797
      -3.900
      -3.866
      -3.702
      -3.419
      -3.029
      -2.539
      -1.947
      -1.250
      -0.451
       0.425
       1.335
       2.224
       3.039
       3.739
       4.294
       4.687
       4.914
       4.980
       4.895
       4.669
       4.311
       3.834
       3.269
       2.659
       2.045
       1.454
       0.896
       0.374
      -0.108
      -0.528
      -0.851
      -1.034
      -1.050
      -0.891
      -0.563
      -0.088
       0.508
       1.180
       1.874
       2.530
       3.099
       3.546
       3.846
       3.980
       3.922
       3.662
       3.215
       2.629
       1.957
       1.234
       0.474
      -0.320
      -1.138
      -1.949
      -2.711
      -3.376
      -3.912
      -4.306
      -4.572
      -4.738
      -4.851
      -4.951
      -5.061
      -5.171
      -5.252
      -5.273
      -5.215
      -5.075
      -4.853
      -4.539
      -4.106
      -3.530
      -2.818
      -2.023
      -1.231
      -0.530
       0.025
       0.430
       0.726
       0.960
       1.160
       1.321
       1.425
       1.478
       1.516
       1.597
       1.776
       2.070
       2.453
       2.866
       3.243
       3.542
       3.747
       3.867
       3.921
       3.929
       3.901
       3.839
       3.742
       3.622
       3.507
       3.428
       3.409
       3.451
       3.531
       3.604
       3.620
       3.538
       3.340
       3.046
       2.701
       2.360
       2.060
       1.812
       1.607
       1.433
       1.282
       1.149
       1.035
       0.934
       0.836
       0.730
       0.613
       0.492
       0.384
       0.305
       0.271
       0.282
       0.331
       0.404
       0.504
       0.641
       0.822
       1.039
       1.279
       1.535
       1.807
       2.100
       2.417
       2.753
       3.098
       3.424
       3.692
       3.853
       3.866
       3.711
       3.395
       2.938
       2.358
       1.657
       0.845
      -0.056
      -1.009
      -1.977
      -2.923
      -3.814
      -4.630
      -5.362
      -6.013
      -6.592
      -7.108
      -7.561
      -7.934
      -8.185
      -8.253
      -8.075
      -7.616
      -6.882
      -5.923
      -4.812
      -3.617
      -2.382
      -1.122
       0.157
       1.450
       2.730
       3.951
       5.046
       5.946
       6.605
       7.013
       7.202
       7.234
       7.180
       7.094
       6.988
       6.828
       6.552
       6.099
       5.437
       4.580
       3.562
       2.427
       1.212
      -0.043
      -1.294
      -2.486
      -3.570
      -4.498
      -5.235
      -5.761
      -6.074
      -6.197
      -6.172
      -6.051
      -5.874
      -5.659
      -5.408
      -5.120
      -4.794
      -4.422
      -3.995
      -3.522
      -3.033
      -2.573
      -2.193
      -1.934
      -1.819
      -1.848
      -2.003
      -2.267
      -2.645
      -3.150
      -3.777
      -4.474
      -5.143
      -5.671
      -5.965
      -5.979
      -5.705
      -5.153
      -4.339
      -3.293
      -2.075
      -0.772
       0.516
       1.697
       2.711
       3.531
       4.163
       4.626
       4.952
       5.187
       5.391
       5.624
       5.921
       6.279
       6.661
       7.013
       7.280
       7.425
       7.436
       7.329
       7.134
       6.879
       6.575
       6.211
       5.773
       5.255
       4.670
       4.040
       3.397
       2.764
       2.153
       1.567
       1.009
       0.491
       0.035
      -0.344
      -0.635
      -0.836
      -0.940
      -0.936
      -0.812
      -0.576
      -0.274
       0.013
       0.204
       0.250
       0.151
      -0.067
      -0.366
      -0.707
      -1.044
      -1.332
      -1.542
      -1.674
      -1.760
      -1.841
      -1.949
      -2.087
      -2.248
      -2.431
      -2.654
      -2.943
      -3.310
      -3.753
      -4.251
      -4.766
      -5.247
      -5.642
      -5.901
      -5.989
      -5.886
      -5.600
      -5.157
      -4.594
      -3.942
      -3.232
      -2.498
      -1.783
      -1.138
      -0.608
      -0.216
       0.045
       0.208
       0.321
       0.442
       0.632
       0.940
       1.378
       1.907
       2.445
       2.890
       3.159
       3.206
       3.043
       2.728
       2.339
       1.943
       1.574
       1.242
       0.954
       0.730
       0.603
       0.593
       0.683
       0.823
       0.947
       1.001
       0.963
       0.845
       0.694
       0.576
       0.552
       0.656
       0.889
       1.221
       1.598
       1.957
       2.245
       2.436
       2.536
       2.570
       2.568
       2.545
       2.499
       2.429
       2.349
       2.270
       2.176
       2.013
       1.721
       1.276
       0.709
       0.103
      -0.432
      -0.791
      -0.895
      -0.700
      -0.203
       0.551
       1.480
       2.465
       3.367
       4.043
       4.371
       4.279
       3.770
       2.913
       1.812
       0.571
      -0.725
      -2.017
      -3.262
      -4.420
      -5.453
      -6.326
      -7.019
      -7.533
      -7.875
      -8.050
      -8.053
      -7.880
      -7.536
      -7.038
      -6.413
      -5.689
      -4.891
      -4.044
      -3.181
      -2.337
      -1.538
      -0.809
      -0.164
       0.397
       0.899
       1.392
       1.928
       2.533
       3.178
       3.785
       4.250
       4.481
       4.425
       4.080
       3.474
       2.654
       1.686
       0.660
      -0.305
      -1.080
      -1.558
      -1.696
      -1.529
      -1.153
      -0.692
      -0.277
      -0.016
       0.021
      -0.176
      -0.562
      -1.044
      -1.511
      -1.866
      -2.050
      -2.059
      -1.929
      -1.710
      -1.432
      -1.109
      -0.763
      -0.437
      -0.198
      -0.102
      -0.162
      -0.342
      -0.572
      -0.780
      -0.905
      -0.899
      -0.732
      -0.401
       0.056
       0.570
       1.061
       1.459
       1.724
       1.852
       1.870
       1.823
       1.761
       1.724
       1.736
       1.804
       1.914
       2.037
       2.137
       2.182
       2.161
       2.091
       2.003
       1.932
       1.900
       1.922
       2.001
       2.117
       2.226
       2.274
       2.214
       2.025
       1.718
       1.323
       0.876
       0.411
      -0.038
      -0.435
      -0.753
      -0.979
      -1.115
      -1.168
      -1.146
      -1.061
      -0.933
      -0.790
      -0.666
      -0.590
      -0.576
      -0.620
      -0.707
      -0.831
      -0.998
      -1.215
      -1.481
      -1.775
      -2.052
      -2.252
      -2.332
      -2.283
      -2.132
      -1.909
      -1.641
      -1.341
      -1.015
      -0.666
      -0.299
       0.072
       0.425
       0.749
       1.040
       1.308
       1.560
       1.807
       2.058
       2.312
       2.554
       2.752
       2.865
       2.858
       2.720
       2.468
       2.137
       1.757
       1.347
       0.919
       0.486
       0.058
      -0.359
      -0.773
      -1.200
      -1.658
      -2.162
      -2.713
      -3.290
      -3.847
      -4.332
      -4.703
      -4.941
      -5.047
      -5.026
      -4.886
      -4.637
      -4.306
      -3.929
      -3.538
      -3.140
      -2.719
      -2.244
      -1.691
      -1.058
      -0.368
       0.339
       1.021
       1.629
       2.116
       2.445
       2.611
       2.640
       2.591
       2.528
       2.508
       2.564
       2.710
       2.940
       3.231
       3.538
       3.808
       3.995
       4.068
       4.003
       3.779
       3.386
       2.837
       2.165
       1.417
       0.649
      -0.082
      -0.724
      -1.249
      -1.654
      -1.956
      -2.184
      -2.368
      -2.532
      -2.684
      -2.820
      -2.928
      -3.001
      -3.030
      -3.007
      -2.911
      -2.721
      -2.428
      -2.055
      -1.652
      -1.283
      -0.995
      -0.810
