Origin Time       23/08/2012 16:30:19
Lat.              28.4 N	
Long.             82.7 E	
Depth (Km)         10.0
Magnitude         5.0
 Region           NEPAL                                                            
 Above details taken from IMD 
     
Station Code      UDH
Station Lat.       28.997  N
Station Long.      79.403  E
Station Height(m)  213.0
Site Class        C   Vs30 between 200 m/sec to 375 m/sec *  
Record Time       23.08.2012 16:31:29.694
Sampling Rate     200. Hz
 Record Duration   80.030 Sec.
 Direction         E-W (E positive)
Max. Acceleration     -1.411 cm/sec**2
     
  * For reference see Site Classification link of website 
     
 Base Line Corrected and Low Pass Filtered (Cut Off at 35 Hz) Time History
 Acceleration data in cm/sec**2
    
[...]
       0.197
       0.208
       0.214
       0.212
       0.199
       0.174
       0.142
       0.105
       0.070
       0.036
      -0.001
      -0.043
      -0.090
      -0.135
      -0.176
      -0.213
      -0.248
      -0.278
      -0.303
      -0.323
      -0.338
      -0.347
      -0.346
      -0.333
      -0.306
      -0.268
      -0.227
      -0.191
      -0.163
      -0.138
      -0.112
      -0.081
      -0.045
      -0.001
       0.050
       0.104
       0.157
       0.205
       0.244
       0.268
       0.278
       0.277
       0.271
       0.264
       0.257
       0.251
       0.244
       0.236
       0.229
       0.224
       0.222
       0.214
       0.199
       0.180
       0.165
       0.156
       0.156
       0.164
       0.177
       0.191
       0.202
       0.210
       0.218
       0.227
       0.236
       0.241
       0.238
       0.220
       0.185
       0.136
       0.075
       0.005
      -0.072
      -0.151
      -0.228
      -0.302
      -0.370
      -0.431
      -0.486
      -0.536
      -0.581
      -0.619
      -0.642
      -0.646
      -0.627
      -0.586
      -0.528
      -0.464
      -0.400
      -0.335
      -0.261
      -0.176
      -0.084
       0.005
       0.079
       0.135
       0.178
       0.218
       0.261
       0.307
       0.351
       0.392
       0.433
       0.476
       0.522
       0.569
       0.612
       0.642
       0.653
       0.646
       0.625
       0.594
       0.559
       0.525
       0.492
       0.454
       0.403
       0.339
       0.269
       0.199
       0.137
       0.083
       0.036
      -0.008
      -0.050
      -0.089
      -0.123
      -0.155
      -0.190
      -0.230
      -0.277
      -0.331
      -0.389
      -0.446
      -0.494
      -0.535
      -0.569
      -0.594
      -0.608
      -0.611
      -0.603
      -0.586
      -0.565
      -0.543
      -0.522
      -0.500
      -0.471
      -0.435
      -0.390
      -0.339
      -0.283
      -0.220
      -0.144
      -0.053
       0.047
       0.144
       0.228
       0.303
       0.381
       0.463
       0.545
       0.617
       0.675
       0.718
       0.748
       0.767
       0.776
       0.772
       0.753
       0.722
       0.679
       0.623
       0.553
       0.474
       0.391
       0.308
       0.227
       0.148
       0.072
       0.000
      -0.067
      -0.125
      -0.176
      -0.227
      -0.278
      -0.324
      -0.357
      -0.373
      -0.372
      -0.355
      -0.321
      -0.275
      -0.222
      -0.171
      -0.123
      -0.080
      -0.041
      -0.007
       0.015
       0.022
       0.012
      -0.008
      -0.032
      -0.060
      -0.093
      -0.133
      -0.181
      -0.236
      -0.294
      -0.351
      -0.405
      -0.456
      -0.504
      -0.548
      -0.585
      -0.617
      -0.643
      -0.658
      -0.660
      -0.647
      -0.619
      -0.575
      -0.515
      -0.443
      -0.363
      -0.279
      -0.192
      -0.106
      -0.023
       0.058
       0.133
       0.197
       0.248
       0.289
       0.324
       0.350
       0.364
       0.366
       0.357
       0.343
       0.324
       0.301
       0.274
       0.240
       0.200
       0.155
       0.108
       0.058
       0.010
      -0.033
      -0.066
      -0.091
      -0.117
      -0.146
      -0.176
      -0.202
      -0.216
      -0.219
      -0.215
      -0.212
      -0.212
      -0.210
      -0.196
      -0.170
      -0.134
      -0.094
      -0.053
      -0.013
       0.029
       0.078
       0.136
       0.192
       0.236
       0.264
       0.283
       0.301
       0.323
       0.350
       0.375
       0.383
       0.369
       0.335
       0.292
       0.246
       0.196
       0.138
       0.069
      -0.011
      -0.093
      -0.164
      -0.219
      -0.257
      -0.286
      -0.312
      -0.331
      -0.335
      -0.323
      -0.296
      -0.263
      -0.230
      -0.196
      -0.155
      -0.105
      -0.051
       0.001
       0.050
       0.104
       0.163
       0.222
       0.271
       0.306
       0.324
       0.327
       0.320
       0.308
       0.291
       0.267
       0.236
       0.200
       0.159
       0.116
       0.074
       0.039
       0.013
      -0.002
      -0.003
       0.012
       0.038
       0.066
       0.092
       0.117
       0.145
       0.178
       0.214
       0.245
       0.261
       0.261
       0.246
       0.220
       0.185
       0.142
       0.094
       0.043
      -0.010
      -0.066
      -0.123
      -0.179
      -0.230
      -0.276
      -0.316
      -0.351
      -0.383
      -0.406
      -0.414
      -0.400
      -0.363
      -0.310
      -0.247
      -0.177
      -0.098
      -0.015
       0.070
       0.149
       0.217
       0.269
       0.305
       0.326
       0.331
       0.317
       0.288
       0.247
       0.197
       0.136
       0.066
      -0.009
      -0.083
      -0.152
      -0.215
      -0.271
      -0.323
      -0.371
      -0.410
      -0.436
      -0.449
      -0.451
      -0.443
      -0.425
      -0.395
      -0.353
      -0.295
      -0.220
      -0.132
      -0.036
       0.064
       0.166
       0.272
       0.380
       0.489
       0.595
       0.693
       0.778
       0.847
       0.898
       0.928
       0.932
       0.911
       0.869
       0.809
       0.734
       0.645
       0.544
       0.432
       0.315
       0.200
       0.092
      -0.009
      -0.104
      -0.189
      -0.255
      -0.299
      -0.323
      -0.335
      -0.339
      -0.341
      -0.343
      -0.339
      -0.327
      -0.309
      -0.290
      -0.274
      -0.263
      -0.256
      -0.255
      -0.260
      -0.271
      -0.289
      -0.314
      -0.350
      -0.397
      -0.455
      -0.519
      -0.580
      -0.635
      -0.682
      -0.725
      -0.759
      -0.775
      -0.769
      -0.741
      -0.695
      -0.635
      -0.564
      -0.483
      -0.391
      -0.286
      -0.173
      -0.059
       0.049
       0.150
       0.247
       0.343
       0.436
       0.528
       0.614
       0.690
       0.752
       0.795
       0.818
       0.826
       0.822
       0.808
       0.776
       0.721
       0.643
       0.555
       0.463
       0.370
       0.278
       0.196
       0.132
       0.089
       0.062
       0.045
       0.032
       0.026
       0.032
       0.053
       0.087
       0.123
       0.156
       0.181
       0.195
       0.196
       0.182
       0.153
       0.112
       0.059
      -0.002
      -0.072
      -0.150
      -0.238
      -0.333
      -0.430
      -0.523
      -0.607
      -0.679
      -0.736
      -0.777
      -0.799
      -0.798
      -0.766
      -0.704
      -0.616
      -0.512
      -0.400
      -0.283
      -0.165
      -0.048
       0.066
       0.170
       0.256
       0.317
       0.352
       0.365
       0.359
       0.337
       0.300
       0.246
       0.174
       0.089
       0.001
      -0.086
      -0.173
      -0.263
      -0.355
      -0.447
      -0.535
      -0.612
      -0.669
      -0.700
      -0.704
      -0.681
      -0.635
      -0.571
      -0.492
      -0.398
      -0.287
      -0.159
      -0.020
       0.124
       0.272
       0.420
       0.562
       0.695
       0.814
       0.921
       1.015
       1.095
       1.160
       1.205
       1.222
       1.205
       1.154
       1.070
       0.961
       0.832
       0.691
       0.542
       0.387
       0.228
       0.067
      -0.093
      -0.247
      -0.393
      -0.527
      -0.643
      -0.740
      -0.812
      -0.859
      -0.884
      -0.892
      -0.882
      -0.847
      -0.786
      -0.709
      -0.624
      -0.536
      -0.444
      -0.350
      -0.257
      -0.171
      -0.094
      -0.024
       0.046
       0.116
       0.178
       0.220
       0.240
       0.242
       0.232
       0.213
       0.184
       0.144
       0.100
       0.058
       0.029
       0.018
       0.026
       0.047
       0.077
       0.119
       0.176
       0.251
       0.340
       0.439
       0.539
       0.629
       0.703
       0.760
       0.802
       0.826
       0.830
       0.810
       0.768
       0.700
       0.608
       0.494
       0.361
       0.214
       0.057
      -0.107
      -0.276
      -0.447
      -0.612
      -0.760
      -0.882
      -0.974
      -1.037
      -1.070
      -1.074
      -1.051
      -1.002
      -0.927
      -0.826
      -0.700
      -0.552
      -0.386
      -0.210
      -0.030
       0.148
       0.322
       0.484
       0.626
       0.741
       0.829
       0.890
       0.921
       0.919
       0.884
       0.821
       0.738
       0.642
       0.539
       0.428
       0.305
       0.172
       0.034
      -0.099
      -0.224
      -0.338
      -0.438
      -0.522
      -0.588
      -0.630
      -0.642
      -0.627
      -0.588
      -0.531
      -0.459
      -0.375
      -0.284
      -0.189
      -0.097
      -0.014
       0.053
       0.097
       0.121
       0.132
       0.136
       0.137
       0.136
       0.129
       0.109
       0.077
       0.038
      -0.002
      -0.046
      -0.097
      -0.159
      -0.229
      -0.304
      -0.376
      -0.441
      -0.497
      -0.550
      -0.603
      -0.650
      -0.686
      -0.706
      -0.713
      -0.711
      -0.704
      -0.694
      -0.676
      -0.646
      -0.605
      -0.558
      -0.511
      -0.463
      -0.413
      -0.360
      -0.306
      -0.248
      -0.184
      -0.109
      -0.026
       0.064
       0.157
       0.251
       0.345
       0.443
       0.546
       0.654
       0.763
       0.870
       0.970
       1.056
       1.122
       1.170
       1.202
       1.222
       1.231
       1.232
       1.222
       1.198
       1.155
       1.096
       1.025
       0.943
       0.850
       0.745
       0.628
       0.503
       0.372
       0.238
       0.103
      -0.031
      -0.162
      -0.288
      -0.410
      -0.526
      -0.634
      -0.724
      -0.795
      -0.849
      -0.887
      -0.911
      -0.918
      -0.911
      -0.890
      -0.857
      -0.817
      -0.776
      -0.742
      -0.715
      -0.689
      -0.656
      -0.611
      -0.553
      -0.487
      -0.423
      -0.364
      -0.308
      -0.251
      -0.194
      -0.141
      -0.092
      -0.046
      -0.005
       0.030
       0.060
       0.087
       0.111
       0.132
       0.151
       0.166
       0.176
       0.183
       0.190
       0.197
       0.200
       0.195
       0.184
       0.173
       0.162
       0.150
       0.140
       0.134
       0.133
       0.134
       0.135
       0.135
       0.135
       0.133
       0.132
       0.129
       0.121
       0.108
       0.091
       0.075
       0.061
       0.047
       0.034
       0.022
       0.014
       0.011
       0.016
       0.032
       0.055
       0.082
       0.115
       0.158
       0.212
       0.274
       0.340
       0.407
       0.472
       0.534
       0.593
       0.646
       0.688
       0.713
       0.718
       0.705
       0.673
       0.626
       0.571
       0.511
       0.449
       0.380
       0.303
       0.223
       0.142
       0.064
      -0.010
      -0.080
      -0.147
      -0.208
      -0.260
      -0.299
      -0.325
      -0.342
      -0.350
      -0.349
      -0.346
      -0.347
      -0.353
      -0.363
      -0.375
      -0.389
      -0.404
      -0.422
      -0.443
      -0.463
      -0.479
      -0.487
      -0.488
      -0.481
      -0.461
      -0.425
      -0.374
      -0.315
      -0.248
      -0.174
      -0.093
      -0.006
       0.082
       0.167
       0.243
       0.307
       0.363
       0.413
       0.456
       0.486
       0.501
       0.497
       0.475
       0.434
       0.381
       0.324
       0.274
       0.238
       0.218
       0.211
       0.212
       0.218
       0.231
       0.251
       0.271
       0.283
       0.288
       0.292
       0.300
       0.305
       0.296
       0.265
       0.210
       0.136
       0.052
      -0.038
      -0.133
      -0.234
      -0.337
      -0.439
      -0.537
      -0.626
      -0.697
      -0.741
      -0.755
      -0.742
      -0.711
      -0.668
      -0.620
      -0.570
      -0.516
      -0.455
      -0.386
      -0.314
      -0.244
      -0.179
      -0.122
      -0.074
      -0.035
      -0.006
       0.007
       0.000
      -0.027
      -0.064
      -0.101
      -0.129
      -0.147
      -0.154
      -0.152
      -0.142
      -0.125
      -0.104
      -0.083
      -0.061
      -0.036
      -0.005
       0.030
       0.066
       0.101
       0.134
       0.164
       0.192
       0.220
       0.248
       0.270
       0.277
       0.264
       0.238
       0.205
       0.166
       0.119
       0.060
      -0.013
      -0.095
      -0.177
      -0.248
      -0.305
      -0.348
      -0.375
      -0.384
      -0.374
      -0.342
      -0.286
      -0.204
      -0.101
       0.017
       0.147
       0.287
       0.436
       0.584
       0.723
       0.845
       0.943
       1.016
       1.066
       1.096
       1.104
       1.089
       1.059
       1.021
       0.982
       0.938
       0.887
       0.825
       0.751
       0.666
       0.575
       0.478
       0.375
       0.265
       0.151
       0.038
      -0.071
      -0.179
      -0.287
      -0.392
      -0.492
      -0.588
      -0.681
      -0.775
      -0.874
      -0.975
      -1.072
      -1.157
      -1.228
      -1.291
      -1.345
      -1.387
      -1.410
      -1.411
      -1.387
      -1.339
      -1.274
      -1.195
      -1.100
      -0.988
      -0.859
      -0.717
      -0.571
      -0.426
      -0.284
      -0.148
      -0.014
       0.116
       0.237
       0.340
       0.420
       0.481
       0.530
       0.574
       0.611
       0.643
       0.665
       0.678
       0.686
       0.691
       0.695
       0.695
       0.692
       0.688
       0.683
       0.675
       0.667
       0.661
       0.659
       0.660
       0.660
       0.654
       0.639
       0.611
       0.571
       0.524
       0.473
       0.418
       0.356
       0.283
       0.198
       0.103
       0.003
      -0.095
      -0.193
      -0.292
      -0.391
      -0.481
      -0.553
      -0.607
      -0.648
      -0.683
      -0.714
      -0.736
      -0.739
      -0.718
      -0.678
      -0.629
      -0.577
      -0.518
      -0.447
      -0.364
      -0.271
      -0.174
      -0.081
       0.007
       0.093
       0.180
       0.268
       0.352
       0.428
       0.492
       0.542
       0.572
       0.584
       0.582
       0.571
       0.551
       0.526
       0.498
       0.470
       0.439
       0.409
       0.386
       0.373
       0.368
       0.364
       0.355
       0.336
       0.305
       0.263
       0.216
       0.165
       0.107
       0.039
      -0.040
      -0.128
      -0.222
      -0.319
      -0.416
      -0.512
      -0.606
      -0.696
      -0.774
      -0.836
      -0.882
      -0.911
      -0.925
      -0.923
      -0.905
      -0.871
      -0.824
      -0.766
      -0.700
      -0.623
      -0.532
      -0.430
      -0.323
      -0.213
      -0.103
       0.008
       0.114
       0.210
       0.298
       0.378
       0.453
       0.522
       0.585
       0.638
       0.684
       0.724
       0.759
       0.784
       0.795
       0.791
       0.780
       0.765
       0.743
       0.710
       0.662
       0.603
       0.538
       0.473
       0.416
       0.368
       0.326
       0.284
       0.238
       0.188
       0.137
       0.090
       0.050
       0.018
      -0.013
      -0.045
      -0.079
      -0.114
      -0.150
      -0.185
      -0.218
      -0.252
      -0.293
      -0.343
      -0.400
      -0.456
      -0.506
      -0.547
      -0.580
      -0.608
      -0.631
      -0.647
      -0.653
      -0.648
      -0.638
      -0.626
      -0.611
      -0.592
      -0.569
      -0.542
      -0.509
      -0.471
      -0.431
      -0.391
      -0.346
      -0.292
      -0.226
      -0.146
      -0.051
       0.060
       0.185
       0.320
       0.460
       0.596
       0.721
       0.832
       0.931
       1.019
       1.090
       1.133
       1.146
       1.130
       1.095
       1.047
       0.989
       0.914
       0.816
       0.694
       0.558
       0.417
       0.275
       0.132
      -0.009
      -0.145
      -0.270
      -0.380
      -0.471
      -0.543
      -0.596
      -0.629
      -0.643
      -0.641
      -0.627
      -0.603
      -0.570
      -0.531
      -0.495
      -0.464
      -0.438
      -0.412
      -0.390
      -0.374
      -0.366
      -0.366
      -0.370
      -0.372
      -0.366
      -0.345
      -0.311
      -0.266
      -0.213
      -0.155
      -0.091
      -0.016
       0.071
       0.166
       0.259
       0.344
       0.417
       0.478
       0.522
       0.545
       0.547
       0.533
       0.507
       0.473
       0.432
       0.383
       0.325
       0.258
       0.183
       0.104
       0.016
      -0.080
      -0.180
      -0.275
      -0.362
      -0.439
      -0.506
      -0.561
      -0.599
      -0.617
      -0.619
      -0.611
      -0.598
      -0.579
      -0.549
      -0.508
      -0.466
      -0.430
      -0.400
      -0.370
      -0.334
      -0.292
      -0.240
      -0.181
      -0.118
      -0.054
       0.011
       0.077
       0.146
       0.217
       0.287
       0.351
       0.406
       0.449
       0.483
       0.513
       0.538
       0.557
       0.570
       0.578
       0.584
       0.587
       0.587
       0.581
       0.570
       0.556
       0.549
       0.552
       0.557
       0.557
       0.543
       0.515
       0.474
       0.425
       0.372
       0.318
       0.260
       0.198
       0.133
       0.066
      -0.003
      -0.076
      -0.154
      -0.237
      -0.322
      -0.405
      -0.476
      -0.533
      -0.580
      -0.619
      -0.652
      -0.677
      -0.691
      -0.692
      -0.677
      -0.645
      -0.599
      -0.541
      -0.471
      -0.385
      -0.285
      -0.174
      -0.057
       0.063
       0.181
       0.292
       0.397
       0.493
       0.578
       0.647
       0.696
       0.726
       0.735
       0.722
       0.687
       0.634
       0.564
       0.482
       0.394
       0.306
       0.220
       0.140
       0.068
       0.006
      -0.048
      -0.097
      -0.140
      -0.174
      -0.196
      -0.209
      -0.216
      -0.220
      -0.221
      -0.215
      -0.197
      -0.168
      -0.136
      -0.108
      -0.084
      -0.062
      -0.040
      -0.020
      -0.005
      -0.001
      -0.011
      -0.035
      -0.069
      -0.101
      -0.123
      -0.131
      -0.124
      -0.103
      -0.071
      -0.030
       0.019
       0.074
       0.130
       0.183
       0.232
       0.275
       0.311
       0.343
       0.369
       0.388
       0.395
       0.383
       0.355
       0.312
       0.257
       0.191
       0.115
       0.030
      -0.060
      -0.152
      -0.236
      -0.303
      -0.348
      -0.371
      -0.377
      -0.374
      -0.366
      -0.353
      -0.334
      -0.308
      -0.277
      -0.245
      -0.212
      -0.174
      -0.133
      -0.091
      -0.053
      -0.022
      -0.004
      -0.005
      -0.028
      -0.069
