Origin Time       04/04/2011 11:31:40
Lat.              29.6 N	
Long.             80.8 E	
Depth (Km)         10.0
Magnitude         5.7
 Region           NEPAL-INDIA-BORDER-REGION                                        
 Above details taken from IMD 
   
Station Code      UDH
Station Lat.       28.997
Station Long.      79.403
Station Height(m)  213.0
Site Class        C   Vs30 between 200 m/sec to 375 m/sec *  
Record Time       04.04.2011 11:31:39.714
Sampling Rate     200. Hz
 Record Duration  146.170 Sec.
 Direction         Vert. (Up positive)
Max. Acceleration     -5.574 cm/sec**2
     
  * For reference see Site Classification link of website 
     
 Base Line Corrected and Low Pass Filtered (Cut Off at 35 Hz) Time History
 Acceleration data in cm/sec**2
    
[...]
       0.484
       0.602
       0.743
       0.899
       0.985
       0.930
       0.748
       0.522
       0.327
       0.181
       0.074
       0.017
       0.031
       0.105
       0.181
       0.191
       0.101
      -0.075
      -0.292
      -0.502
      -0.649
      -0.677
      -0.546
      -0.263
       0.109
       0.469
       0.711
       0.781
       0.696
       0.524
       0.331
       0.142
      -0.043
      -0.211
      -0.320
      -0.337
      -0.271
      -0.172
      -0.076
       0.032
       0.190
       0.406
       0.629
       0.783
       0.827
       0.769
       0.639
       0.448
       0.197
      -0.089
      -0.351
      -0.529
      -0.604
      -0.607
      -0.568
      -0.485
      -0.334
      -0.098
       0.208
       0.538
       0.836
       1.040
       1.098
       0.997
       0.771
       0.482
       0.191
      -0.061
      -0.244
      -0.327
      -0.301
      -0.196
      -0.085
      -0.048
      -0.118
      -0.258
      -0.401
      -0.505
      -0.567
      -0.593
      -0.564
      -0.453
      -0.271
      -0.071
       0.098
       0.232
       0.344
       0.417
       0.395
       0.246
       0.018
      -0.177
      -0.247
      -0.181
      -0.036
       0.122
       0.255
       0.335
       0.316
       0.142
      -0.192
      -0.599
      -0.932
      -1.075
      -1.000
      -0.758
      -0.429
      -0.092
       0.169
       0.282
       0.223
       0.044
      -0.156
      -0.287
      -0.312
      -0.239
      -0.105
       0.047
       0.170
       0.230
       0.223
       0.183
       0.160
       0.184
       0.244
       0.298
       0.314
       0.292
       0.256
       0.226
       0.208
       0.221
       0.293
       0.434
       0.586
       0.642
       0.533
       0.297
       0.057
      -0.078
      -0.093
      -0.043
       0.016
       0.069
       0.112
       0.105
      -0.007
      -0.221
      -0.430
      -0.487
      -0.324
      -0.026
       0.241
       0.360
       0.339
       0.243
       0.106
      -0.079
      -0.277
      -0.371
      -0.243
       0.105
       0.530
       0.851
       0.980
       0.945
       0.805
       0.574
       0.232
      -0.212
      -0.679
      -1.062
      -1.285
      -1.336
      -1.241
      -1.017
      -0.673
      -0.252
       0.139
       0.378
       0.403
       0.265
       0.085
      -0.035
      -0.066
      -0.043
      -0.012
      -0.009
      -0.061
      -0.201
      -0.442
      -0.743
      -1.005
      -1.113
      -1.016
      -0.760
      -0.450
      -0.165
       0.084
       0.312
       0.506
       0.625
       0.658
       0.649
       0.654
       0.672
       0.635
       0.474
       0.187
      -0.148
      -0.423
      -0.558
      -0.545
      -0.429
      -0.273
      -0.120
       0.009
       0.096
       0.112
       0.034
      -0.112
      -0.257
      -0.322
      -0.274
      -0.137
       0.042
       0.231
       0.429
       0.639
       0.829
       0.937
       0.919
       0.795
       0.643
       0.533
       0.475
       0.424
       0.336
       0.202
       0.028
      -0.191
      -0.478
      -0.825
      -1.174
      -1.437
      -1.550
      -1.505
      -1.333
      -1.060
      -0.697
      -0.265
       0.169
       0.504
       0.654
       0.598
       0.386
       0.096
      -0.193
      -0.406
      -0.479
      -0.386
      -0.162
       0.103
       0.314
       0.420
       0.421
       0.342
       0.207
       0.033
      -0.162
      -0.347
      -0.497
      -0.598
      -0.651
      -0.657
      -0.617
      -0.531
      -0.409
      -0.270
      -0.137
      -0.041
      -0.020
      -0.097
      -0.248
      -0.379
      -0.378
      -0.196
       0.113
       0.440
       0.702
       0.875
       0.957
       0.921
       0.732
       0.404
       0.028
      -0.273
      -0.423
      -0.421
      -0.311
      -0.132
       0.095
       0.327
       0.491
       0.519
       0.407
       0.222
       0.058
      -0.022
      -0.007
       0.086
       0.215
       0.328
       0.367
       0.307
       0.180
       0.071
       0.072
       0.221
       0.465
       0.677
       0.716
       0.497
       0.042
      -0.533
      -1.073
      -1.455
      -1.617
      -1.548
      -1.265
      -0.815
      -0.289
       0.188
       0.513
       0.670
       0.726
       0.780
       0.881
       1.010
       1.096
       1.066
       0.876
       0.536
       0.123
      -0.244
      -0.449
      -0.442
      -0.260
       0.002
       0.249
       0.433
       0.552
       0.616
       0.624
       0.582
       0.528
       0.513
       0.554
       0.602
       0.587
       0.492
       0.370
       0.281
       0.219
       0.107
      -0.132
      -0.493
      -0.896
      -1.228
      -1.391
      -1.317
      -0.968
      -0.360
       0.419
       1.211
       1.833
       2.130
       2.046
       1.647
       1.116
       0.680
       0.509
       0.654
       1.028
       1.471
       1.822
       1.974
       1.897
       1.620
       1.207
       0.735
       0.270
      -0.138
      -0.453
      -0.649
      -0.703
      -0.607
      -0.385
      -0.102
       0.150
       0.279
       0.220
      -0.048
      -0.476
      -0.943
      -1.291
      -1.389
      -1.210
      -0.840
      -0.422
      -0.080
       0.121
       0.160
       0.044
      -0.181
      -0.421
      -0.571
      -0.575
      -0.454
      -0.274
      -0.084
       0.101
       0.275
       0.407
       0.444
       0.357
       0.172
      -0.043
      -0.217
      -0.317
      -0.337
      -0.267
      -0.085
       0.219
       0.602
       0.956
       1.143
       1.057
       0.683
       0.119
      -0.470
      -0.934
      -1.209
      -1.314
      -1.293
      -1.159
      -0.916
      -0.617
      -0.378
      -0.313
      -0.456
      -0.740
      -1.053
      -1.309
      -1.452
      -1.431
      -1.197
      -0.748
      -0.179
       0.339
       0.637
       0.639
       0.378
      -0.043
      -0.503
      -0.884
      -1.075
      -1.004
      -0.679
      -0.209
       0.239
       0.525
       0.584
       0.411
       0.032
      -0.510
      -1.126
      -1.666
      -1.971
      -1.935
      -1.564
      -0.959
      -0.257
       0.420
       0.989
       1.397
       1.609
       1.610
       1.408
       1.043
       0.598
       0.183
      -0.102
      -0.217
      -0.194
      -0.094
       0.049
       0.233
       0.442
       0.591
       0.552
       0.240
      -0.291
      -0.866
      -1.288
      -1.442
      -1.312
      -0.928
      -0.318
       0.453
       1.246
       1.871
       2.175
       2.130
       1.815
       1.348
       0.818
       0.288
      -0.181
      -0.532
      -0.740
      -0.832
      -0.862
      -0.881
      -0.921
      -1.000
      -1.127
      -1.286
      -1.406
      -1.391
      -1.177
      -0.784
      -0.285
       0.258
       0.828
       1.398
       1.884
       2.161
       2.170
       1.967
       1.683
       1.412
       1.168
       0.923
       0.669
       0.419
       0.169
      -0.126
      -0.502
      -0.932
      -1.320
      -1.568
      -1.643
      -1.586
      -1.451
      -1.254
      -0.966
      -0.576
      -0.123
       0.314
       0.659
       0.874
       0.939
       0.831
       0.542
       0.118
      -0.325
      -0.651
      -0.786
      -0.753
      -0.622
      -0.442
      -0.219
       0.058
       0.372
       0.685
       0.969
       1.217
       1.402
       1.448
       1.252
       0.778
       0.122
      -0.528
      -0.998
      -1.227
      -1.250
      -1.140
      -0.964
      -0.803
      -0.758
      -0.905
      -1.225
      -1.591
      -1.841
      -1.849
      -1.577
      -1.056
      -0.377
       0.326
       0.916
       1.308
       1.495
       1.526
       1.453
       1.316
       1.163
       1.067
       1.093
       1.242
       1.435
       1.554
       1.506
       1.257
       0.824
       0.241
      -0.445
      -1.151
      -1.750
      -2.114
      -2.180
      -1.977
      -1.593
      -1.123
      -0.654
      -0.259
       0.014
       0.157
       0.208
       0.224
       0.252
       0.327
       0.453
       0.579
       0.612
       0.477
       0.186
      -0.157
      -0.427
      -0.548
      -0.514
      -0.358
      -0.131
       0.084
       0.181
       0.087
      -0.162
      -0.408
      -0.452
      -0.186
       0.328
       0.913
       1.395
       1.684
       1.754
       1.580
       1.139
       0.480
      -0.242
      -0.828
      -1.155
      -1.220
      -1.080
      -0.762
      -0.264
       0.376
       1.013
       1.448
       1.546
       1.312
       0.865
       0.328
      -0.237
      -0.799
      -1.280
      -1.548
      -1.504
      -1.189
      -0.776
      -0.451
      -0.304
      -0.302
      -0.353
      -0.366
      -0.277
      -0.043
       0.339
       0.815
       1.273
       1.575
       1.600
       1.293
       0.704
      -0.015
      -0.650
      -1.023
      -1.067
      -0.842
      -0.485
      -0.144
       0.061
       0.047
      -0.217
      -0.683
      -1.208
      -1.595
      -1.686
      -1.443
      -0.955
      -0.348
       0.295
       0.934
       1.508
       1.904
       2.017
       1.850
       1.524
       1.196
       0.939
       0.708
       0.408
      -0.006
      -0.484
      -0.921
      -1.219
      -1.332
      -1.256
      -0.991
      -0.526
       0.124
       0.878
       1.582
       2.078
       2.283
       2.218
       1.950
       1.522
       0.955
       0.311
      -0.279
      -0.683
      -0.882
      -1.006
      -1.220
      -1.557
      -1.866
      -1.949
      -1.724
      -1.273
      -0.726
      -0.145
       0.448
       0.974
       1.278
       1.249
       0.943
       0.563
       0.321
       0.319
       0.554
       0.973
       1.515
       2.087
       2.550
       2.754
       2.603
       2.115
       1.411
       0.652
      -0.045
      -0.638
      -1.128
      -1.480
      -1.598
      -1.369
      -0.769
       0.055
       0.822
       1.244
       1.184
       0.700
      -0.019
      -0.757
      -1.311
      -1.482
      -1.114
      -0.209
       0.979
       2.020
       2.533
       2.390
       1.730
       0.821
      -0.078
      -0.767
      -1.108
      -1.047
      -0.657
      -0.126
       0.336
       0.608
       0.690
       0.644
       0.505
       0.260
      -0.107
      -0.572
      -1.081
      -1.599
      -2.116
      -2.609
      -2.993
      -3.138
      -2.949
      -2.440
      -1.745
      -1.058
      -0.543
      -0.276
      -0.240
      -0.352
      -0.509
      -0.626
      -0.655
      -0.596
      -0.486
      -0.386
      -0.338
      -0.328
      -0.292
      -0.164
       0.073
       0.381
       0.701
       0.965
       1.083
       0.945
       0.469
      -0.324
      -1.293
      -2.228
      -2.936
      -3.274
      -3.167
      -2.617
      -1.721
      -0.674
       0.293
       0.995
       1.355
       1.388
       1.160
       0.764
       0.335
       0.053
       0.087
       0.507
       1.237
       2.102
       2.912
       3.522
       3.846
       3.840
       3.480
       2.757
       1.705
       0.444
      -0.817
      -1.857
      -2.565
      -2.976
      -3.178
      -3.188
      -2.919
      -2.289
      -1.342
      -0.243
       0.823
       1.735
       2.402
       2.687
       2.447
       1.674
       0.592
      -0.438
      -1.130
      -1.390
      -1.270
      -0.848
      -0.222
       0.425
       0.807
       0.667
      -0.050
      -1.135
      -2.236
      -3.033
      -3.346
      -3.122
      -2.389
      -1.261
       0.046
       1.271
       2.228
       2.901
       3.399
       3.829
       4.200
       4.433
       4.430
       4.108
       3.422
       2.386
       1.135
      -0.090
      -1.039
      -1.592
      -1.816
      -1.881
      -1.917
      -1.944
      -1.917
      -1.841
      -1.813
      -1.935
      -2.189
      -2.421
      -2.466
      -2.307
      -2.064
      -1.843
      -1.600
      -1.189
      -0.524
       0.314
       1.141
       1.803
       2.244
       2.456
       2.429
       2.171
       1.777
       1.414
       1.215
       1.167
       1.121
       0.925
       0.524
      -0.037
      -0.685
      -1.352
      -1.960
      -2.415
      -2.665
      -2.768
      -2.856
      -3.011
      -3.164
      -3.116
      -2.670
      -1.752
      -0.438
       1.091
       2.593
       3.803
       4.477
       4.478
       3.846
       2.796
       1.632
       0.609
      -0.165
      -0.740
      -1.256
      -1.835
      -2.522
      -3.270
      -3.970
      -4.479
      -4.658
      -4.420
      -3.779
      -2.848
      -1.795
      -0.763
       0.172
       1.015
       1.828
       2.681
       3.568
       4.351
       4.814
       4.803
       4.350
       3.635
       2.850
       2.085
       1.370
       0.765
       0.378
       0.252
       0.273
       0.224
      -0.034
      -0.458
      -0.911
      -1.350
      -1.883
      -2.599
      -3.367
      -3.854
      -3.795
      -3.216
      -2.372
      -1.476
      -0.537
       0.514
       1.592
       2.434
       2.819
       2.793
       2.628
       2.554
       2.567
       2.480
       2.142
       1.560
       0.825
      -0.036
      -1.082
      -2.325
      -3.623
      -4.716
      -5.391
      -5.574
      -5.282
      -4.526
      -3.293
      -1.640
       0.223
       1.979
       3.366
       4.286
       4.794
       4.979
       4.879
       4.502
       3.889
       3.142
       2.367
       1.606
       0.822
      -0.053
      -1.051
      -2.147
      -3.258
      -4.246
      -4.927
      -5.129
      -4.780
      -3.955
      -2.838
      -1.637
      -0.530
       0.333
       0.835
       0.941
       0.752
       0.492
       0.392
       0.559
       0.944
       1.435
       1.963
       2.514
       3.035
       3.378
       3.382
       3.004
       2.349
       1.575
       0.773
      -0.018
      -0.726
      -1.200
      -1.292
      -0.990
      -0.453
       0.056
       0.299
       0.151
      -0.368
      -1.109
      -1.868
      -2.454
      -2.753
      -2.744
      -2.480
      -2.065
      -1.619
      -1.237
      -0.935
      -0.628
      -0.157
       0.616
       1.714
       3.003
       4.229
       5.112
       5.433
       5.090
       4.132
       2.748
       1.227
      -0.147
      -1.219
      -2.000
      -2.588
      -3.015
      -3.192
      -2.992
      -2.383
      -1.473
      -0.441
       0.548
       1.343
       1.801
       1.821
       1.414
       0.725
      -0.037
      -0.670
      -1.001
      -0.896
      -0.317
       0.612
       1.607
       2.355
       2.675
       2.584
       2.215
       1.697
       1.093
       0.434
      -0.230
      -0.828
      -1.305
      -1.639
      -1.826
      -1.873
      -1.824
      -1.778
      -1.813
      -1.887
      -1.830
      -1.466
      -0.761
       0.173
       1.178
       2.122
       2.866
       3.231
       3.075
       2.432
       1.543
       0.704
       0.075
      -0.350
      -0.610
      -0.667
      -0.483
      -0.183
      -0.060
      -0.359
      -1.046
      -1.830
      -2.410
      -2.672
      -2.650
      -2.365
      -1.796
      -1.013
      -0.251
       0.226
       0.347
       0.277
       0.227
       0.264
       0.316
       0.365
       0.526
       0.922
       1.479
       1.924
       2.018
       1.772
       1.403
       1.115
       0.954
       0.900
       1.001
       1.342
       1.857
       2.265
       2.252
       1.725
       0.849
      -0.162
      -1.231
      -2.373
      -3.481
      -4.237
      -4.302
      -3.595
      -2.379
      -1.059
       0.093
       1.016
       1.724
       2.175
       2.299
       2.132
       1.862
       1.700
       1.714
       1.800
       1.793
       1.594
       1.187
       0.580
      -0.226
      -1.209
      -2.284
      -3.324
      -4.189
      -4.731
      -4.802
      -4.322
      -3.378
      -2.224
      -1.137
      -0.236
       0.545
       1.320
       2.090
       2.745
       3.195
       3.483
       3.723
       3.960
       4.105
       4.028
       3.701
       3.190
       2.538
       1.698
       0.629
      -0.560
      -1.621
      -2.361
      -2.798
      -3.121
      -3.486
      -3.889
      -4.200
      -4.296
      -4.114
      -3.599
      -2.680
      -1.335
       0.288
       1.868
       3.071
       3.733
       3.908
       3.737
       3.295
       2.573
       1.580
       0.438
      -0.654
      -1.529
      -2.118
      -2.434
      -2.509
      -2.385
      -2.123
      -1.803
      -1.478
      -1.141
      -0.750
      -0.302
       0.122
       0.398
       0.460
       0.343
       0.137
      -0.093
      -0.305
      -0.407
      -0.218
       0.414
       1.444
       2.568
       3.382
       3.611
       3.232
       2.416
       1.405
       0.420
      -0.371
      -0.882
      -1.119
      -1.174
      -1.179
      -1.261
      -1.490
      -1.851
      -2.257
      -2.589
      -2.742
      -2.651
      -2.296
      -1.702
      -0.932
      -0.063
       0.839
       1.699
       2.399
       2.789
       2.769
       2.350
       1.645
       0.783
      -0.134
      -1.028
      -1.796
      -2.321
      -2.521
      -2.401
      -2.061
      -1.638
      -1.229
      -0.856
      -0.484
      -0.073
       0.385
       0.869
       1.339
       1.756
       2.078
       2.254
       2.218
       1.913
       1.345
       0.633
      -0.012
      -0.410
      -0.537
      -0.551
      -0.664
      -0.987
      -1.479
      -2.046
      -2.641
      -3.254
      -3.799
      -4.052
      -3.767
      -2.877
      -1.585
      -0.245
       0.874
       1.699
       2.287
       2.679
       2.856
       2.807
       2.578
       2.231
       1.760
       1.102
       0.242
      -0.693
      -1.479
      -1.946
      -2.086
      -2.033
      -1.944
      -1.885
      -1.799
      -1.569
      -1.109
      -0.443
       0.301
       0.947
       1.358
       1.478
       1.334
       1.009
       0.617
       0.287
       0.154
       0.319
       0.800
       1.471
       2.085
       2.380
       2.229
       1.703
       1.009
       0.348
      -0.176
      -0.548
      -0.782
      -0.893
      -0.908
      -0.869
      -0.803
      -0.669
      -0.381
       0.121
       0.775
       1.410
       1.842
       1.985
       1.878
       1.611
       1.247
       0.831
       0.442
       0.183
       0.105
       0.136
       0.132
       0.003
      -0.229
      -0.493
      -0.777
      -1.144
      -1.633
      -2.162
      -2.554
      -2.664
      -2.484
      -2.124
      -1.693
      -1.210
      -0.630
       0.062
       0.790
       1.428
       1.896
       2.193
       2.342
       2.323
       2.083
       1.618
       1.015
       0.406
      -0.114
      -0.505
      -0.741
      -0.784
      -0.615
      -0.286
       0.086
       0.394
       0.600
       0.732
       0.829
       0.917
       1.020
       1.187
       1.460
       1.834
       2.229
       2.530
