Origin Time       20/06/2011 06:27:18 UTC
Lat.              30.5 N	
Long.             79.4 E	
Depth (Km)         12.0
Magnitude         4.6
 Region           Chamoli-Uttarakhand                                              
 Above details taken from IMD 
    
Station Code      UDH
Station Lat.       28.997  N
Station Long.      79.403  E
Station Height(m)  213.0
Site Class        C   Vs30 between 200 m/sec to 375 m/sec *  
Record Time       20.06.2011 06:27:41.359 UTC
Sampling Rate     200. Hz
 Record Duration   80.845 Sec.
 Direction         N-S (N positive)
Max. Acceleration      1.557 cm/sec**2
     
  * For reference see Site Classification link of website 
     
 Base Line Corrected and Low Pass Filtered (Cut Off at 35 Hz) Time History
 Acceleration data in cm/sec**2
    
[...]
       0.207
       0.168
       0.123
       0.088
       0.071
       0.066
       0.062
       0.047
       0.016
      -0.026
      -0.064
      -0.087
      -0.089
      -0.073
      -0.048
      -0.025
      -0.013
      -0.015
      -0.030
      -0.051
      -0.068
      -0.069
      -0.051
      -0.020
       0.008
       0.024
       0.029
       0.028
       0.030
       0.044
       0.070
       0.100
       0.114
       0.100
       0.059
       0.007
      -0.033
      -0.046
      -0.033
      -0.008
       0.012
       0.018
       0.006
      -0.019
      -0.043
      -0.049
      -0.027
       0.019
       0.067
       0.095
       0.092
       0.068
       0.045
       0.045
       0.076
       0.127
       0.177
       0.199
       0.179
       0.122
       0.053
       0.002
      -0.011
       0.007
       0.031
       0.034
       0.006
      -0.043
      -0.097
      -0.135
      -0.147
      -0.134
      -0.109
      -0.092
      -0.100
      -0.136
      -0.189
      -0.230
      -0.239
      -0.214
      -0.176
      -0.152
      -0.154
      -0.180
      -0.214
      -0.235
      -0.229
      -0.195
      -0.146
      -0.099
      -0.070
      -0.058
      -0.052
      -0.036
       0.003
       0.059
       0.119
       0.166
       0.190
       0.188
       0.165
       0.137
       0.126
       0.139
       0.165
       0.182
       0.177
       0.151
       0.117
       0.093
       0.089
       0.098
       0.109
       0.113
       0.110
       0.098
       0.081
       0.065
       0.056
       0.056
       0.058
       0.054
       0.035
      -0.002
      -0.049
      -0.090
      -0.110
      -0.103
      -0.082
      -0.062
      -0.059
      -0.076
      -0.105
      -0.135
      -0.156
      -0.167
      -0.169
      -0.164
      -0.151
      -0.133
      -0.115
      -0.103
      -0.098
      -0.092
      -0.076
      -0.042
       0.008
       0.059
       0.097
       0.116
       0.122
       0.125
       0.131
       0.147
       0.171
       0.193
       0.201
       0.186
       0.149
       0.108
       0.081
       0.078
       0.095
       0.114
       0.119
       0.107
       0.087
       0.066
       0.055
       0.058
       0.077
       0.105
       0.122
       0.116
       0.091
       0.062
       0.048
       0.058
       0.088
       0.121
       0.135
       0.113
       0.056
      -0.017
      -0.074
      -0.096
      -0.081
      -0.053
      -0.043
      -0.068
      -0.118
      -0.174
      -0.212
      -0.216
      -0.184
      -0.128
      -0.077
      -0.057
      -0.075
      -0.117
      -0.155
      -0.163
      -0.136
      -0.090
      -0.053
      -0.044
      -0.063
      -0.098
      -0.129
      -0.138
      -0.119
      -0.082
      -0.051
      -0.045
      -0.065
      -0.096
      -0.113
      -0.097
      -0.044
       0.026
       0.088
       0.125
       0.133
       0.124
       0.117
       0.131
       0.174
       0.232
       0.278
       0.291
       0.270
       0.234
       0.203
       0.190
       0.192
       0.199
       0.200
       0.188
       0.156
       0.106
       0.047
      -0.002
      -0.025
      -0.026
      -0.022
      -0.031
      -0.057
      -0.089
      -0.112
      -0.121
      -0.114
      -0.095
      -0.067
      -0.040
      -0.023
      -0.025
      -0.043
      -0.061
      -0.066
      -0.053
      -0.030
      -0.010
       0.000
      -0.001
      -0.010
      -0.022
      -0.032
      -0.036
      -0.028
      -0.010
       0.012
       0.020
       0.003
      -0.035
      -0.072
      -0.087
      -0.072
      -0.041
      -0.009
       0.010
       0.011
      -0.003
      -0.022
      -0.033
      -0.030
      -0.013
       0.004
       0.009
      -0.008
      -0.041
      -0.075
      -0.096
      -0.098
      -0.081
      -0.055
      -0.037
      -0.044
      -0.075
      -0.112
      -0.131
      -0.121
      -0.087
      -0.044
      -0.010
       0.005
       0.002
      -0.008
      -0.010
       0.006
       0.042
       0.087
       0.121
       0.125
       0.098
       0.054
       0.017
       0.008
       0.033
       0.081
       0.124
       0.135
       0.104
       0.049
       0.001
      -0.015
       0.004
       0.040
       0.066
       0.060
       0.024
      -0.023
      -0.057
      -0.062
      -0.036
       0.003
       0.030
       0.024
      -0.015
      -0.065
      -0.102
      -0.107
      -0.079
      -0.032
       0.012
       0.034
       0.027
      -0.004
      -0.043
      -0.065
      -0.055
      -0.017
       0.026
       0.043
       0.022
      -0.025
      -0.075
      -0.104
      -0.105
      -0.091
      -0.080
      -0.090
      -0.127
      -0.178
      -0.221
      -0.236
      -0.214
      -0.165
      -0.108
      -0.059
      -0.030
      -0.018
      -0.020
      -0.024
      -0.012
       0.026
       0.083
       0.134
       0.155
       0.137
       0.094
       0.053
       0.030
       0.025
       0.027
       0.021
       0.005
      -0.013
      -0.025
      -0.028
      -0.023
      -0.008
       0.017
       0.047
       0.070
       0.076
       0.062
       0.038
       0.022
       0.026
       0.045
       0.068
       0.083
       0.086
       0.075
       0.050
       0.022
       0.004
       0.002
       0.012
       0.023
       0.026
       0.014
      -0.011
      -0.044
      -0.073
      -0.089
      -0.087
      -0.076
      -0.070
      -0.085
      -0.120
      -0.162
      -0.186
      -0.180
      -0.148
      -0.105
      -0.067
      -0.049
      -0.059
      -0.088
      -0.119
      -0.132
      -0.120
      -0.087
      -0.051
      -0.033
      -0.041
      -0.066
      -0.089
      -0.090
      -0.062
      -0.017
       0.023
       0.036
       0.015
      -0.026
      -0.060
      -0.067
      -0.041
       0.006
       0.050
       0.073
       0.070
       0.053
       0.041
       0.054
       0.096
       0.157
       0.215
       0.243
       0.231
       0.192
       0.151
       0.134
       0.147
       0.181
       0.212
       0.217
       0.189
       0.139
       0.093
       0.073
       0.089
       0.127
       0.159
       0.159
       0.120
       0.058
       0.001
      -0.030
      -0.031
      -0.012
       0.012
       0.028
       0.028
       0.010
      -0.017
      -0.040
      -0.045
      -0.024
       0.012
       0.039
       0.038
       0.007
      -0.031
      -0.052
      -0.045
      -0.016
       0.020
       0.044
       0.045
       0.024
      -0.007
      -0.030
      -0.034
      -0.018
       0.007
       0.027
       0.032
       0.025
       0.012
       0.002
      -0.002
       0.006
       0.024
       0.045
       0.052
       0.037
       0.003
      -0.037
      -0.071
      -0.090
      -0.089
      -0.075
      -0.055
      -0.042
      -0.044
      -0.064
      -0.090
      -0.107
      -0.102
      -0.077
      -0.048
      -0.030
      -0.030
      -0.043
      -0.060
      -0.067
      -0.053
      -0.019
       0.026
       0.066
       0.087
       0.089
       0.087
       0.102
       0.141
       0.198
       0.251
       0.282
       0.281
       0.249
       0.198
       0.148
       0.118
       0.116
       0.135
       0.156
       0.157
       0.129
       0.081
       0.036
       0.016
       0.025
       0.052
       0.076
       0.078
       0.053
       0.009
      -0.032
      -0.050
      -0.038
      -0.005
       0.026
       0.031
       0.003
      -0.050
      -0.105
      -0.138
      -0.136
      -0.104
      -0.064
      -0.042
      -0.057
      -0.103
      -0.150
      -0.166
      -0.138
      -0.079
      -0.018
       0.018
       0.021
      -0.001
      -0.028
      -0.039
      -0.022
       0.018
       0.063
       0.088
       0.076
       0.030
      -0.028
      -0.065
      -0.068
      -0.042
      -0.008
       0.014
       0.010
      -0.021
      -0.061
      -0.087
      -0.085
      -0.060
      -0.035
      -0.027
      -0.045
      -0.078
      -0.105
      -0.110
      -0.094
      -0.066
      -0.036
      -0.010
       0.004
       0.004
      -0.005
      -0.004
       0.017
       0.055
       0.095
       0.118
       0.114
       0.086
       0.048
       0.017
       0.000
      -0.002
       0.001
       0.002
      -0.010
      -0.041
      -0.085
      -0.130
      -0.165
      -0.182
      -0.183
      -0.172
      -0.159
      -0.157
      -0.175
      -0.214
      -0.264
      -0.309
      -0.335
      -0.345
      -0.355
      -0.381
      -0.425
      -0.477
      -0.526
      -0.562
      -0.581
      -0.579
      -0.562
      -0.542
      -0.536
      -0.554
      -0.589
      -0.622
      -0.628
      -0.600
      -0.543
      -0.474
      -0.410
      -0.359
      -0.321
      -0.286
      -0.239
      -0.169
      -0.078
       0.015
       0.092
       0.147
       0.187
       0.233
       0.299
       0.386
       0.480
       0.560
       0.605
       0.609
       0.584
       0.556
       0.551
       0.581
       0.631
       0.672
       0.683
       0.659
       0.616
       0.575
       0.557
       0.571
       0.613
       0.665
       0.701
       0.702
       0.665
       0.611
       0.573
       0.577
       0.616
       0.665
       0.691
       0.681
       0.639
       0.585
       0.542
       0.528
       0.541
       0.566
       0.583
       0.576
       0.540
       0.488
       0.441
       0.415
       0.410
       0.411
       0.401
       0.367
       0.309
       0.234
       0.158
       0.098
       0.058
       0.025
      -0.016
      -0.078
      -0.159
      -0.246
      -0.318
      -0.355
      -0.359
      -0.343
      -0.331
      -0.341
      -0.379
      -0.433
      -0.481
      -0.505
      -0.499
      -0.471
      -0.433
      -0.393
      -0.352
      -0.303
      -0.241
      -0.162
      -0.071
       0.024
       0.114
       0.189
       0.242
       0.276
       0.301
       0.326
       0.357
       0.392
       0.429
       0.464
       0.491
       0.503
       0.499
       0.486
       0.474
       0.468
       0.461
       0.441
       0.401
       0.347
       0.287
       0.232
       0.187
       0.152
       0.131
       0.120
       0.108
       0.077
       0.018
      -0.067
      -0.159
      -0.236
      -0.287
      -0.314
      -0.334
      -0.361
      -0.407
      -0.472
      -0.548
      -0.622
      -0.680
      -0.718
      -0.744
      -0.778
      -0.835
      -0.915
      -1.001
      -1.070
      -1.105
      -1.104
      -1.081
      -1.058
      -1.050
      -1.059
      -1.067
      -1.051
      -0.989
      -0.886
      -0.768
      -0.668
      -0.601
      -0.559
      -0.518
      -0.454
      -0.357
      -0.234
      -0.109
      -0.012
       0.036
       0.038
       0.017
       0.008
       0.034
       0.095
       0.166
       0.217
       0.232
       0.213
       0.177
       0.145
       0.138
       0.161
       0.201
       0.231
       0.237
       0.217
       0.187
       0.161
       0.150
       0.151
       0.151
       0.136
       0.098
       0.041
      -0.025
      -0.081
      -0.109
      -0.099
      -0.061
      -0.019
       0.004
       0.004
      -0.007
      -0.008
       0.021
       0.083
       0.170
       0.263
       0.346
       0.404
       0.433
       0.445
       0.458
       0.487
       0.526
       0.556
       0.560
       0.534
       0.489
       0.440
       0.398
       0.363
       0.333
       0.304
       0.274
       0.239
       0.195
       0.142
       0.087
       0.040
       0.001
      -0.033
      -0.066
      -0.102
      -0.143
      -0.187
      -0.227
      -0.257
      -0.266
      -0.255
      -0.227
      -0.194
      -0.162
      -0.131
      -0.094
      -0.052
      -0.007
       0.036
       0.076
       0.111
       0.133
       0.131
       0.106
       0.072
       0.047
       0.037
       0.035
       0.024
      -0.015
      -0.088
      -0.190
      -0.302
      -0.403
      -0.480
      -0.529
      -0.565
      -0.611
      -0.685
      -0.784
      -0.884
      -0.956
      -0.984
      -0.967
      -0.923
      -0.875
      -0.843
      -0.826
      -0.808
      -0.769
      -0.696
      -0.593
      -0.485
      -0.399
      -0.356
      -0.350
      -0.359
      -0.358
      -0.330
      -0.267
      -0.179
      -0.084
      -0.001
       0.063
       0.122
       0.195
       0.301
       0.441
       0.593
       0.722
       0.803
       0.835
       0.837
       0.840
       0.868
       0.933
       1.025
       1.120
       1.188
       1.217
       1.215
       1.200
       1.188
       1.179
       1.165
       1.127
       1.055
       0.947
       0.813
       0.666
       0.524
       0.402
       0.305
       0.224
       0.144
       0.052
      -0.049
      -0.150
      -0.238
      -0.305
      -0.354
      -0.397
      -0.445
      -0.503
      -0.565
      -0.617
      -0.646
      -0.649
      -0.634
      -0.620
      -0.621
      -0.639
      -0.667
      -0.694
      -0.714
      -0.722
      -0.719
      -0.710
      -0.707
      -0.719
      -0.746
      -0.777
      -0.789
      -0.763
      -0.693
      -0.588
      -0.465
      -0.335
      -0.202
      -0.067
       0.073
       0.222
       0.386
       0.564
       0.745
       0.916
       1.068
       1.195
       1.300
       1.388
       1.463
       1.522
       1.556
       1.557
       1.514
       1.424
       1.297
       1.151
       1.007
       0.873
       0.748
       0.626
       0.504
       0.380
       0.259
       0.155
       0.086
       0.064
       0.084
       0.129
       0.175
       0.201
       0.201
       0.185
       0.164
       0.145
       0.124
       0.095
       0.050
      -0.023
      -0.131
      -0.269
      -0.412
      -0.532
      -0.617
      -0.673
      -0.725
      -0.797
      -0.894
      -0.998
      -1.085
      -1.136
      -1.145
      -1.116
      -1.058
      -0.984
      -0.901
      -0.802
      -0.669
      -0.487
      -0.256
       0.005
       0.262
       0.481
       0.645
       0.756
       0.833
       0.899
       0.962
       1.019
       1.047
       1.022
       0.934
       0.795
       0.637
       0.486
       0.356
       0.241
       0.129
       0.010
      -0.115
      -0.237
      -0.342
      -0.417
      -0.456
      -0.457
      -0.433
      -0.398
      -0.366
      -0.335
      -0.293
      -0.223
      -0.112
       0.035
       0.198
       0.346
       0.449
       0.491
       0.477
       0.422
       0.345
       0.253
       0.143
       0.004
      -0.168
      -0.361
      -0.552
      -0.721
      -0.857
      -0.960
      -1.039
      -1.106
      -1.167
      -1.221
      -1.255
      -1.259
      -1.222
      -1.142
      -1.027
      -0.895
      -0.761
      -0.637
      -0.527
      -0.432
      -0.346
      -0.256
      -0.158
      -0.061
       0.019
       0.071
       0.094
       0.098
       0.091
       0.078
       0.060
       0.033
      -0.008
      -0.060
      -0.123
      -0.185
      -0.230
      -0.233
      -0.179
      -0.071
       0.078
       0.250
       0.432
       0.611
       0.778
       0.931
       1.072
       1.198
       1.301
       1.363
       1.374
       1.330
       1.248
       1.153
       1.066
       0.990
       0.915
       0.823
       0.700
       0.543
       0.365
       0.188
       0.038
      -0.072
      -0.142
      -0.179
      -0.200
      -0.213
      -0.219
      -0.206
      -0.159
      -0.072
       0.049
       0.181
       0.299
       0.381
       0.427
       0.457
       0.494
       0.549
       0.611
       0.657
       0.665
       0.627
       0.553
       0.462
       0.372
       0.295
       0.228
       0.159
       0.067
      -0.061
      -0.218
      -0.374
      -0.492
      -0.554
      -0.569
      -0.566
      -0.576
      -0.614
      -0.675
      -0.738
      -0.777
      -0.778
      -0.743
      -0.689
      -0.640
      -0.612
      -0.604
      -0.599
      -0.577
      -0.527
      -0.460
      -0.394
      -0.350
      -0.339
      -0.358
      -0.389
      -0.406
      -0.391
      -0.340
      -0.269
      -0.201
      -0.154
      -0.128
      -0.105
      -0.068
      -0.009
       0.068
       0.157
       0.248
       0.327
       0.385
       0.422
       0.446
       0.465
       0.484
       0.498
       0.496
       0.467
       0.407
       0.321
       0.223
       0.125
       0.038
      -0.028
      -0.078
      -0.120
      -0.165
      -0.213
      -0.255
      -0.281
      -0.284
      -0.262
      -0.222
      -0.177
      -0.138
      -0.108
      -0.081
      -0.042
       0.025
       0.126
       0.253
       0.377
       0.472
       0.517
       0.506
       0.446
       0.356
       0.259
       0.171
       0.097
       0.028
      -0.046
      -0.130
      -0.211
      -0.265
      -0.273
      -0.235
      -0.172
      -0.116
      -0.087
      -0.090
      -0.117
      -0.150
      -0.168
      -0.155
      -0.107
      -0.035
       0.044
       0.113
       0.169
       0.218
       0.268
       0.318
       0.356
       0.361
       0.318
       0.222
       0.088
      -0.052
      -0.165
      -0.230
      -0.249
      -0.249
      -0.263
      -0.309
      -0.384
      -0.466
      -0.528
      -0.548
      -0.526
      -0.476
      -0.423
      -0.389
      -0.379
      -0.378
      -0.363
      -0.319
      -0.254
      -0.193
      -0.161
      -0.168
      -0.211
      -0.267
      -0.312
      -0.327
      -0.307
      -0.263
      -0.212
      -0.169
      -0.135
      -0.097
      -0.034
       0.066
       0.197
       0.345
       0.490
       0.613
       0.704
       0.763
       0.803
       0.840
       0.880
       0.912
       0.922
       0.905
       0.862
       0.801
       0.733
       0.661
       0.585
       0.503
       0.416
       0.325
       0.231
       0.141
       0.070
       0.030
       0.017
       0.012
      -0.002
      -0.040
      -0.099
      -0.170
      -0.240
      -0.299
      -0.343
      -0.369
      -0.376
      -0.371
      -0.368
      -0.376
      -0.390
      -0.398
      -0.388
      -0.355
      -0.305
      -0.247
      -0.193
      -0.154
      -0.134
      -0.124
      -0.111
      -0.081
      -0.031
       0.028
       0.076
       0.100
       0.104
       0.097
       0.091
       0.096
       0.116
       0.149
       0.180
       0.187
       0.151
       0.074
      -0.026
      -0.125
      -0.207
      -0.276
      -0.340
      -0.405
      -0.470
      -0.524
      -0.556
      -0.558
      -0.528
      -0.476
      -0.417
      -0.369
      -0.338
      -0.315
      -0.284
      -0.225
      -0.131
      -0.008
       0.119
       0.224
       0.291
       0.320
       0.328
       0.335
       0.353
       0.379
       0.398
       0.394
       0.360
       0.306
       0.247
       0.202
       0.184
       0.196
       0.229
       0.265
       0.288
       0.289
       0.277
       0.273
       0.297
       0.348
       0.404
       0.437
       0.433
       0.396
       0.338
       0.280
       0.237
       0.214
       0.201
       0.176
