Origin Time       18/9/2011 12:40:47	
Lat.              27.6 N	
Long.             88.2 E	
Depth (Km)         10.0
Magnitude         6.8
 Region           India(Sikkim)-Nepar-Border                                       
 Above details taken from IMD 
   
Station Code      UDH
Station Lat.       28.997
Station Long.      79.403
Station Height(m)  213.0
Site Class        C   Vs30 between 200 m/sec to 375 m/sec *  
Record Time       18.09.2011 12:43:41.154
Sampling Rate     200. Hz
 Record Duration  113.745 Sec.
 Direction         Vert. (Up positive)
Max. Acceleration     -1.384 cm/sec**2
     
  * For reference see Site Classification link of website 
     
 Base Line Corrected and Low Pass Filtered (Cut Off at 35 Hz) Time History
 Acceleration data in cm/sec**2
    
[...]
      -0.078
      -0.025
      -0.019
      -0.053
      -0.100
      -0.143
      -0.182
      -0.227
      -0.268
      -0.283
      -0.255
      -0.190
      -0.108
      -0.019
       0.099
       0.269
       0.485
       0.693
       0.812
       0.781
       0.596
       0.311
       0.009
      -0.235
      -0.371
      -0.376
      -0.257
      -0.057
       0.153
       0.294
       0.320
       0.237
       0.088
      -0.077
      -0.222
      -0.324
      -0.372
      -0.364
      -0.314
      -0.250
      -0.192
      -0.136
      -0.067
       0.022
       0.110
       0.163
       0.172
       0.160
       0.166
       0.211
       0.282
       0.358
       0.423
       0.460
       0.438
       0.323
       0.122
      -0.105
      -0.280
      -0.359
      -0.353
      -0.295
      -0.210
      -0.115
      -0.034
      -0.005
      -0.048
      -0.138
      -0.209
      -0.212
      -0.152
      -0.085
      -0.058
      -0.069
      -0.086
      -0.099
      -0.136
      -0.220
      -0.318
      -0.362
      -0.307
      -0.175
      -0.019
       0.132
       0.291
       0.470
       0.644
       0.756
       0.777
       0.722
       0.620
       0.477
       0.267
      -0.014
      -0.307
      -0.522
      -0.599
      -0.547
      -0.421
      -0.258
      -0.066
       0.140
       0.305
       0.365
       0.304
       0.174
       0.048
      -0.048
      -0.137
      -0.245
      -0.354
      -0.417
      -0.413
      -0.365
      -0.302
      -0.223
      -0.091
       0.119
       0.375
       0.615
       0.784
       0.861
       0.848
       0.740
       0.532
       0.248
      -0.049
      -0.290
      -0.436
      -0.497
      -0.504
      -0.478
      -0.428
      -0.365
      -0.313
      -0.295
      -0.306
      -0.313
      -0.284
      -0.211
      -0.111
      -0.009
       0.082
       0.149
       0.175
       0.148
       0.077
      -0.002
      -0.044
      -0.027
       0.038
       0.123
       0.197
       0.245
       0.257
       0.222
       0.126
      -0.023
      -0.187
      -0.309
      -0.350
      -0.318
      -0.248
      -0.174
      -0.102
      -0.038
      -0.002
      -0.015
      -0.072
      -0.136
      -0.166
      -0.152
      -0.119
      -0.090
      -0.061
      -0.009
       0.075
       0.161
       0.193
       0.138
       0.017
      -0.113
      -0.198
      -0.220
      -0.186
      -0.103
       0.022
       0.166
       0.291
       0.365
       0.384
       0.360
       0.302
       0.204
       0.070
      -0.063
      -0.137
      -0.117
      -0.027
       0.067
       0.105
       0.071
      -0.008
      -0.096
      -0.171
      -0.226
      -0.243
      -0.189
      -0.048
       0.154
       0.348
       0.470
       0.498
       0.458
       0.384
       0.293
       0.183
       0.059
      -0.057
      -0.141
      -0.178
      -0.176
      -0.149
      -0.107
      -0.048
       0.040
       0.162
       0.307
       0.443
       0.535
       0.566
       0.547
       0.505
       0.459
       0.410
       0.336
       0.222
       0.074
      -0.072
      -0.173
      -0.205
      -0.179
      -0.127
      -0.081
      -0.062
      -0.082
      -0.153
      -0.278
      -0.448
      -0.626
      -0.762
      -0.806
      -0.728
      -0.538
      -0.275
       0.006
       0.253
       0.432
       0.525
       0.532
       0.468
       0.368
       0.273
       0.212
       0.192
       0.196
       0.206
       0.215
       0.231
       0.256
       0.277
       0.265
       0.204
       0.103
       0.002
      -0.067
      -0.095
      -0.098
      -0.099
      -0.109
      -0.135
      -0.188
      -0.272
      -0.371
      -0.443
      -0.445
      -0.360
      -0.207
      -0.019
       0.174
       0.349
       0.484
       0.552
       0.536
       0.445
       0.314
       0.188
       0.097
       0.046
       0.015
      -0.019
      -0.073
      -0.158
      -0.279
      -0.440
      -0.634
      -0.840
      -1.017
      -1.108
      -1.062
      -0.865
      -0.554
      -0.201
       0.121
       0.360
       0.496
       0.524
       0.454
       0.309
       0.139
       0.010
      -0.021
       0.056
       0.200
       0.347
       0.452
       0.501
       0.491
       0.408
       0.242
       0.013
      -0.225
      -0.422
      -0.553
      -0.626
      -0.653
      -0.634
      -0.566
      -0.460
      -0.348
      -0.266
      -0.227
      -0.212
      -0.189
      -0.135
      -0.048
       0.065
       0.195
       0.324
       0.427
       0.483
       0.493
       0.470
       0.417
       0.322
       0.174
      -0.003
      -0.159
      -0.249
      -0.263
      -0.216
      -0.122
       0.020
       0.203
       0.385
       0.495
       0.474
       0.323
       0.096
      -0.133
      -0.317
      -0.439
      -0.492
      -0.462
      -0.345
      -0.168
       0.023
       0.188
       0.310
       0.380
       0.386
       0.316
       0.183
       0.028
      -0.094
      -0.156
      -0.167
      -0.155
      -0.133
      -0.101
      -0.059
      -0.026
      -0.025
      -0.063
      -0.118
      -0.164
      -0.188
      -0.193
      -0.183
      -0.152
      -0.102
      -0.047
      -0.016
      -0.023
      -0.056
      -0.082
      -0.081
      -0.057
      -0.034
      -0.022
      -0.005
       0.042
       0.120
       0.202
       0.248
       0.234
       0.161
       0.045
      -0.085
      -0.192
      -0.233
      -0.182
      -0.052
       0.104
       0.221
       0.247
       0.173
       0.017
      -0.181
      -0.375
      -0.520
      -0.576
      -0.525
      -0.382
      -0.193
      -0.009
       0.132
       0.216
       0.245
       0.229
       0.197
       0.186
       0.222
       0.291
       0.342
       0.334
       0.269
       0.190
       0.136
       0.112
       0.101
       0.097
       0.113
       0.151
       0.182
       0.159
       0.060
      -0.091
      -0.239
      -0.352
      -0.437
      -0.518
      -0.598
      -0.651
      -0.657
      -0.631
      -0.605
      -0.591
      -0.563
      -0.485
      -0.355
      -0.207
      -0.080
       0.017
       0.098
       0.173
       0.237
       0.287
       0.339
       0.415
       0.518
       0.619
       0.673
       0.644
       0.528
       0.347
       0.139
      -0.050
      -0.179
      -0.221
      -0.177
      -0.080
       0.011
       0.049
       0.013
      -0.085
      -0.220
      -0.354
      -0.442
      -0.434
      -0.309
      -0.102
       0.110
       0.250
       0.283
       0.228
       0.135
       0.051
       0.015
       0.059
       0.206
       0.440
       0.692
       0.865
       0.885
       0.752
       0.527
       0.286
       0.072
      -0.094
      -0.188
      -0.179
      -0.066
       0.096
       0.224
       0.269
       0.251
       0.220
       0.197
       0.147
       0.023
      -0.174
      -0.389
      -0.560
      -0.665
      -0.715
      -0.712
      -0.629
      -0.446
      -0.194
       0.049
       0.210
       0.275
       0.284
       0.286
       0.299
       0.311
       0.310
       0.298
       0.280
       0.244
       0.166
       0.033
      -0.136
      -0.298
      -0.416
      -0.486
      -0.529
      -0.567
      -0.611
      -0.657
      -0.699
      -0.719
      -0.694
      -0.598
      -0.426
      -0.195
       0.060
       0.304
       0.511
       0.663
       0.751
       0.776
       0.746
       0.673
       0.566
       0.433
       0.283
       0.120
      -0.048
      -0.209
      -0.347
      -0.447
      -0.500
      -0.506
      -0.465
      -0.382
      -0.275
      -0.178
      -0.117
      -0.093
      -0.084
      -0.067
      -0.025
       0.054
       0.181
       0.356
       0.553
       0.722
       0.816
       0.818
       0.746
       0.629
       0.496
       0.369
       0.271
       0.224
       0.236
       0.287
       0.339
       0.360
       0.349
       0.325
       0.304
       0.293
       0.307
       0.366
       0.473
       0.584
       0.624
       0.540
       0.352
       0.123
      -0.094
      -0.297
      -0.501
      -0.691
      -0.814
      -0.827
      -0.742
      -0.610
      -0.475
      -0.339
      -0.184
      -0.022
       0.087
       0.083
      -0.038
      -0.214
      -0.373
      -0.479
      -0.533
      -0.530
      -0.438
      -0.238
       0.032
       0.277
       0.404
       0.380
       0.238
       0.048
      -0.126
      -0.240
      -0.273
      -0.228
      -0.135
      -0.037
       0.029
       0.056
       0.058
       0.047
       0.015
      -0.047
      -0.122
      -0.167
      -0.151
      -0.083
      -0.008
       0.031
       0.020
      -0.033
      -0.117
      -0.224
      -0.329
      -0.390
      -0.371
      -0.278
      -0.164
      -0.085
      -0.056
      -0.050
      -0.025
       0.036
       0.127
       0.239
       0.368
       0.506
       0.623
       0.678
       0.654
       0.571
       0.469
       0.366
       0.254
       0.135
       0.040
       0.017
       0.074
       0.156
       0.186
       0.125
      -0.006
      -0.157
      -0.299
      -0.426
      -0.527
      -0.561
      -0.483
      -0.288
      -0.032
       0.201
       0.356
       0.432
       0.455
       0.439
       0.376
       0.267
       0.142
       0.042
      -0.014
      -0.037
      -0.047
      -0.049
      -0.037
      -0.019
      -0.022
      -0.060
      -0.118
      -0.166
      -0.205
      -0.269
      -0.389
      -0.544
      -0.657
      -0.663
      -0.556
      -0.393
      -0.241
      -0.136
      -0.086
      -0.097
      -0.170
      -0.281
      -0.369
      -0.370
      -0.261
      -0.085
       0.090
       0.228
       0.339
       0.458
       0.591
       0.706
       0.756
       0.720
       0.603
       0.428
       0.221
       0.020
      -0.135
      -0.219
      -0.240
      -0.235
      -0.235
      -0.243
      -0.242
      -0.224
      -0.193
      -0.159
      -0.119
      -0.063
       0.023
       0.131
       0.236
       0.300
       0.300
       0.233
       0.114
      -0.033
      -0.173
      -0.269
      -0.292
      -0.237
      -0.127
       0.012
       0.169
       0.347
       0.541
       0.722
       0.847
       0.882
       0.814
       0.662
       0.469
       0.282
       0.141
       0.062
       0.037
       0.042
       0.052
       0.049
       0.025
      -0.011
      -0.045
      -0.078
      -0.130
      -0.225
      -0.368
      -0.530
      -0.673
      -0.768
      -0.806
      -0.783
      -0.691
      -0.524
      -0.293
      -0.036
       0.203
       0.401
       0.570
       0.722
       0.841
       0.887
       0.833
       0.702
       0.548
       0.410
       0.285
       0.152
       0.017
      -0.082
      -0.116
      -0.107
      -0.127
      -0.233
      -0.418
      -0.612
      -0.735
      -0.751
      -0.670
      -0.512
      -0.287
      -0.008
       0.283
       0.519
       0.650
       0.671
       0.614
       0.520
       0.405
       0.265
       0.097
      -0.091
      -0.276
      -0.425
      -0.517
      -0.552
      -0.548
      -0.529
      -0.504
      -0.466
      -0.403
      -0.313
      -0.206
      -0.099
      -0.011
       0.046
       0.071
       0.066
       0.036
      -0.020
      -0.094
      -0.166
      -0.214
      -0.225
      -0.193
      -0.125
      -0.036
       0.047
       0.099
       0.109
       0.087
       0.044
      -0.023
      -0.118
      -0.225
      -0.299
      -0.300
      -0.226
      -0.122
      -0.045
      -0.030
      -0.080
      -0.175
      -0.297
      -0.436
      -0.568
      -0.652
      -0.635
      -0.492
      -0.255
       0.003
       0.206
       0.320
       0.349
       0.315
       0.231
       0.110
      -0.025
      -0.134
      -0.174
      -0.130
      -0.031
       0.056
       0.065
      -0.021
      -0.171
      -0.335
      -0.482
      -0.595
      -0.657
      -0.635
      -0.504
      -0.270
       0.022
       0.313
       0.555
       0.724
       0.817
       0.842
       0.810
       0.739
       0.650
       0.564
       0.484
       0.390
       0.254
       0.071
      -0.135
      -0.322
      -0.463
      -0.551
      -0.586
      -0.563
      -0.485
      -0.375
      -0.276
      -0.224
      -0.228
      -0.268
      -0.315
      -0.353
      -0.374
      -0.361
      -0.285
      -0.125
       0.103
       0.347
       0.548
       0.675
       0.722
       0.686
       0.568
       0.389
       0.206
       0.086
       0.065
       0.124
       0.209
       0.270
       0.275
       0.211
       0.076
      -0.106
      -0.291
      -0.424
      -0.474
      -0.450
      -0.384
      -0.293
      -0.178
      -0.037
       0.101
       0.200
       0.242
       0.256
       0.279
       0.319
       0.343
       0.316
       0.246
       0.177
       0.140
       0.128
       0.102
       0.036
      -0.065
      -0.179
      -0.295
      -0.402
      -0.470
      -0.456
      -0.330
      -0.123
       0.083
       0.197
       0.179
       0.052
      -0.122
      -0.284
      -0.393
      -0.421
      -0.352
      -0.195
       0.004
       0.177
       0.274
       0.299
       0.295
       0.310
       0.364
       0.452
       0.560
       0.669
       0.752
       0.764
       0.660
       0.429
       0.106
      -0.246
      -0.573
      -0.859
      -1.105
      -1.296
      -1.384
      -1.323
      -1.109
      -0.792
      -0.439
      -0.095
       0.228
       0.519
       0.755
       0.914
       0.999
       1.044
       1.083
       1.124
       1.140
       1.100
       0.991
       0.826
       0.621
       0.380
       0.104
      -0.184
      -0.434
      -0.591
      -0.636
      -0.594
      -0.514
      -0.429
      -0.348
      -0.266
      -0.177
      -0.085
      -0.004
       0.049
       0.058
       0.023
      -0.046
      -0.125
      -0.189
      -0.217
      -0.194
      -0.114
       0.009
       0.153
       0.284
       0.376
       0.412
       0.393
       0.335
       0.255
       0.162
       0.053
      -0.067
      -0.177
      -0.246
      -0.264
      -0.251
      -0.247
      -0.273
      -0.319
      -0.352
      -0.350
      -0.309
      -0.242
      -0.159
      -0.061
       0.047
       0.152
       0.243
       0.329
       0.442
       0.611
       0.822
       1.013
       1.114
       1.087
       0.940
       0.708
       0.434
       0.171
      -0.023
      -0.105
      -0.073
       0.028
       0.134
       0.192
       0.179
       0.097
      -0.040
      -0.214
      -0.394
      -0.543
      -0.635
      -0.668
      -0.662
      -0.636
      -0.587
      -0.505
      -0.388
      -0.250
      -0.099
       0.067
       0.247
       0.421
       0.548
       0.599
       0.585
       0.540
       0.489
       0.420
       0.308
       0.147
      -0.032
      -0.191
      -0.318
      -0.430
      -0.544
      -0.658
      -0.753
      -0.823
      -0.881
      -0.937
      -0.977
      -0.960
      -0.853
      -0.650
      -0.381
      -0.091
       0.168
       0.355
       0.448
       0.462
       0.436
       0.412
       0.409
       0.423
       0.441
       0.457
       0.468
       0.456
       0.394
       0.266
       0.096
      -0.066
      -0.179
      -0.244
      -0.291
      -0.335
      -0.361
      -0.349
      -0.314
      -0.302
      -0.337
      -0.393
      -0.411
      -0.351
      -0.221
      -0.054
       0.136
       0.352
       0.592
       0.813
       0.947
       0.949
       0.830
       0.643
       0.449
       0.288
       0.179
       0.127
       0.125
       0.155
       0.185
       0.192
       0.167
       0.115
       0.045
      -0.034
      -0.104
      -0.142
      -0.141
      -0.120
      -0.114
      -0.138
      -0.166
      -0.158
      -0.096
      -0.014
       0.036
       0.028
      -0.018
      -0.064
      -0.093
      -0.112
      -0.132
      -0.142
      -0.116
      -0.046
       0.035
       0.077
       0.047
      -0.039
      -0.124
      -0.148
      -0.086
       0.038
       0.176
       0.289
       0.360
       0.390
       0.374
       0.314
       0.237
       0.197
       0.236
       0.342
       0.451
       0.483
       0.400
       0.220
      -0.011
      -0.254
      -0.478
      -0.639
      -0.684
      -0.589
      -0.402
      -0.221
      -0.124
      -0.114
      -0.137
      -0.159
      -0.197
      -0.273
      -0.357
      -0.373
      -0.282
      -0.135
      -0.044
      -0.083
      -0.228
      -0.389
      -0.497
      -0.547
      -0.560
      -0.528
      -0.413
      -0.202
       0.046
       0.235
       0.309
       0.298
       0.268
       0.240
       0.172
       0.018
      -0.199
      -0.402
      -0.526
      -0.564
      -0.538
      -0.447
      -0.263
       0.024
       0.357
       0.641
       0.802
       0.834
       0.780
       0.679
       0.542
       0.379
       0.224
       0.119
       0.068
       0.025
      -0.062
      -0.193
      -0.313
      -0.361
      -0.321
      -0.220
      -0.089
       0.055
       0.194
       0.294
       0.323
       0.281
       0.213
       0.175
       0.194
       0.258
       0.341
       0.420
       0.479
       0.495
       0.440
       0.305
       0.119
      -0.066
      -0.219
      -0.346
      -0.461
      -0.545
      -0.551
      -0.448
      -0.265
      -0.076
       0.058
       0.124
       0.139
       0.115
       0.048
      -0.053
      -0.141
      -0.159
      -0.088
       0.029
       0.129
       0.182
       0.218
       0.275
       0.353
       0.410
       0.407
       0.350
       0.276
       0.215
       0.170
       0.134
       0.114
       0.124
       0.154
       0.171
       0.141
       0.063
      -0.039
      -0.151
      -0.284
      -0.449
      -0.623
      -0.750
      -0.775
      -0.686
      -0.513
      -0.291
      -0.045
       0.212
       0.444
       0.597
       0.636
       0.569
       0.434
       0.266
       0.071
      -0.150
      -0.375
      -0.565
      -0.687
      -0.737
      -0.729
      -0.672
      -0.564
      -0.410
      -0.230
      -0.054
       0.099
       0.235
       0.367
       0.502
       0.627
       0.721
       0.773
       0.791
       0.793
       0.784
       0.747
       0.648
       0.475
       0.252
       0.027
      -0.153
      -0.267
      -0.313
      -0.298
      -0.227
      -0.114
       0.020
       0.147
       0.251
       0.336
       0.409
       0.461
       0.458
       0.364
       0.184
      -0.021
      -0.165
      -0.195
      -0.120
       0.019
       0.180
       0.335
       0.451
       0.480
       0.389
       0.191
      -0.060
      -0.297
      -0.481
      -0.608
      -0.692
      -0.746
      -0.774
      -0.769
      -0.732
      -0.674
      -0.614
      -0.561
      -0.504
      -0.424
      -0.312
      -0.178
      -0.039
       0.099
       0.235
       0.362
       0.465
       0.535
       0.581
       0.623
       0.666
       0.689
       0.646
       0.509
       0.288
       0.026
      -0.239
      -0.493
      -0.739
      -0.960
      -1.121
      -1.195
      -1.189
