Origin Time       18/9/2011 12:40:47	
Lat.              27.6 N	
Long.             88.2 E	
Depth (Km)         10.0
Magnitude         6.8
 Region           India(Sikkim)-Nepar-Border                                       
 Above details taken from IMD 
     
Station Code      UDH
Station Lat.       28.997  N
Station Long.      79.403  E
Station Height(m)  213.0
Site Class        C   Vs30 between 200 m/sec to 375 m/sec *  
Record Time       18.09.2011 12:43:41.154
Sampling Rate     200. Hz
 Record Duration  113.745 Sec.
 Direction         E-W (E positive)
Max. Acceleration      2.178 cm/sec**2
     
  * For reference see Site Classification link of website 
     
 Base Line Corrected and Low Pass Filtered (Cut Off at 35 Hz) Time History
 Acceleration data in cm/sec**2
    
[...]
       0.028
      -0.008
      -0.054
      -0.113
      -0.181
      -0.254
      -0.332
      -0.411
      -0.483
      -0.538
      -0.570
      -0.581
      -0.576
      -0.557
      -0.527
      -0.488
      -0.437
      -0.374
      -0.298
      -0.208
      -0.098
       0.032
       0.180
       0.337
       0.496
       0.649
       0.785
       0.895
       0.979
       1.038
       1.075
       1.085
       1.069
       1.030
       0.974
       0.909
       0.840
       0.770
       0.698
       0.624
       0.550
       0.476
       0.400
       0.318
       0.232
       0.148
       0.064
      -0.020
      -0.103
      -0.181
      -0.250
      -0.311
      -0.368
      -0.422
      -0.475
      -0.523
      -0.557
      -0.565
      -0.543
      -0.499
      -0.442
      -0.382
      -0.321
      -0.261
      -0.203
      -0.146
      -0.089
      -0.035
       0.019
       0.071
       0.115
       0.144
       0.159
       0.169
       0.176
       0.180
       0.178
       0.173
       0.171
       0.175
       0.183
       0.190
       0.194
       0.199
       0.215
       0.249
       0.299
       0.361
       0.425
       0.486
       0.537
       0.571
       0.582
       0.571
       0.543
       0.505
       0.468
       0.435
       0.403
       0.365
       0.319
       0.269
       0.215
       0.156
       0.088
       0.009
      -0.081
      -0.179
      -0.281
      -0.378
      -0.467
      -0.551
      -0.629
      -0.697
      -0.747
      -0.777
      -0.792
      -0.795
      -0.788
      -0.770
      -0.739
      -0.696
      -0.646
      -0.593
      -0.538
      -0.468
      -0.379
      -0.277
      -0.179
      -0.100
      -0.043
      -0.003
       0.030
       0.066
       0.108
       0.147
       0.173
       0.181
       0.169
       0.139
       0.097
       0.049
      -0.003
      -0.063
      -0.128
      -0.192
      -0.248
      -0.298
      -0.344
      -0.385
      -0.419
      -0.443
      -0.455
      -0.453
      -0.437
      -0.408
      -0.370
      -0.327
      -0.287
      -0.256
      -0.234
      -0.217
      -0.204
      -0.198
      -0.200
      -0.202
      -0.195
      -0.179
      -0.160
      -0.150
      -0.154
      -0.170
      -0.194
      -0.217
      -0.231
      -0.231
      -0.212
      -0.176
      -0.127
      -0.073
      -0.022
       0.020
       0.049
       0.058
       0.043
       0.006
      -0.044
      -0.098
      -0.153
      -0.205
      -0.252
      -0.290
      -0.313
      -0.311
      -0.282
      -0.234
      -0.176
      -0.111
      -0.037
       0.045
       0.130
       0.208
       0.278
       0.336
       0.382
       0.414
       0.433
       0.438
       0.429
       0.412
       0.389
       0.354
       0.303
       0.231
       0.141
       0.039
      -0.065
      -0.161
      -0.244
      -0.319
      -0.396
      -0.479
      -0.563
      -0.635
      -0.688
      -0.718
      -0.722
      -0.703
      -0.662
      -0.599
      -0.518
      -0.427
      -0.333
      -0.239
      -0.142
      -0.048
       0.040
       0.118
       0.184
       0.238
       0.276
       0.306
       0.334
       0.362
       0.391
       0.424
       0.461
       0.504
       0.546
       0.589
       0.636
       0.693
       0.761
       0.835
       0.908
       0.972
       1.022
       1.063
       1.102
       1.138
       1.154
       1.137
       1.087
       1.015
       0.932
       0.841
       0.743
       0.636
       0.523
       0.415
       0.322
       0.245
       0.176
       0.112
       0.055
       0.000
      -0.063
      -0.146
      -0.248
      -0.357
      -0.458
      -0.548
      -0.628
      -0.702
      -0.764
      -0.804
      -0.813
      -0.793
      -0.745
      -0.668
      -0.560
      -0.431
      -0.300
      -0.181
      -0.075
       0.022
       0.106
       0.168
       0.201
       0.207
       0.198
       0.186
       0.179
       0.174
       0.169
       0.163
       0.156
       0.145
       0.127
       0.100
       0.074
       0.056
       0.049
       0.052
       0.066
       0.091
       0.121
       0.149
       0.167
       0.169
       0.153
       0.123
       0.090
       0.059
       0.030
       0.000
      -0.035
      -0.076
      -0.133
      -0.214
      -0.322
      -0.450
      -0.587
      -0.719
      -0.838
      -0.940
      -1.023
      -1.083
      -1.115
      -1.115
      -1.089
      -1.038
      -0.959
      -0.846
      -0.701
      -0.533
      -0.355
      -0.179
      -0.010
       0.144
       0.280
       0.390
       0.470
       0.523
       0.562
       0.598
       0.634
       0.666
       0.689
       0.701
       0.700
       0.682
       0.650
       0.608
       0.558
       0.501
       0.438
       0.368
       0.295
       0.222
       0.154
       0.093
       0.035
      -0.024
      -0.081
      -0.135
      -0.187
      -0.241
      -0.294
      -0.336
      -0.363
      -0.371
      -0.361
      -0.337
      -0.305
      -0.270
      -0.232
      -0.188
      -0.136
      -0.075
      -0.001
       0.086
       0.175
       0.254
       0.317
       0.366
       0.401
       0.421
       0.423
       0.407
       0.371
       0.317
       0.248
       0.168
       0.078
      -0.018
      -0.114
      -0.208
      -0.299
      -0.386
      -0.459
      -0.505
      -0.520
      -0.511
      -0.487
      -0.456
      -0.422
      -0.389
      -0.360
      -0.339
      -0.324
      -0.307
      -0.278
      -0.228
      -0.168
      -0.111
      -0.070
      -0.046
      -0.040
      -0.052
      -0.079
      -0.112
      -0.142
      -0.163
      -0.173
      -0.173
      -0.160
      -0.134
      -0.093
      -0.039
       0.020
       0.078
       0.136
       0.197
       0.253
       0.290
       0.301
       0.299
       0.303
       0.325
       0.363
       0.407
       0.450
       0.490
       0.530
       0.564
       0.585
       0.592
       0.591
       0.589
       0.586
       0.574
       0.552
       0.525
       0.496
       0.459
       0.409
       0.348
       0.287
       0.234
       0.190
       0.148
       0.096
       0.027
      -0.055
      -0.142
      -0.230
      -0.322
      -0.414
      -0.500
      -0.574
      -0.636
      -0.688
      -0.728
      -0.754
      -0.765
      -0.761
      -0.743
      -0.709
      -0.662
      -0.602
      -0.533
      -0.464
      -0.405
      -0.357
      -0.310
      -0.253
      -0.186
      -0.118
      -0.059
      -0.017
       0.007
       0.015
       0.010
      -0.005
      -0.025
      -0.044
      -0.053
      -0.051
      -0.044
      -0.040
      -0.038
      -0.039
      -0.044
      -0.057
      -0.073
      -0.082
      -0.075
      -0.051
      -0.015
       0.022
       0.051
       0.076
       0.103
       0.138
       0.174
       0.201
       0.215
       0.211
       0.187
       0.143
       0.082
       0.006
      -0.082
      -0.179
      -0.278
      -0.367
      -0.444
      -0.503
      -0.535
      -0.530
      -0.488
      -0.415
      -0.328
      -0.237
      -0.148
      -0.062
       0.018
       0.083
       0.130
       0.166
       0.212
       0.282
       0.371
       0.458
       0.523
       0.555
       0.554
       0.521
       0.458
       0.369
       0.257
       0.134
       0.009
      -0.111
      -0.222
      -0.319
      -0.393
      -0.443
      -0.471
      -0.480
      -0.474
      -0.454
      -0.425
      -0.396
      -0.367
      -0.325
      -0.261
      -0.169
      -0.056
       0.069
       0.193
       0.315
       0.438
       0.559
       0.667
       0.748
       0.800
       0.830
       0.841
       0.830
       0.797
       0.747
       0.691
       0.636
       0.583
       0.531
       0.472
       0.399
       0.307
       0.194
       0.057
      -0.097
      -0.252
      -0.387
      -0.487
      -0.548
      -0.572
      -0.558
      -0.504
      -0.410
      -0.282
      -0.130
       0.031
       0.189
       0.341
       0.487
       0.621
       0.736
       0.825
       0.889
       0.930
       0.952
       0.952
       0.921
       0.854
       0.750
       0.620
       0.476
       0.322
       0.158
      -0.009
      -0.168
      -0.307
      -0.423
      -0.514
      -0.582
      -0.627
      -0.651
      -0.655
      -0.638
      -0.603
      -0.552
      -0.483
      -0.393
      -0.285
      -0.172
      -0.065
       0.029
       0.107
       0.165
       0.199
       0.208
       0.199
       0.178
       0.150
       0.115
       0.072
       0.022
      -0.030
      -0.081
      -0.131
      -0.185
      -0.237
      -0.279
      -0.305
      -0.315
      -0.313
      -0.303
      -0.286
      -0.261
      -0.227
      -0.181
      -0.123
      -0.050
       0.044
       0.156
       0.275
       0.391
       0.507
       0.632
       0.768
       0.897
       0.994
       1.046
       1.062
       1.054
       1.031
       0.994
       0.942
       0.880
       0.817
       0.754
       0.681
       0.587
       0.475
       0.363
       0.268
       0.189
       0.117
       0.043
      -0.032
      -0.107
      -0.183
      -0.264
      -0.353
      -0.447
      -0.533
      -0.596
      -0.635
      -0.656
      -0.662
      -0.649
      -0.614
      -0.562
      -0.508
      -0.460
      -0.420
      -0.387
      -0.357
      -0.331
      -0.305
      -0.280
      -0.254
      -0.226
      -0.201
      -0.185
      -0.181
      -0.187
      -0.199
      -0.216
      -0.237
      -0.263
      -0.295
      -0.338
      -0.392
      -0.448
      -0.495
      -0.524
      -0.537
      -0.538
      -0.531
      -0.522
      -0.510
      -0.491
      -0.459
      -0.414
      -0.360
      -0.304
      -0.248
      -0.192
      -0.128
      -0.048
       0.045
       0.138
       0.214
       0.270
       0.315
       0.359
       0.402
       0.436
       0.459
       0.473
       0.486
       0.504
       0.522
       0.533
       0.536
       0.533
       0.527
       0.511
       0.484
       0.452
       0.424
       0.402
       0.377
       0.343
       0.298
       0.246
       0.191
       0.137
       0.084
       0.033
      -0.018
      -0.069
      -0.127
      -0.205
      -0.312
      -0.438
      -0.565
      -0.682
      -0.788
      -0.884
      -0.963
      -1.015
      -1.028
      -0.998
      -0.929
      -0.831
      -0.712
      -0.579
      -0.437
      -0.297
      -0.167
      -0.048
       0.066
       0.178
       0.284
       0.379
       0.459
       0.524
       0.573
       0.605
       0.618
       0.606
       0.568
       0.506
       0.426
       0.334
       0.234
       0.128
       0.017
      -0.094
      -0.198
      -0.284
      -0.342
      -0.374
      -0.385
      -0.381
      -0.357
      -0.313
      -0.255
      -0.194
      -0.134
      -0.074
      -0.012
       0.057
       0.132
       0.210
       0.285
       0.355
       0.418
       0.467
       0.490
       0.485
       0.457
       0.411
       0.348
       0.271
       0.192
       0.129
       0.090
       0.074
       0.076
       0.091
       0.119
       0.160
       0.205
       0.242
       0.260
       0.258
       0.246
       0.225
       0.193
       0.147
       0.096
       0.052
       0.015
      -0.023
      -0.075
      -0.149
      -0.243
      -0.348
      -0.461
      -0.582
      -0.711
      -0.840
      -0.953
      -1.038
      -1.098
      -1.139
      -1.166
      -1.176
      -1.163
      -1.118
      -1.033
      -0.911
      -0.759
      -0.588
      -0.410
      -0.242
      -0.105
      -0.009
       0.044
       0.064
       0.058
       0.034
       0.002
      -0.024
      -0.031
      -0.013
       0.029
       0.086
       0.147
       0.206
       0.264
       0.319
       0.364
       0.392
       0.401
       0.395
       0.380
       0.361
       0.342
       0.326
       0.311
       0.295
       0.281
       0.268
       0.255
       0.240
       0.222
       0.199
       0.171
       0.137
       0.107
       0.089
       0.084
       0.089
       0.101
       0.118
       0.136
       0.150
       0.156
       0.157
       0.160
       0.175
       0.214
       0.279
       0.365
       0.459
       0.551
       0.632
       0.692
       0.728
       0.741
       0.739
       0.727
       0.702
       0.665
       0.620
       0.575
       0.539
       0.518
       0.512
       0.517
       0.530
       0.554
       0.584
       0.610
       0.624
       0.627
       0.625
       0.623
       0.615
       0.591
       0.540
       0.458
       0.346
       0.210
       0.060
      -0.099
      -0.263
      -0.426
      -0.583
      -0.731
      -0.871
      -1.000
      -1.116
      -1.219
      -1.312
      -1.391
      -1.447
      -1.467
      -1.442
      -1.375
      -1.276
      -1.164
      -1.052
      -0.946
      -0.850
      -0.762
      -0.675
      -0.575
      -0.451
      -0.308
      -0.165
      -0.040
       0.054
       0.111
       0.127
       0.104
       0.054
      -0.010
      -0.076
      -0.134
      -0.180
      -0.211
      -0.232
      -0.251
      -0.276
      -0.314
      -0.363
      -0.411
      -0.442
      -0.452
      -0.441
      -0.411
      -0.356
      -0.268
      -0.143
       0.019
       0.214
       0.434
       0.671
       0.917
       1.166
       1.408
       1.630
       1.821
       1.976
       2.091
       2.160
       2.178
       2.148
       2.072
       1.956
       1.808
       1.639
       1.457
       1.262
       1.048
       0.817
       0.578
       0.346
       0.137
      -0.036
      -0.174
      -0.287
      -0.383
      -0.464
      -0.526
      -0.568
      -0.592
      -0.604
      -0.610
      -0.615
      -0.620
      -0.623
      -0.629
      -0.649
      -0.690
      -0.756
      -0.844
      -0.949
      -1.059
      -1.163
      -1.253
      -1.330
      -1.391
      -1.425
      -1.422
      -1.377
      -1.292
      -1.173
      -1.024
      -0.851
      -0.659
      -0.455
      -0.255
      -0.079
       0.059
       0.155
       0.211
       0.233
       0.228
       0.207
       0.176
       0.132
       0.069
      -0.010
      -0.101
      -0.199
      -0.299
      -0.394
      -0.479
      -0.553
      -0.614
      -0.664
      -0.700
      -0.722
      -0.722
      -0.695
      -0.638
      -0.554
      -0.448
      -0.323
      -0.183
      -0.035
       0.115
       0.263
       0.408
       0.547
       0.676
       0.787
       0.872
       0.919
       0.926
       0.906
       0.877
       0.854
       0.848
       0.861
       0.892
       0.934
       0.978
       1.016
       1.042
       1.046
       1.021
       0.968
       0.893
       0.805
       0.719
       0.645
       0.591
       0.553
       0.527
       0.513
       0.514
       0.525
       0.542
       0.560
       0.578
       0.595
       0.607
       0.612
       0.605
       0.584
       0.544
       0.484
       0.401
       0.295
       0.168
       0.028
      -0.121
      -0.281
      -0.456
      -0.638
      -0.809
      -0.949
      -1.047
      -1.103
      -1.121
      -1.102
      -1.049
      -0.962
      -0.848
      -0.717
      -0.579
      -0.435
      -0.287
      -0.143
      -0.012
       0.103
       0.205
       0.294
       0.369
       0.425
       0.466
       0.498
       0.527
       0.550
       0.560
       0.546
       0.501
       0.426
       0.325
       0.199
       0.048
      -0.117
      -0.285
      -0.445
      -0.598
      -0.743
      -0.871
      -0.970
      -1.030
      -1.046
      -1.026
      -0.978
      -0.913
      -0.835
      -0.750
      -0.666
      -0.584
      -0.497
      -0.393
      -0.271
      -0.144
      -0.024
       0.089
       0.202
       0.314
       0.417
       0.497
       0.544
       0.559
       0.548
       0.515
       0.457
       0.370
       0.255
       0.120
      -0.023
      -0.164
      -0.296
      -0.412
      -0.505
      -0.569
      -0.599
      -0.592
      -0.560
      -0.515
      -0.470
      -0.431
      -0.405
      -0.397
      -0.408
      -0.432
      -0.462
      -0.498
      -0.543
      -0.597
      -0.656
      -0.714
      -0.767
      -0.813
      -0.852
      -0.880
      -0.888
      -0.861
      -0.796
      -0.699
      -0.582
      -0.452
      -0.316
      -0.176
      -0.032
       0.114
       0.257
       0.385
       0.486
       0.562
       0.620
       0.670
       0.716
       0.758
       0.788
       0.794
       0.774
       0.737
       0.695
       0.653
       0.607
       0.553
       0.494
       0.438
       0.392
       0.362
       0.348
       0.352
       0.376
       0.421
       0.479
       0.534
       0.576
       0.606
       0.631
       0.649
       0.651
       0.629
       0.584
       0.519
       0.439
       0.351
       0.267
       0.198
       0.159
       0.159
       0.198
       0.263
       0.336
       0.402
       0.453
       0.487
       0.508
       0.523
       0.529
       0.522
       0.498
       0.463
       0.425
       0.390
       0.362
       0.344
       0.344
       0.361
       0.393
       0.432
       0.468
       0.491
       0.495
       0.483
       0.461
       0.433
       0.405
       0.386
       0.387
       0.413
       0.464
       0.530
       0.597
       0.652
       0.686
       0.698
       0.692
       0.667
       0.620
       0.553
       0.472
       0.384
       0.296
       0.211
       0.127
       0.035
      -0.070
      -0.185
      -0.304
      -0.421
      -0.531
      -0.630
      -0.716
      -0.788
      -0.852
      -0.911
      -0.969
      -1.028
      -1.089
      -1.148
      -1.199
      -1.232
      -1.238
      -1.210
      -1.147
      -1.061
      -0.973
      -0.900
      -0.849
      -0.823
      -0.819
      -0.830
      -0.845
      -0.849
      -0.833
      -0.795
      -0.743
      -0.691
      -0.651
      -0.625
      -0.606
      -0.592
      -0.576
      -0.554
      -0.518
      -0.461
      -0.382
      -0.280
      -0.157
      -0.020
       0.122
       0.267
       0.416
       0.567
       0.717
       0.863
       1.000
       1.121
       1.218
       1.287
       1.330
       1.349
       1.345
       1.315
       1.258
       1.176
       1.076
       0.965
       0.847
       0.720
       0.573
       0.408
       0.230
       0.045
      -0.143
      -0.331
      -0.510
      -0.672
      -0.809
      -0.922
      -1.010
      -1.074
      -1.113
      -1.121
      -1.096
      -1.041
      -0.960
      -0.855
      -0.722
      -0.566
      -0.400
      -0.239
      -0.096
       0.021
       0.106
       0.153
       0.167
       0.162
       0.151
       0.145
       0.148
       0.152
       0.150
       0.141
       0.124
       0.098
       0.062
       0.023
      -0.004
      -0.008
       0.012
       0.052
       0.111
       0.191
       0.284
       0.380
       0.468
       0.546
       0.612
       0.668
       0.711
       0.734
       0.735
       0.715
       0.679
       0.628
       0.555
       0.453
       0.331
       0.201
       0.070
      -0.058
      -0.183
      -0.300
      -0.408
      -0.503
      -0.581
