Origin Time       18/9/2011 12:40:47	 UTC
Lat.              27.6 N	
Long.             88.2 E	
Depth (Km)         10.0
Magnitude         6.8
 Region           India(Sikkim)-Nepar-Border                                       
 Above details taken from IMD 
    
Station Code      UDH
Station Lat.       28.997  N
Station Long.      79.403  E
Station Height(m)  213.0
Site Class        C   Vs30 between 200 m/sec to 375 m/sec *  
Record Time       18.09.2011 12:43:41.154 UTC
Sampling Rate     200. Hz
 Record Duration  113.745 Sec.
 Direction         N-S (N positive)
Max. Acceleration     -1.889 cm/sec**2
     
  * For reference see Site Classification link of website 
     
 Base Line Corrected and Low Pass Filtered (Cut Off at 35 Hz) Time History
 Acceleration data in cm/sec**2
    
[...]
       0.688
       0.513
       0.307
       0.073
      -0.179
      -0.439
      -0.695
      -0.937
      -1.154
      -1.333
      -1.466
      -1.552
      -1.596
      -1.610
      -1.611
      -1.615
      -1.628
      -1.640
      -1.639
      -1.611
      -1.551
      -1.460
      -1.341
      -1.209
      -1.078
      -0.964
      -0.874
      -0.808
      -0.758
      -0.718
      -0.682
      -0.652
      -0.625
      -0.598
      -0.566
      -0.530
      -0.495
      -0.466
      -0.441
      -0.414
      -0.374
      -0.310
      -0.218
      -0.106
       0.015
       0.136
       0.256
       0.375
       0.492
       0.605
       0.705
       0.784
       0.837
       0.862
       0.864
       0.845
       0.809
       0.763
       0.714
       0.670
       0.637
       0.623
       0.629
       0.648
       0.669
       0.681
       0.679
       0.663
       0.640
       0.618
       0.605
       0.604
       0.618
       0.650
       0.700
       0.764
       0.836
       0.907
       0.968
       1.007
       1.017
       0.995
       0.944
       0.867
       0.767
       0.654
       0.534
       0.412
       0.287
       0.158
       0.023
      -0.121
      -0.276
      -0.441
      -0.615
      -0.796
      -0.984
      -1.173
      -1.357
      -1.524
      -1.660
      -1.748
      -1.780
      -1.762
      -1.710
      -1.643
      -1.577
      -1.522
      -1.485
      -1.463
      -1.456
      -1.460
      -1.472
      -1.483
      -1.483
      -1.459
      -1.400
      -1.300
      -1.162
      -0.997
      -0.821
      -0.650
      -0.495
      -0.367
      -0.268
      -0.197
      -0.143
      -0.097
      -0.054
      -0.014
       0.024
       0.058
       0.092
       0.130
       0.176
       0.229
       0.286
       0.344
       0.400
       0.448
       0.488
       0.524
       0.563
       0.608
       0.655
       0.698
       0.731
       0.750
       0.753
       0.743
       0.724
       0.706
       0.693
       0.689
       0.699
       0.725
       0.769
       0.828
       0.891
       0.942
       0.969
       0.976
       0.975
       0.977
       0.983
       0.985
       0.971
       0.932
       0.861
       0.762
       0.640
       0.505
       0.365
       0.230
       0.108
       0.002
      -0.092
      -0.176
      -0.250
      -0.318
      -0.386
      -0.462
      -0.552
      -0.655
      -0.766
      -0.870
      -0.950
      -0.989
      -0.981
      -0.928
      -0.843
      -0.745
      -0.646
      -0.549
      -0.443
      -0.319
      -0.179
      -0.030
       0.116
       0.256
       0.389
       0.521
       0.651
       0.775
       0.887
       0.986
       1.074
       1.149
       1.202
       1.219
       1.195
       1.129
       1.027
       0.893
       0.737
       0.569
       0.399
       0.232
       0.066
      -0.106
      -0.292
      -0.489
      -0.685
      -0.867
      -1.021
      -1.140
      -1.218
      -1.258
      -1.268
      -1.250
      -1.206
      -1.136
      -1.046
      -0.946
      -0.845
      -0.756
      -0.687
      -0.639
      -0.603
      -0.561
      -0.495
      -0.392
      -0.254
      -0.094
       0.063
       0.198
       0.302
       0.379
       0.437
       0.484
       0.526
       0.563
       0.594
       0.617
       0.636
       0.657
       0.679
       0.702
       0.726
       0.747
       0.764
       0.775
       0.779
       0.779
       0.778
       0.770
       0.750
       0.708
       0.636
       0.532
       0.400
       0.248
       0.083
      -0.086
      -0.246
      -0.389
      -0.509
      -0.602
      -0.664
      -0.694
      -0.694
      -0.669
      -0.625
      -0.570
      -0.511
      -0.458
      -0.414
      -0.375
      -0.331
      -0.273
      -0.197
      -0.107
      -0.011
       0.081
       0.165
       0.239
       0.295
       0.324
       0.320
       0.278
       0.194
       0.067
      -0.099
      -0.293
      -0.498
      -0.694
      -0.856
      -0.967
      -1.013
      -0.991
      -0.903
      -0.765
      -0.594
      -0.411
      -0.224
      -0.038
       0.145
       0.316
       0.466
       0.590
       0.689
       0.775
       0.859
       0.948
       1.033
       1.102
       1.139
       1.135
       1.084
       0.980
       0.824
       0.619
       0.379
       0.115
      -0.158
      -0.427
      -0.682
      -0.917
      -1.124
      -1.297
      -1.429
      -1.514
      -1.550
      -1.537
      -1.480
      -1.387
      -1.261
      -1.105
      -0.926
      -0.733
      -0.539
      -0.352
      -0.186
      -0.052
       0.044
       0.102
       0.130
       0.135
       0.126
       0.112
       0.093
       0.067
       0.032
      -0.013
      -0.065
      -0.123
      -0.181
      -0.231
      -0.262
      -0.266
      -0.238
      -0.181
      -0.104
      -0.018
       0.074
       0.177
       0.296
       0.433
       0.580
       0.730
       0.872
       1.001
       1.110
       1.199
       1.264
       1.301
       1.305
       1.276
       1.214
       1.126
       1.022
       0.913
       0.799
       0.680
       0.554
       0.424
       0.292
       0.156
       0.018
      -0.114
      -0.228
      -0.307
      -0.337
      -0.312
      -0.234
      -0.115
       0.030
       0.182
       0.325
       0.445
       0.535
       0.599
       0.644
       0.676
       0.698
       0.712
       0.713
       0.699
       0.668
       0.616
       0.543
       0.448
       0.337
       0.214
       0.082
      -0.060
      -0.210
      -0.361
      -0.504
      -0.634
      -0.739
      -0.810
      -0.842
      -0.838
      -0.809
      -0.762
      -0.704
      -0.639
      -0.571
      -0.506
      -0.448
      -0.398
      -0.355
      -0.318
      -0.292
      -0.281
      -0.284
      -0.296
      -0.310
      -0.330
      -0.359
      -0.397
      -0.442
      -0.492
      -0.541
      -0.585
      -0.613
      -0.617
      -0.592
      -0.538
      -0.462
      -0.372
      -0.273
      -0.165
      -0.047
       0.074
       0.191
       0.298
       0.391
       0.467
       0.526
       0.570
       0.603
       0.625
       0.636
       0.636
       0.627
       0.608
       0.575
       0.527
       0.458
       0.367
       0.254
       0.131
       0.008
      -0.107
      -0.214
      -0.314
      -0.411
      -0.505
      -0.592
      -0.664
      -0.716
      -0.748
      -0.767
      -0.777
      -0.784
      -0.790
      -0.798
      -0.805
      -0.806
      -0.795
      -0.770
      -0.727
      -0.672
      -0.611
      -0.552
      -0.498
      -0.449
      -0.405
      -0.368
      -0.336
      -0.307
      -0.277
      -0.247
      -0.220
      -0.203
      -0.200
      -0.209
      -0.223
      -0.236
      -0.254
      -0.290
      -0.355
      -0.447
      -0.554
      -0.656
      -0.733
      -0.778
      -0.793
      -0.791
      -0.779
      -0.764
      -0.748
      -0.734
      -0.719
      -0.693
      -0.652
      -0.593
      -0.516
      -0.428
      -0.337
      -0.249
      -0.163
      -0.073
       0.029
       0.149
       0.288
       0.446
       0.619
       0.801
       0.984
       1.162
       1.327
       1.469
       1.580
       1.656
       1.692
       1.692
       1.663
       1.621
       1.583
       1.562
       1.564
       1.583
       1.602
       1.601
       1.571
       1.512
       1.430
       1.327
       1.203
       1.054
       0.877
       0.671
       0.445
       0.213
      -0.012
      -0.217
      -0.393
      -0.532
      -0.632
      -0.698
      -0.741
      -0.773
      -0.801
      -0.827
      -0.844
      -0.845
      -0.826
      -0.789
      -0.737
      -0.673
      -0.600
      -0.521
      -0.436
      -0.342
      -0.237
      -0.124
      -0.013
       0.085
       0.158
       0.204
       0.224
       0.229
       0.229
       0.234
       0.251
       0.284
       0.331
       0.384
       0.435
       0.480
       0.518
       0.545
       0.561
       0.567
       0.567
       0.560
       0.548
       0.535
       0.523
       0.513
       0.506
       0.499
       0.487
       0.464
       0.427
       0.377
       0.319
       0.261
       0.214
       0.189
       0.191
       0.217
       0.258
       0.304
       0.347
       0.377
       0.393
       0.395
       0.379
       0.343
       0.284
       0.209
       0.126
       0.038
      -0.055
      -0.156
      -0.271
      -0.398
      -0.531
      -0.655
      -0.757
      -0.828
      -0.864
      -0.868
      -0.849
      -0.820
      -0.792
      -0.766
      -0.740
      -0.707
      -0.663
      -0.603
      -0.524
      -0.423
      -0.301
      -0.167
      -0.030
       0.090
       0.183
       0.243
       0.278
       0.299
       0.318
       0.343
       0.374
       0.401
       0.414
       0.405
       0.372
       0.319
       0.253
       0.181
       0.107
       0.028
      -0.056
      -0.142
      -0.221
      -0.287
      -0.340
      -0.379
      -0.401
      -0.404
      -0.388
      -0.356
      -0.313
      -0.266
      -0.220
      -0.171
      -0.118
      -0.064
      -0.019
       0.006
       0.005
      -0.019
      -0.057
      -0.090
      -0.104
      -0.089
      -0.049
       0.006
       0.059
       0.097
       0.113
       0.115
       0.117
       0.129
       0.157
       0.201
       0.259
       0.323
       0.382
       0.423
       0.441
       0.438
       0.425
       0.413
       0.408
       0.409
       0.408
       0.401
       0.389
       0.372
       0.347
       0.308
       0.250
       0.165
       0.049
      -0.093
      -0.255
      -0.422
      -0.580
      -0.720
      -0.836
      -0.931
      -1.007
      -1.066
      -1.109
      -1.137
      -1.153
      -1.157
      -1.147
      -1.122
      -1.085
      -1.035
      -0.968
      -0.879
      -0.767
      -0.636
      -0.493
      -0.346
      -0.204
      -0.069
       0.062
       0.189
       0.310
       0.423
       0.521
       0.599
       0.652
       0.680
       0.685
       0.675
       0.653
       0.623
       0.586
       0.536
       0.468
       0.375
       0.267
       0.162
       0.082
       0.048
       0.068
       0.136
       0.235
       0.350
       0.464
       0.560
       0.617
       0.621
       0.565
       0.455
       0.303
       0.132
      -0.035
      -0.177
      -0.284
      -0.352
      -0.381
      -0.377
      -0.349
      -0.308
      -0.265
      -0.232
      -0.219
      -0.228
      -0.250
      -0.272
      -0.281
      -0.268
      -0.225
      -0.148
      -0.039
       0.096
       0.247
       0.400
       0.539
       0.650
       0.725
       0.762
       0.757
       0.714
       0.637
       0.538
       0.426
       0.306
       0.185
       0.064
      -0.052
      -0.164
      -0.277
      -0.395
      -0.523
      -0.660
      -0.797
      -0.925
      -1.032
      -1.106
      -1.136
      -1.119
      -1.059
      -0.968
      -0.857
      -0.738
      -0.623
      -0.524
      -0.445
      -0.388
      -0.350
      -0.334
      -0.336
      -0.352
      -0.370
      -0.381
      -0.378
      -0.367
      -0.360
      -0.365
      -0.379
      -0.393
      -0.394
      -0.372
      -0.317
      -0.223
      -0.096
       0.050
       0.201
       0.348
       0.488
       0.622
       0.748
       0.864
       0.965
       1.046
       1.107
       1.152
       1.180
       1.193
       1.189
       1.163
       1.113
       1.037
       0.937
       0.822
       0.697
       0.566
       0.435
       0.307
       0.188
       0.084
      -0.001
      -0.066
      -0.119
      -0.167
      -0.209
      -0.236
      -0.237
      -0.208
      -0.149
      -0.073
       0.006
       0.079
       0.146
       0.217
       0.298
       0.394
       0.506
       0.628
       0.752
       0.860
       0.936
       0.971
       0.963
       0.923
       0.860
       0.778
       0.670
       0.526
       0.347
       0.144
      -0.064
      -0.255
      -0.413
      -0.530
      -0.609
      -0.661
      -0.698
      -0.728
      -0.755
      -0.777
      -0.786
      -0.776
      -0.749
      -0.714
      -0.676
      -0.637
      -0.598
      -0.555
      -0.505
      -0.447
      -0.386
      -0.327
      -0.275
      -0.232
      -0.201
      -0.184
      -0.179
      -0.185
      -0.202
      -0.225
      -0.246
      -0.261
      -0.269
      -0.271
      -0.266
      -0.249
      -0.218
      -0.173
      -0.122
      -0.068
      -0.016
       0.027
       0.061
       0.083
       0.094
       0.093
       0.084
       0.071
       0.061
       0.057
       0.063
       0.085
       0.125
       0.181
       0.251
       0.328
       0.407
       0.484
       0.556
       0.617
       0.657
       0.674
       0.671
       0.660
       0.648
       0.636
       0.618
       0.592
       0.558
       0.520
       0.484
       0.450
       0.419
       0.391
       0.370
       0.363
       0.366
       0.368
       0.360
       0.339
       0.314
       0.301
       0.311
       0.348
       0.403
       0.458
       0.499
       0.520
       0.516
       0.486
       0.433
       0.358
       0.265
       0.152
       0.021
      -0.123
      -0.272
      -0.418
      -0.555
      -0.683
      -0.808
      -0.940
      -1.082
      -1.230
      -1.378
      -1.517
      -1.645
      -1.754
      -1.837
      -1.885
      -1.889
      -1.840
      -1.737
      -1.584
      -1.393
      -1.181
      -0.965
      -0.765
      -0.591
      -0.443
      -0.312
      -0.194
      -0.082
       0.024
       0.123
       0.215
       0.300
       0.385
       0.474
       0.566
       0.653
       0.726
       0.779
       0.811
       0.825
       0.831
       0.841
       0.861
       0.894
       0.940
       0.994
       1.052
       1.115
       1.180
       1.243
       1.293
       1.315
       1.291
       1.210
       1.065
       0.862
       0.613
       0.338
       0.060
      -0.197
      -0.415
      -0.587
      -0.721
      -0.830
      -0.925
      -1.009
      -1.083
      -1.145
      -1.191
      -1.218
      -1.221
      -1.195
      -1.137
      -1.051
      -0.948
      -0.842
      -0.743
      -0.657
      -0.589
      -0.535
      -0.487
      -0.436
      -0.378
      -0.315
      -0.249
      -0.181
      -0.113
      -0.050
       0.000
       0.030
       0.039
       0.028
       0.009
      -0.005
      -0.001
       0.033
       0.102
       0.199
       0.307
       0.409
       0.498
       0.581
       0.670
       0.772
       0.888
       1.009
       1.116
       1.193
       1.231
       1.234
       1.201
       1.132
       1.024
       0.877
       0.701
       0.510
       0.324
       0.158
       0.017
      -0.103
      -0.206
      -0.301
      -0.389
      -0.469
      -0.531
      -0.567
      -0.572
      -0.549
      -0.504
      -0.445
      -0.378
      -0.306
      -0.230
      -0.146
      -0.056
       0.032
       0.110
       0.164
       0.186
       0.168
       0.112
       0.027
      -0.071
      -0.170
      -0.259
      -0.329
      -0.380
      -0.412
      -0.434
      -0.452
      -0.470
      -0.486
      -0.493
      -0.487
      -0.471
      -0.454
      -0.436
      -0.411
      -0.371
      -0.315
      -0.250
      -0.192
      -0.148
      -0.120
      -0.098
      -0.070
      -0.032
       0.014
       0.056
       0.079
       0.065
       0.002
      -0.112
      -0.259
      -0.416
      -0.564
      -0.690
      -0.790
      -0.869
      -0.933
      -0.981
      -1.005
      -0.993
      -0.935
      -0.827
      -0.673
      -0.481
      -0.263
      -0.028
       0.214
       0.450
       0.664
       0.843
       0.986
       1.095
       1.171
       1.214
       1.224
       1.202
       1.152
       1.081
       0.995
       0.901
       0.802
       0.702
       0.602
       0.499
       0.388
       0.268
       0.146
       0.031
      -0.071
      -0.162
      -0.242
      -0.309
      -0.356
      -0.370
      -0.346
      -0.285
      -0.196
      -0.094
       0.012
       0.115
       0.210
       0.289
       0.345
       0.373
       0.373
       0.351
       0.318
       0.279
       0.235
       0.183
       0.122
       0.056
      -0.009
      -0.067
      -0.116
      -0.149
      -0.158
      -0.135
      -0.071
       0.033
       0.166
       0.315
       0.465
       0.609
       0.743
       0.862
       0.967
       1.054
       1.120
       1.159
       1.165
       1.134
       1.066
       0.970
       0.861
       0.751
       0.639
       0.522
       0.398
       0.267
       0.132
      -0.009
      -0.158
      -0.317
      -0.488
      -0.666
      -0.837
      -0.979
      -1.075
      -1.116
      -1.105
      -1.061
      -1.004
      -0.951
      -0.908
      -0.869
      -0.832
      -0.792
      -0.743
      -0.683
      -0.617
      -0.553
      -0.496
      -0.447
      -0.406
      -0.372
      -0.345
      -0.322
      -0.302
      -0.283
      -0.264
      -0.246
      -0.234
      -0.229
      -0.229
      -0.229
      -0.228
      -0.227
      -0.224
      -0.208
      -0.169
      -0.094
       0.021
       0.167
       0.323
       0.465
       0.576
       0.655
       0.710
       0.751
       0.789
       0.828
       0.866
       0.894
       0.910
       0.911
       0.899
       0.873
       0.837
       0.793
       0.742
       0.686
       0.626
       0.557
       0.470
       0.360
       0.229
       0.092
      -0.036
      -0.143
      -0.226
      -0.288
      -0.337
      -0.379
      -0.414
      -0.436
      -0.439
      -0.420
      -0.383
      -0.338
      -0.294
      -0.258
      -0.227
      -0.191
      -0.140
      -0.064
       0.039
       0.169
       0.322
       0.485
       0.645
       0.790
       0.908
       0.989
       1.026
       1.017
       0.967
       0.890
       0.804
       0.720
       0.640
       0.559
       0.471
       0.375
       0.272
       0.164
       0.054
      -0.055
      -0.160
      -0.264
      -0.373
      -0.493
      -0.626
      -0.771
      -0.922
      -1.066
      -1.195
      -1.298
      -1.372
      -1.421
      -1.452
      -1.470
      -1.477
      -1.468
      -1.439
      -1.393
      -1.333
      -1.267
      -1.200
      -1.137
      -1.079
      -1.020
      -0.955
      -0.884
      -0.810
      -0.726
      -0.626
      -0.504
      -0.365
      -0.221
      -0.088
       0.021
       0.103
       0.162
       0.206
       0.245
       0.288
       0.345
       0.421
       0.510
       0.601
       0.682
       0.748
       0.801
       0.850
       0.908
       0.980
       1.059
       1.133
       1.188
       1.213
       1.201
       1.155
       1.083
       0.991
       0.882
       0.753
       0.607
       0.449
       0.287
       0.129
      -0.018
      -0.149
      -0.255
      -0.322
      -0.338
      -0.302
      -0.222
      -0.115
       0.004
       0.120
       0.224
       0.311
       0.379
       0.430
       0.467
       0.488
       0.496
       0.496
       0.494
       0.493
       0.493
       0.490
       0.476
       0.448
       0.407
