Origin Time       28/5/2010 07:25:06	
Lat.              31.2 N	
Long.             77.9 E	
Depth (Km)         43.0
Magnitude         4.8
 Region           Himachal                                                         
 Above details taken from USGS
     
Station Code      UNA
Station Lat.       31.466  N
Station Long.      76.263  E
Station Height(m)  351.0
Site Class        C   Vs30 between 200 m/sec to 375 m/sec *  
Record Time       28.05.2010 07:25:21.669
Sampling Rate     200. Hz
 Record Duration   80.205 Sec.
 Direction         E-W (E positive)
Max. Acceleration      1.864 cm/sec**2
     
  * For reference see Site Classification link of website 
     
 Base Line Corrected and Low Pass Filtered (Cut Off at 35 Hz) Time History
 Acceleration data in cm/sec**2
    
[...]
       0.009
       0.008
      -0.003
      -0.024
      -0.050
      -0.064
      -0.052
      -0.018
       0.014
       0.023
       0.002
      -0.034
      -0.063
      -0.068
      -0.045
      -0.003
       0.042
       0.074
       0.076
       0.046
       0.006
      -0.012
       0.007
       0.050
       0.089
       0.106
       0.099
       0.081
       0.067
       0.071
       0.093
       0.118
       0.128
       0.111
       0.067
       0.008
      -0.045
      -0.074
      -0.076
      -0.065
      -0.056
      -0.055
      -0.060
      -0.060
      -0.051
      -0.033
      -0.015
      -0.004
       0.000
       0.000
      -0.006
      -0.024
      -0.050
      -0.070
      -0.070
      -0.050
      -0.018
       0.014
       0.032
       0.029
       0.011
      -0.003
       0.000
       0.018
       0.033
       0.029
       0.001
      -0.041
      -0.076
      -0.088
      -0.078
      -0.057
      -0.040
      -0.026
      -0.012
       0.005
       0.024
       0.044
       0.063
       0.079
       0.087
       0.079
       0.050
       0.002
      -0.045
      -0.068
      -0.062
      -0.044
      -0.031
      -0.032
      -0.040
      -0.043
      -0.037
      -0.025
      -0.012
       0.001
       0.014
       0.024
       0.027
       0.022
       0.020
       0.031
       0.054
       0.075
       0.085
       0.083
       0.069
       0.048
       0.029
       0.026
       0.047
       0.083
       0.118
       0.131
       0.113
       0.074
       0.034
       0.013
       0.008
       0.003
      -0.016
      -0.048
      -0.083
      -0.110
      -0.122
      -0.117
      -0.100
      -0.077
      -0.055
      -0.043
      -0.049
      -0.064
      -0.067
      -0.044
      -0.001
       0.043
       0.071
       0.080
       0.074
       0.061
       0.050
       0.048
       0.056
       0.065
       0.066
       0.052
       0.026
      -0.004
      -0.021
      -0.021
      -0.009
       0.003
       0.010
       0.009
       0.000
      -0.015
      -0.026
      -0.021
       0.006
       0.042
       0.065
       0.056
       0.020
      -0.017
      -0.029
      -0.013
       0.008
       0.013
       0.004
      -0.004
      -0.002
       0.005
       0.006
      -0.002
      -0.010
      -0.006
       0.009
       0.018
       0.008
      -0.014
      -0.025
      -0.015
       0.004
       0.014
       0.010
       0.001
      -0.005
      -0.008
      -0.012
      -0.019
      -0.021
      -0.010
       0.011
       0.028
       0.024
       0.004
      -0.010
      -0.006
       0.006
       0.008
      -0.009
      -0.037
      -0.061
      -0.075
      -0.076
      -0.063
      -0.038
      -0.004
       0.027
       0.041
       0.035
       0.021
       0.020
       0.036
       0.057
       0.068
       0.062
       0.048
       0.035
       0.030
       0.033
       0.040
       0.046
       0.049
       0.048
       0.037
       0.019
       0.006
       0.013
       0.039
       0.069
       0.082
       0.070
       0.041
       0.012
      -0.004
      -0.001
       0.012
       0.022
       0.021
       0.006
      -0.016
      -0.032
      -0.028
      -0.006
       0.012
       0.003
      -0.033
      -0.074
      -0.096
      -0.099
      -0.096
      -0.097
      -0.098
      -0.090
      -0.070
      -0.046
      -0.028
      -0.019
      -0.009
       0.012
       0.041
       0.064
       0.071
       0.062
       0.050
       0.049
       0.056
       0.062
       0.057
       0.043
       0.030
       0.020
       0.011
       0.000
      -0.004
       0.002
       0.008
       0.004
      -0.013
      -0.034
      -0.050
      -0.057
      -0.055
      -0.047
      -0.038
      -0.031
      -0.027
      -0.024
      -0.022
      -0.014
       0.006
       0.037
       0.063
       0.070
       0.059
       0.043
       0.035
       0.039
       0.048
       0.052
       0.052
       0.052
       0.056
       0.057
       0.046
       0.025
       0.012
       0.020
       0.041
       0.059
       0.062
       0.049
       0.029
       0.012
       0.004
       0.005
       0.007
       0.004
      -0.009
      -0.029
      -0.050
      -0.062
      -0.057
      -0.041
      -0.029
      -0.031
      -0.047
      -0.064
      -0.069
      -0.057
      -0.034
      -0.011
       0.007
       0.021
       0.037
       0.048
       0.044
       0.028
       0.017
       0.021
       0.037
       0.048
       0.042
       0.021
       0.001
      -0.003
       0.013
       0.037
       0.058
       0.065
       0.056
       0.034
       0.008
      -0.005
       0.002
       0.024
       0.038
       0.030
       0.001
      -0.034
      -0.058
      -0.062
      -0.048
      -0.030
      -0.017
      -0.014
      -0.016
      -0.023
      -0.032
      -0.037
      -0.032
      -0.020
      -0.010
      -0.013
      -0.029
      -0.049
      -0.058
      -0.043
      -0.005
       0.044
       0.085
       0.106
       0.100
       0.069
       0.025
      -0.009
      -0.019
      -0.011
      -0.004
      -0.009
      -0.025
      -0.037
      -0.035
      -0.016
       0.012
       0.040
       0.056
       0.057
       0.040
       0.010
      -0.021
      -0.037
      -0.027
      -0.003
       0.016
       0.016
      -0.003
      -0.027
      -0.044
      -0.047
      -0.038
      -0.017
       0.012
       0.047
       0.076
       0.085
       0.074
       0.058
       0.055
       0.063
       0.071
       0.066
       0.046
       0.018
      -0.004
      -0.008
       0.008
       0.036
       0.063
       0.076
       0.063
       0.023
      -0.029
      -0.065
      -0.072
      -0.058
      -0.045
      -0.044
      -0.050
      -0.049
      -0.032
       0.003
       0.044
       0.077
       0.092
       0.087
       0.063
       0.027
      -0.008
      -0.022
      -0.010
       0.017
       0.039
       0.046
       0.041
       0.034
       0.033
       0.041
       0.052
       0.059
       0.063
       0.060
       0.044
       0.014
      -0.016
      -0.025
      -0.010
       0.008
       0.003
      -0.031
      -0.080
      -0.115
      -0.122
      -0.101
      -0.064
      -0.027
       0.002
       0.016
       0.015
       0.002
      -0.010
      -0.010
       0.001
       0.011
       0.008
      -0.009
      -0.028
      -0.039
      -0.035
      -0.016
       0.010
       0.035
       0.056
       0.067
       0.064
       0.052
       0.046
       0.057
       0.084
       0.106
       0.108
       0.087
       0.053
       0.019
      -0.009
      -0.031
      -0.042
      -0.039
      -0.022
      -0.004
      -0.001
      -0.014
      -0.029
      -0.029
      -0.013
       0.003
       0.008
      -0.001
      -0.018
      -0.036
      -0.051
      -0.060
      -0.059
      -0.048
      -0.030
      -0.014
      -0.006
      -0.005
       0.001
       0.016
       0.031
       0.034
       0.024
       0.012
       0.005
       0.006
       0.013
       0.022
       0.034
       0.047
       0.057
       0.051
       0.026
      -0.012
      -0.039
      -0.043
      -0.033
      -0.027
      -0.040
      -0.066
      -0.093
      -0.102
      -0.087
      -0.051
      -0.007
       0.033
       0.061
       0.073
       0.070
       0.062
       0.065
       0.084
       0.107
       0.109
       0.077
       0.024
      -0.023
      -0.042
      -0.030
      -0.004
       0.018
       0.024
       0.014
      -0.013
      -0.048
      -0.070
      -0.059
      -0.017
       0.031
       0.059
       0.056
       0.033
       0.005
      -0.016
      -0.023
      -0.018
      -0.011
      -0.010
      -0.018
      -0.034
      -0.048
      -0.046
      -0.021
       0.015
       0.038
       0.032
       0.008
      -0.015
      -0.022
      -0.011
       0.004
       0.012
       0.007
      -0.008
      -0.029
      -0.053
      -0.076
      -0.087
      -0.079
      -0.055
      -0.030
      -0.016
      -0.011
      -0.004
       0.010
       0.031
       0.053
       0.067
       0.069
       0.060
       0.044
       0.022
      -0.001
      -0.015
      -0.012
      -0.001
       0.005
      -0.006
      -0.032
      -0.061
      -0.082
      -0.089
      -0.081
      -0.064
      -0.045
      -0.029
      -0.025
      -0.038
      -0.062
      -0.076
      -0.065
      -0.030
       0.006
       0.021
       0.007
      -0.027
      -0.063
      -0.086
      -0.090
      -0.073
      -0.040
       0.000
       0.030
       0.034
       0.012
      -0.014
      -0.022
      -0.009
       0.011
       0.019
       0.007
      -0.019
      -0.047
      -0.063
      -0.061
      -0.043
      -0.016
       0.013
       0.035
       0.044
       0.041
       0.040
       0.049
       0.067
       0.082
       0.087
       0.082
       0.079
       0.084
       0.102
       0.123
       0.140
       0.147
       0.142
       0.119
       0.075
       0.022
      -0.019
      -0.035
      -0.033
      -0.033
      -0.049
      -0.082
      -0.123
      -0.158
      -0.174
      -0.167
      -0.145
      -0.119
      -0.099
      -0.090
      -0.086
      -0.079
      -0.061
      -0.036
      -0.019
      -0.017
      -0.027
      -0.040
      -0.047
      -0.047
      -0.041
      -0.029
      -0.014
       0.001
       0.014
       0.019
       0.021
       0.030
       0.054
       0.086
       0.108
       0.104
       0.079
       0.048
       0.029
       0.033
       0.057
       0.088
       0.112
       0.120
       0.110
       0.079
       0.031
      -0.019
      -0.055
      -0.076
      -0.091
      -0.106
      -0.117
      -0.112
      -0.085
      -0.040
       0.014
       0.064
       0.100
       0.117
       0.109
       0.073
       0.016
      -0.037
      -0.068
      -0.074
      -0.072
      -0.078
      -0.092
      -0.106
      -0.110
      -0.098
      -0.073
      -0.040
      -0.008
       0.018
       0.027
       0.015
      -0.013
      -0.033
      -0.028
      -0.001
       0.027
       0.036
       0.027
       0.015
       0.015
       0.034
       0.061
       0.083
       0.093
       0.089
       0.073
       0.047
       0.022
       0.017
       0.043
       0.092
       0.140
       0.167
       0.172
       0.166
       0.164
       0.170
       0.183
       0.196
       0.199
       0.184
       0.140
       0.069
      -0.013
      -0.082
      -0.124
      -0.149
      -0.176
      -0.219
      -0.275
      -0.328
      -0.355
      -0.346
      -0.305
      -0.251
      -0.199
      -0.157
      -0.125
      -0.099
      -0.071
      -0.034
       0.010
       0.046
       0.063
       0.060
       0.051
       0.049
       0.064
       0.092
       0.121
       0.141
       0.151
       0.153
       0.156
       0.166
       0.189
       0.224
       0.260
       0.278
       0.271
       0.245
       0.210
       0.174
       0.141
       0.114
       0.098
       0.092
       0.090
       0.086
       0.073
       0.056
       0.049
       0.065
       0.101
       0.141
       0.164
       0.161
       0.133
       0.090
       0.045
       0.000
      -0.043
      -0.087
      -0.134
      -0.188
      -0.258
      -0.349
      -0.448
      -0.535
      -0.597
      -0.637
      -0.666
      -0.698
      -0.732
      -0.759
      -0.769
      -0.756
      -0.728
      -0.693
      -0.660
      -0.633
      -0.610
      -0.580
      -0.519
      -0.411
      -0.259
      -0.083
       0.095
       0.268
       0.438
       0.617
       0.812
       1.018
       1.217
       1.391
       1.526
       1.616
       1.658
       1.657
       1.627
       1.580
       1.513
       1.408
       1.250
       1.038
       0.787
       0.516
       0.245
      -0.019
      -0.276
      -0.529
      -0.776
      -1.015
      -1.238
      -1.430
      -1.569
      -1.646
      -1.671
      -1.664
      -1.641
      -1.605
      -1.547
      -1.463
      -1.349
      -1.207
      -1.044
      -0.871
      -0.706
      -0.567
      -0.454
      -0.347
      -0.219
      -0.064
       0.103
       0.251
       0.367
       0.458
       0.544
       0.639
       0.745
       0.855
       0.956
       1.041
       1.107
       1.153
       1.178
       1.188
       1.192
       1.187
       1.163
       1.106
       1.015
       0.894
       0.750
       0.584
       0.403
       0.209
       0.007
      -0.198
      -0.406
      -0.611
      -0.797
      -0.939
      -1.019
      -1.042
      -1.034
      -1.018
      -0.998
      -0.964
      -0.907
      -0.825
      -0.726
      -0.618
      -0.505
      -0.386
      -0.265
      -0.152
      -0.062
       0.011
       0.082
       0.164
       0.249
       0.317
       0.354
       0.359
       0.344
       0.325
       0.318
       0.325
       0.342
       0.354
       0.344
       0.296
       0.212
       0.111
       0.020
      -0.050
      -0.109
      -0.173
      -0.252
      -0.334
      -0.402
      -0.437
      -0.431
      -0.390
      -0.331
      -0.271
      -0.221
      -0.184
      -0.159
      -0.140
      -0.125
      -0.122
      -0.142
      -0.190
      -0.260
      -0.338
      -0.407
      -0.455
      -0.477
      -0.470
      -0.438
      -0.386
      -0.317
      -0.232
      -0.122
       0.027
       0.220
       0.442
       0.666
       0.871
       1.053
       1.219
       1.377
       1.529
       1.665
       1.773
       1.841
       1.864
       1.836
       1.754
       1.623
       1.457
       1.265
       1.050
       0.803
       0.527
       0.231
      -0.067
      -0.351
      -0.603
      -0.811
      -0.968
      -1.077
      -1.150
      -1.202
      -1.246
      -1.278
      -1.286
      -1.266
      -1.228
      -1.188
      -1.155
      -1.125
      -1.095
      -1.061
      -1.019
      -0.962
      -0.879
      -0.762
      -0.617
      -0.458
      -0.302
      -0.152
       0.004
       0.174
       0.352
       0.516
       0.648
       0.738
       0.787
       0.804
       0.798
       0.780
       0.754
       0.721
       0.674
       0.605
       0.514
       0.419
       0.344
       0.303
       0.282
       0.260
       0.221
       0.168
       0.114
       0.076
       0.061
       0.068
       0.086
       0.099
       0.093
       0.059
      -0.001
      -0.071
      -0.132
      -0.177
      -0.218
      -0.270
      -0.338
      -0.420
      -0.512
      -0.608
      -0.701
      -0.780
      -0.837
      -0.871
      -0.892
      -0.913
      -0.932
      -0.927
      -0.878
      -0.786
      -0.674
      -0.567
      -0.478
      -0.400
      -0.313
      -0.198
      -0.046
       0.136
       0.328
       0.504
       0.644
       0.742
       0.812
       0.879
       0.954
       1.026
       1.070
       1.071
       1.036
       0.979
       0.911
       0.837
       0.757
       0.668
       0.568
       0.453
       0.324
       0.183
       0.042
      -0.086
      -0.196
      -0.298
      -0.410
      -0.537
      -0.670
      -0.792
      -0.889
      -0.960
      -1.008
      -1.036
      -1.042
      -1.018
      -0.962
      -0.879
      -0.774
      -0.649
      -0.507
      -0.359
      -0.212
      -0.072
       0.058
       0.170
       0.257
       0.315
       0.352
       0.374
       0.385
       0.385
       0.379
       0.381
       0.411
       0.483
       0.593
       0.714
       0.822
       0.908
       0.974
       1.021
       1.044
       1.034
       0.983
       0.888
       0.749
       0.566
       0.347
       0.103
      -0.139
      -0.355
      -0.535
      -0.689
      -0.824
      -0.938
      -1.018
      -1.057
      -1.057
      -1.020
      -0.949
      -0.843
      -0.702
      -0.537
      -0.364
      -0.192
      -0.020
       0.159
       0.337
       0.490
       0.592
       0.636
       0.631
       0.594
       0.538
       0.474
       0.405
       0.330
       0.243
       0.134
       0.000
      -0.147
      -0.281
      -0.380
      -0.441
      -0.485
      -0.529
      -0.577
      -0.618
      -0.632
      -0.603
      -0.526
      -0.414
      -0.280
      -0.139
       0.001
       0.134
       0.257
       0.376
       0.493
       0.597
       0.662
       0.672
       0.628
       0.546
       0.442
       0.326
       0.203
       0.077
      -0.044
      -0.154
      -0.250
      -0.331
      -0.393
      -0.432
      -0.448
      -0.445
      -0.438
      -0.430
      -0.418
      -0.395
      -0.355
      -0.301
      -0.235
      -0.162
      -0.086
      -0.013
       0.044
       0.080
       0.103
       0.131
       0.176
       0.235
       0.291
       0.334
       0.367
       0.397
       0.433
       0.475
       0.517
       0.547
       0.559
       0.551
       0.523
       0.470
       0.398
       0.324
       0.261
       0.208
       0.146
       0.064
      -0.035
      -0.138
      -0.229
      -0.294
      -0.329
      -0.336
      -0.321
      -0.297
      -0.274
      -0.259
      -0.245
      -0.217
      -0.166
      -0.108
      -0.069
      -0.068
      -0.104
      -0.159
      -0.210
      -0.240
      -0.243
      -0.223
      -0.188
      -0.148
      -0.112
      -0.083
      -0.052
      -0.004
       0.063
       0.137
       0.197
       0.230
       0.240
       0.241
       0.246
       0.264
       0.290
       0.311
       0.315
       0.293
       0.244
       0.174
       0.098
       0.030
      -0.027
      -0.080
      -0.137
      -0.197
      -0.250
      -0.287
      -0.305
      -0.309
      -0.310
      -0.322
      -0.351
      -0.395
      -0.445
      -0.479
      -0.472
      -0.412
      -0.313
      -0.200
      -0.097
      -0.007
       0.074
       0.154
       0.236
       0.316
       0.386
       0.437
       0.463
       0.461
       0.436
       0.399
       0.365
       0.347
       0.336
       0.317
       0.275
       0.215
       0.150
       0.092
       0.044
       0.001
      -0.047
      -0.102
      -0.164
      -0.227
      -0.289
      -0.342
      -0.372
      -0.369
      -0.331
      -0.272
      -0.203
      -0.128
      -0.044
       0.052
       0.161
       0.281
       0.400
       0.503
       0.571
       0.588
       0.548
       0.463
       0.365
       0.278
       0.203
       0.118
       0.003
      -0.142
      -0.292
      -0.422
      -0.514
      -0.572
      -0.607
      -0.632
      -0.653
      -0.676
      -0.701
      -0.719
      -0.711
      -0.666
      -0.590
      -0.500
      -0.410
      -0.326
      -0.251
      -0.178
      -0.099
      -0.003
       0.109
       0.228
       0.342
       0.436
       0.505
       0.556
       0.602
       0.650
       0.688
       0.696
       0.663
       0.596
       0.507
       0.410
       0.316
       0.231
       0.154
       0.078
      -0.007
      -0.106
      -0.214
      -0.311
      -0.374
      -0.399
      -0.399
      -0.395
      -0.394
      -0.391
      -0.377
      -0.342
      -0.282
      -0.203
      -0.119
      -0.042
       0.024
       0.084
       0.150
       0.232
       0.333
       0.442
       0.530
       0.575
       0.574
       0.546
       0.510
       0.479
       0.446
       0.397
       0.320
