Origin Time       28/5/2010 07:25:06	
Lat.              31.2 N	
Long.             77.9 E	
Depth (Km)         43.0
Magnitude         4.8
 Region           Himachal                                                         
 Above details taken from USGS
   
Station Code      UNA
Station Lat.       31.466
Station Long.      76.263
Station Height(m)  351.0
Site Class        C   Vs30 between 200 m/sec to 375 m/sec *  
Record Time       28.05.2010 07:25:21.669
Sampling Rate     200. Hz
 Record Duration   80.205 Sec.
 Direction         Vert. (Up positive)
Max. Acceleration     -2.456 cm/sec**2
     
  * For reference see Site Classification link of website 
     
 Base Line Corrected and Low Pass Filtered (Cut Off at 35 Hz) Time History
 Acceleration data in cm/sec**2
    
[...]
       0.049
       0.006
      -0.036
      -0.041
       0.005
       0.080
       0.138
       0.148
       0.110
       0.049
      -0.003
      -0.028
      -0.023
      -0.005
       0.004
      -0.020
      -0.087
      -0.179
      -0.257
      -0.274
      -0.215
      -0.104
       0.007
       0.072
       0.080
       0.055
       0.043
       0.064
       0.104
       0.125
       0.107
       0.061
       0.007
      -0.043
      -0.081
      -0.089
      -0.050
       0.029
       0.115
       0.165
       0.162
       0.123
       0.082
       0.069
       0.094
       0.149
       0.206
       0.231
       0.199
       0.115
       0.017
      -0.051
      -0.075
      -0.078
      -0.095
      -0.142
      -0.207
      -0.258
      -0.263
      -0.206
      -0.100
       0.018
       0.107
       0.135
       0.100
       0.030
      -0.030
      -0.047
      -0.021
       0.020
       0.037
       0.009
      -0.054
      -0.114
      -0.130
      -0.079
       0.030
       0.159
       0.265
       0.310
       0.277
       0.184
       0.079
       0.008
      -0.021
      -0.036
      -0.075
      -0.149
      -0.230
      -0.278
      -0.267
      -0.205
      -0.124
      -0.057
      -0.026
      -0.039
      -0.092
      -0.155
      -0.188
      -0.161
      -0.081
       0.012
       0.074
       0.093
       0.090
       0.099
       0.137
       0.197
       0.258
       0.297
       0.295
       0.239
       0.136
       0.022
      -0.051
      -0.051
       0.001
       0.050
       0.048
      -0.007
      -0.071
      -0.097
      -0.067
      -0.009
       0.032
       0.033
       0.005
      -0.025
      -0.040
      -0.044
      -0.048
      -0.051
      -0.043
      -0.020
       0.005
       0.010
      -0.011
      -0.035
      -0.029
       0.018
       0.085
       0.136
       0.148
       0.114
       0.045
      -0.033
      -0.087
      -0.099
      -0.078
      -0.057
      -0.065
      -0.104
      -0.142
      -0.134
      -0.062
       0.055
       0.174
       0.254
       0.266
       0.204
       0.084
      -0.052
      -0.154
      -0.191
      -0.164
      -0.101
      -0.036
       0.015
       0.056
       0.103
       0.168
       0.241
       0.295
       0.297
       0.224
       0.080
      -0.098
      -0.243
      -0.302
      -0.263
      -0.170
      -0.088
      -0.060
      -0.085
      -0.125
      -0.137
      -0.099
      -0.021
       0.067
       0.132
       0.147
       0.106
       0.031
      -0.026
      -0.023
       0.044
       0.132
       0.184
       0.172
       0.107
       0.025
      -0.046
      -0.094
      -0.120
      -0.125
      -0.113
      -0.092
      -0.083
      -0.096
      -0.122
      -0.133
      -0.105
      -0.039
       0.030
       0.062
       0.037
      -0.016
      -0.046
      -0.013
       0.077
       0.175
       0.226
       0.201
       0.114
       0.016
      -0.035
      -0.015
       0.050
       0.099
       0.087
       0.015
      -0.080
      -0.149
      -0.162
      -0.124
      -0.057
       0.013
       0.072
       0.110
       0.122
       0.105
       0.066
       0.024
      -0.003
      -0.010
      -0.013
      -0.035
      -0.081
      -0.128
      -0.141
      -0.111
      -0.055
      -0.005
       0.011
      -0.017
      -0.083
      -0.161
      -0.206
      -0.188
      -0.110
      -0.006
       0.082
       0.130
       0.143
       0.140
       0.146
       0.174
       0.220
       0.261
       0.263
       0.201
       0.079
      -0.063
      -0.167
      -0.193
      -0.145
      -0.063
       0.004
       0.027
       0.015
       0.000
       0.009
       0.049
       0.104
       0.145
       0.146
       0.088
      -0.022
      -0.146
      -0.230
      -0.242
      -0.195
      -0.130
      -0.082
      -0.065
      -0.069
      -0.071
      -0.048
       0.011
       0.096
       0.170
       0.187
       0.123
       0.003
      -0.106
      -0.146
      -0.106
      -0.023
       0.056
       0.100
       0.106
       0.085
       0.062
       0.057
       0.073
       0.093
       0.088
       0.037
      -0.051
      -0.147
      -0.218
      -0.240
      -0.215
      -0.165
      -0.119
      -0.096
      -0.097
      -0.100
      -0.080
      -0.021
       0.069
       0.170
       0.254
       0.295
       0.278
       0.214
       0.142
       0.100
       0.095
       0.093
       0.059
      -0.011
      -0.088
      -0.136
      -0.140
      -0.105
      -0.049
       0.009
       0.051
       0.058
       0.021
      -0.047
      -0.112
      -0.146
      -0.145
      -0.133
      -0.133
      -0.147
      -0.164
      -0.168
      -0.148
      -0.103
      -0.038
       0.035
       0.098
       0.130
       0.124
       0.089
       0.055
       0.048
       0.071
       0.108
       0.135
       0.136
       0.112
       0.076
       0.047
       0.032
       0.027
       0.016
      -0.018
      -0.078
      -0.151
      -0.204
      -0.199
      -0.123
      -0.004
       0.108
       0.170
       0.174
       0.138
       0.096
       0.074
       0.079
       0.104
       0.126
       0.117
       0.058
      -0.044
      -0.149
      -0.209
      -0.204
      -0.154
      -0.104
      -0.083
      -0.088
      -0.089
      -0.054
       0.029
       0.141
       0.239
       0.283
       0.244
       0.125
      -0.041
      -0.194
      -0.278
      -0.275
      -0.213
      -0.145
      -0.111
      -0.115
      -0.131
      -0.118
      -0.051
       0.065
       0.191
       0.273
       0.275
       0.204
       0.114
       0.066
       0.086
       0.146
       0.189
       0.181
       0.123
       0.043
      -0.033
      -0.086
      -0.109
      -0.106
      -0.091
      -0.084
      -0.094
      -0.119
      -0.136
      -0.120
      -0.056
       0.037
       0.114
       0.130
       0.068
      -0.051
      -0.178
      -0.262
      -0.276
      -0.229
      -0.153
      -0.079
      -0.030
      -0.005
       0.014
       0.051
       0.119
       0.203
       0.262
       0.253
       0.164
       0.015
      -0.147
      -0.271
      -0.321
      -0.282
      -0.165
      -0.006
       0.146
       0.245
       0.275
       0.256
       0.223
       0.198
       0.174
       0.136
       0.073
      -0.002
      -0.062
      -0.076
      -0.032
       0.046
       0.113
       0.125
       0.065
      -0.048
      -0.167
      -0.238
      -0.228
      -0.145
      -0.031
       0.062
       0.106
       0.105
       0.091
       0.094
       0.120
       0.148
       0.147
       0.095
      -0.010
      -0.147
      -0.270
      -0.328
      -0.293
      -0.188
      -0.071
      -0.002
      -0.002
      -0.048
      -0.087
      -0.079
      -0.017
       0.080
       0.176
       0.236
       0.236
       0.181
       0.100
       0.030
      -0.012
      -0.033
      -0.046
      -0.064
      -0.094
      -0.136
      -0.172
      -0.175
      -0.127
      -0.045
       0.029
       0.061
       0.050
       0.022
       0.011
       0.037
       0.095
       0.163
       0.217
       0.239
       0.221
       0.171
       0.104
       0.038
      -0.016
      -0.052
      -0.067
      -0.073
      -0.090
      -0.124
      -0.156
      -0.151
      -0.095
      -0.012
       0.052
       0.064
       0.024
      -0.039
      -0.094
      -0.120
      -0.109
      -0.066
      -0.006
       0.039
       0.042
       0.009
      -0.023
      -0.009
       0.065
       0.167
       0.246
       0.263
       0.216
       0.133
       0.053
      -0.002
      -0.027
      -0.037
      -0.050
      -0.081
      -0.140
      -0.217
      -0.280
      -0.293
      -0.235
      -0.120
       0.012
       0.119
       0.180
       0.202
       0.206
       0.206
       0.207
       0.207
       0.201
       0.179
       0.130
       0.055
      -0.023
      -0.080
      -0.104
      -0.110
      -0.121
      -0.150
      -0.194
      -0.236
      -0.251
      -0.225
      -0.156
      -0.060
       0.035
       0.100
       0.120
       0.106
       0.087
       0.087
       0.105
       0.116
       0.097
       0.046
      -0.014
      -0.054
      -0.053
      -0.015
       0.038
       0.069
       0.050
      -0.033
      -0.158
      -0.271
      -0.321
      -0.294
      -0.221
      -0.149
      -0.096
      -0.051
      -0.002
       0.054
       0.110
       0.168
       0.235
       0.304
       0.353
       0.356
       0.305
       0.221
       0.135
       0.061
      -0.009
      -0.090
      -0.186
      -0.279
      -0.337
      -0.334
      -0.265
      -0.151
      -0.026
       0.077
       0.142
       0.162
       0.142
       0.105
       0.078
       0.079
       0.100
       0.118
       0.116
       0.096
       0.072
       0.054
       0.040
       0.019
      -0.021
      -0.080
      -0.153
      -0.233
      -0.304
      -0.341
      -0.318
      -0.233
      -0.111
       0.005
       0.077
       0.088
       0.047
      -0.013
      -0.052
      -0.052
      -0.020
       0.018
       0.038
       0.031
       0.013
       0.009
       0.038
       0.095
       0.154
       0.184
       0.170
       0.121
       0.064
       0.034
       0.051
       0.107
       0.172
       0.208
       0.190
       0.114
       0.004
      -0.092
      -0.131
      -0.107
      -0.049
      -0.003
      -0.001
      -0.044
      -0.108
      -0.162
      -0.184
      -0.176
      -0.158
      -0.160
      -0.203
      -0.279
      -0.346
      -0.345
      -0.251
      -0.092
       0.074
       0.194
       0.256
       0.281
       0.300
       0.333
       0.382
       0.429
       0.445
       0.405
       0.303
       0.162
       0.024
      -0.070
      -0.104
      -0.094
      -0.077
      -0.085
      -0.124
      -0.180
      -0.224
      -0.235
      -0.205
      -0.138
      -0.053
       0.019
       0.047
       0.014
      -0.058
      -0.128
      -0.167
      -0.181
      -0.201
      -0.249
      -0.313
      -0.357
      -0.349
      -0.283
      -0.171
      -0.036
       0.097
       0.207
       0.274
       0.298
       0.309
       0.351
       0.442
       0.554
       0.634
       0.647
       0.597
       0.516
       0.432
       0.357
       0.286
       0.207
       0.105
      -0.033
      -0.211
      -0.413
      -0.597
      -0.712
      -0.734
      -0.676
      -0.582
      -0.496
      -0.439
      -0.403
      -0.358
      -0.278
      -0.155
      -0.010
       0.118
       0.185
       0.173
       0.105
       0.041
       0.036
       0.107
       0.219
       0.320
       0.370
       0.361
       0.309
       0.243
       0.188
       0.153
       0.125
       0.077
      -0.016
      -0.153
      -0.295
      -0.381
      -0.373
      -0.282
      -0.157
      -0.048
       0.017
       0.042
       0.041
       0.037
       0.045
       0.077
       0.134
       0.201
       0.247
       0.249
       0.211
       0.171
       0.171
       0.219
       0.284
       0.320
       0.298
       0.222
       0.119
       0.027
      -0.028
      -0.035
      -0.013
      -0.002
      -0.048
      -0.172
      -0.346
      -0.512
      -0.628
      -0.696
      -0.752
      -0.829
      -0.920
      -0.983
      -0.972
      -0.864
      -0.671
      -0.425
      -0.160
       0.095
       0.320
       0.509
       0.675
       0.840
       1.015
       1.181
       1.304
       1.357
       1.341
       1.273
       1.175
       1.050
       0.884
       0.667
       0.403
       0.109
      -0.200
      -0.506
      -0.781
      -0.985
      -1.090
      -1.099
      -1.053
      -0.994
      -0.942
      -0.883
      -0.791
      -0.657
      -0.493
      -0.330
      -0.190
      -0.088
      -0.026
       0.003
       0.023
       0.062
       0.134
       0.231
       0.323
       0.386
       0.417
       0.428
       0.439
       0.459
       0.487
       0.511
       0.520
       0.498
       0.433
       0.327
       0.207
       0.107
       0.048
       0.015
      -0.025
      -0.102
      -0.217
      -0.342
      -0.442
      -0.489
      -0.480
      -0.430
      -0.371
      -0.329
      -0.322
      -0.342
      -0.352
      -0.307
      -0.190
      -0.028
       0.124
       0.229
       0.287
       0.336
       0.405
       0.495
       0.575
       0.607
       0.566
       0.439
       0.237
      -0.001
      -0.219
      -0.371
      -0.452
      -0.499
      -0.546
      -0.600
      -0.631
      -0.606
      -0.511
      -0.359
      -0.177
       0.011
       0.178
       0.306
       0.392
       0.462
       0.554
       0.684
       0.820
       0.902
       0.878
       0.741
       0.528
       0.298
       0.104
      -0.027
      -0.097
      -0.129
      -0.154
      -0.200
      -0.277
      -0.370
      -0.444
      -0.470
      -0.457
      -0.440
      -0.460
      -0.531
      -0.633
      -0.725
      -0.771
      -0.763
      -0.713
      -0.644
      -0.580
      -0.536
      -0.515
      -0.495
      -0.435
      -0.306
      -0.120
       0.080
       0.243
       0.353
       0.432
       0.532
       0.697
       0.939
       1.228
       1.506
       1.707
       1.788
       1.752
       1.638
       1.500
       1.366
       1.227
       1.047
       0.799
       0.474
       0.087
      -0.334
      -0.751
      -1.133
      -1.460
      -1.734
      -1.970
      -2.181
      -2.358
      -2.456
      -2.412
      -2.193
      -1.821
      -1.365
      -0.908
      -0.502
      -0.152
       0.166
       0.472
       0.766
       1.020
       1.196
       1.271
       1.253
       1.187
       1.138
       1.155
       1.243
       1.360
       1.441
       1.433
       1.316
       1.111
       0.860
       0.612
       0.407
       0.257
       0.145
       0.028
      -0.136
      -0.351
      -0.575
      -0.746
      -0.838
      -0.881
      -0.937
      -1.049
      -1.207
      -1.359
      -1.443
      -1.420
      -1.290
      -1.074
      -0.811
      -0.540
      -0.292
      -0.078
       0.119
       0.318
       0.526
       0.722
       0.876
       0.973
       1.024
       1.057
       1.096
       1.149
       1.199
       1.216
       1.162
       1.003
       0.725
       0.356
      -0.031
      -0.360
      -0.595
      -0.762
      -0.918
      -1.101
      -1.295
      -1.451
      -1.523
      -1.494
      -1.377
      -1.197
      -0.977
      -0.743
      -0.515
      -0.293
      -0.052
       0.232
       0.550
       0.861
       1.118
       1.297
       1.409
       1.473
       1.498
       1.475
       1.383
       1.210
       0.957
       0.640
       0.296
      -0.022
      -0.263
      -0.402
      -0.459
      -0.485
      -0.528
      -0.607
      -0.708
      -0.801
      -0.856
      -0.862
      -0.822
      -0.750
      -0.674
      -0.623
      -0.605
      -0.593
      -0.530
      -0.371
      -0.116
       0.187
       0.478
       0.718
       0.899
       1.041
       1.158
       1.248
       1.285
       1.240
       1.090
       0.830
       0.484
       0.100
      -0.267
      -0.579
      -0.835
      -1.056
      -1.255
      -1.425
      -1.534
      -1.547
      -1.444
      -1.233
      -0.945
      -0.623
      -0.307
      -0.024
       0.230
       0.477
       0.742
       1.016
       1.259
       1.414
       1.443
       1.348
       1.164
       0.947
       0.741
       0.566
       0.420
       0.291
       0.158
       0.002
      -0.194
      -0.421
      -0.650
      -0.844
      -0.992
      -1.102
      -1.190
      -1.255
      -1.276
      -1.224
      -1.084
      -0.862
      -0.582
      -0.281
       0.002
       0.242
       0.440
       0.618
       0.795
       0.959
       1.072
       1.093
       1.015
       0.862
       0.682
       0.520
       0.394
       0.302
       0.224
       0.140
       0.036
      -0.090
      -0.219
      -0.316
      -0.348
      -0.314
      -0.243
      -0.178
      -0.153
      -0.170
      -0.209
      -0.241
      -0.244
      -0.209
      -0.147
      -0.085
      -0.054
      -0.067
      -0.105
      -0.129
      -0.112
      -0.062
      -0.016
      -0.008
      -0.049
      -0.126
      -0.213
      -0.279
      -0.303
      -0.287
      -0.253
      -0.237
      -0.260
      -0.305
      -0.319
      -0.250
      -0.085
       0.137
       0.355
       0.520
       0.612
       0.637
       0.620
       0.586
       0.550
       0.516
       0.470
       0.395
       0.281
       0.140
       0.008
      -0.072
      -0.081
      -0.039
       0.005
       0.005
      -0.052
      -0.150
      -0.255
      -0.341
      -0.400
      -0.436
      -0.460
      -0.482
      -0.504
      -0.509
      -0.459
      -0.325
      -0.111
       0.135
       0.348
       0.481
       0.525
       0.501
       0.433
       0.342
       0.242
       0.142
       0.044
      -0.064
      -0.188
      -0.316
      -0.416
      -0.455
      -0.432
      -0.376
      -0.333
      -0.331
      -0.372
      -0.428
      -0.462
      -0.443
      -0.353
      -0.198
       0.002
       0.212
       0.404
       0.565
       0.707
       0.841
       0.959
       1.027
       1.011
       0.899
       0.716
       0.503
       0.294
       0.108
      -0.055
      -0.200
      -0.337
      -0.479
      -0.629
      -0.770
      -0.860
      -0.864
      -0.787
      -0.675
      -0.585
      -0.546
      -0.543
      -0.534
      -0.475
      -0.346
      -0.157
       0.059
       0.259
       0.404
       0.480
       0.508
       0.540
       0.615
       0.734
       0.857
       0.932
       0.929
       0.848
       0.711
       0.542
       0.358
       0.171
      -0.016
      -0.210
      -0.424
      -0.652
      -0.854
      -0.972
      -0.973
      -0.875
      -0.733
      -0.599
      -0.495
      -0.403
      -0.292
      -0.135
       0.075
       0.319
       0.557
       0.743
       0.844
       0.857
       0.808
       0.739
       0.673
       0.600
       0.486
       0.301
       0.041
      -0.267
      -0.573
      -0.829
      -1.006
      -1.100
      -1.122
      -1.096
      -1.043
      -0.971
      -0.865
      -0.695
      -0.449
      -0.153
       0.143
       0.397
       0.594
       0.745
       0.866
       0.964
       1.031
       1.061
       1.047
       0.981
       0.852
       0.662
       0.446
       0.255
       0.124
       0.038
      -0.053
      -0.192
      -0.373
      -0.549
      -0.665
      -0.694
      -0.643
      -0.538
      -0.410
      -0.293
      -0.217
      -0.186
      -0.168
      -0.119
      -0.030
       0.062
       0.102
       0.063
      -0.032
      -0.135
      -0.201
      -0.215
      -0.181
      -0.115
      -0.028
       0.066
       0.160
       0.253
       0.347
       0.441
       0.526
       0.588
       0.610
       0.575
       0.477
       0.329
       0.169
       0.039
      -0.034
      -0.055
      -0.055
      -0.069
      -0.113
      -0.171
      -0.209
      -0.201
      -0.159
      -0.120
      -0.123
      -0.182
      -0.281
      -0.387
      -0.470
      -0.515
      -0.525
      -0.516
      -0.511
      -0.530
      -0.572
