Origin Time       1/5/2013 06:57:12	  UTC
Lat.              33.1 N	
Long.             75.8 E	
Depth (Km)         15.0
Magnitude         5.8
 Region           JK-HP-Border                                                     
 Above details taken from IMD 
    
Station Code      UNA
Station Lat.       31.466  N
Station Long.      76.263  E
Station Height(m)  351.0
Site Class        C   Vs30 between 200 m/sec to 375 m/sec *  
Record Time       01.05.2013 06:57:20.749 UTC
Sampling Rate     200. Hz
 Record Duration  122.500 Sec.
 Direction         N-S (N positive)
Max. Acceleration    -13.954 cm/sec**2
     
  * For reference see Site Classification link of website 
     
 Base Line Corrected and Low Pass Filtered (Cut Off at 35 Hz) Time History
 Acceleration data in cm/sec**2
    
[...]
       1.825
       1.568
       1.262
       0.912
       0.524
       0.112
      -0.306
      -0.699
      -1.043
      -1.323
      -1.539
      -1.695
      -1.795
      -1.840
      -1.836
      -1.791
      -1.715
      -1.618
      -1.504
      -1.383
      -1.262
      -1.149
      -1.052
      -0.981
      -0.945
      -0.947
      -0.980
      -1.026
      -1.069
      -1.098
      -1.114
      -1.124
      -1.127
      -1.119
      -1.097
      -1.060
      -1.013
      -0.953
      -0.875
      -0.765
      -0.607
      -0.384
      -0.088
       0.272
       0.671
       1.080
       1.472
       1.831
       2.153
       2.437
       2.684
       2.891
       3.057
       3.177
       3.245
       3.252
       3.187
       3.043
       2.817
       2.507
       2.114
       1.643
       1.105
       0.514
      -0.112
      -0.756
      -1.399
      -2.023
      -2.616
      -3.172
      -3.681
      -4.122
      -4.470
      -4.710
      -4.844
      -4.892
      -4.879
      -4.830
      -4.767
      -4.710
      -4.670
      -4.647
      -4.633
      -4.614
      -4.581
      -4.520
      -4.412
      -4.237
      -3.982
      -3.653
      -3.267
      -2.839
      -2.374
      -1.874
      -1.353
      -0.834
      -0.347
       0.086
       0.448
       0.723
       0.897
       0.965
       0.940
       0.845
       0.708
       0.543
       0.355
       0.150
      -0.062
      -0.263
      -0.442
      -0.597
      -0.738
      -0.876
      -1.018
      -1.161
      -1.288
      -1.376
      -1.405
      -1.365
      -1.256
      -1.090
      -0.881
      -0.647
      -0.416
      -0.222
      -0.093
      -0.039
      -0.046
      -0.082
      -0.120
      -0.142
      -0.143
      -0.127
      -0.098
      -0.061
      -0.016
       0.038
       0.100
       0.167
       0.237
       0.309
       0.392
       0.497
       0.633
       0.794
       0.959
       1.104
       1.209
       1.262
       1.262
       1.208
       1.106
       0.968
       0.815
       0.667
       0.534
       0.423
       0.340
       0.291
       0.281
       0.314
       0.391
       0.512
       0.678
       0.885
       1.129
       1.405
       1.702
       2.003
       2.282
       2.514
       2.685
       2.793
       2.847
       2.858
       2.837
       2.793
       2.730
       2.649
       2.553
       2.450
       2.365
       2.332
       2.377
       2.511
       2.725
       3.004
       3.329
       3.678
       4.023
       4.332
       4.578
       4.749
       4.842
       4.857
       4.792
       4.643
       4.411
       4.104
       3.747
       3.373
       3.026
       2.748
       2.567
       2.493
       2.511
       2.590
       2.695
       2.792
       2.850
       2.849
       2.780
       2.642
       2.433
       2.146
       1.773
       1.307
       0.753
       0.127
      -0.546
      -1.241
      -1.929
      -2.585
      -3.191
      -3.733
      -4.198
      -4.571
      -4.851
      -5.049
      -5.186
      -5.279
      -5.333
      -5.338
      -5.278
      -5.144
      -4.946
      -4.712
      -4.474
      -4.255
      -4.063
      -3.901
      -3.770
      -3.671
      -3.608
      -3.590
      -3.625
      -3.721
      -3.869
      -4.049
      -4.237
      -4.414
      -4.568
      -4.683
      -4.733
      -4.690
      -4.522
      -4.206
      -3.731
      -3.097
      -2.321
      -1.427
      -0.436
       0.634
       1.759
       2.899
       4.003
       5.025
       5.929
       6.690
       7.283
       7.685
       7.890
       7.906
       7.756
       7.461
       7.044
       6.528
       5.946
       5.339
       4.745
       4.193
       3.701
       3.276
       2.909
       2.581
       2.259
       1.904
       1.480
       0.963
       0.349
      -0.347
      -1.099
      -1.871
      -2.624
      -3.317
      -3.919
      -4.406
      -4.761
      -4.968
      -5.015
      -4.894
      -4.607
      -4.156
      -3.550
      -2.814
      -1.992
      -1.147
      -0.341
       0.381
       0.995
       1.487
       1.848
       2.071
       2.157
       2.114
       1.957
       1.709
       1.396
       1.039
       0.652
       0.235
      -0.210
      -0.673
      -1.134
      -1.570
      -1.972
      -2.336
      -2.663
      -2.951
      -3.195
      -3.390
      -3.533
      -3.616
      -3.636
      -3.595
      -3.504
      -3.372
      -3.197
      -2.964
      -2.658
      -2.274
      -1.831
      -1.355
      -0.875
      -0.408
       0.033
       0.436
       0.791
       1.091
       1.337
       1.545
       1.741
       1.960
       2.236
       2.583
       2.990
       3.428
       3.867
       4.283
       4.658
       4.982
       5.243
       5.431
       5.533
       5.525
       5.373
       5.037
       4.486
       3.715
       2.746
       1.623
       0.395
      -0.879
      -2.139
      -3.319
      -4.361
      -5.228
      -5.914
      -6.432
      -6.800
      -7.030
      -7.123
      -7.081
      -6.910
      -6.625
      -6.239
      -5.771
      -5.235
      -4.641
      -3.997
      -3.315
      -2.615
      -1.926
      -1.275
      -0.673
      -0.116
       0.404
       0.899
       1.366
       1.794
       2.168
       2.483
       2.747
       2.979
       3.195
       3.401
       3.593
       3.772
       3.941
       4.095
       4.217
       4.277
       4.249
       4.124
       3.917
       3.647
       3.334
       2.990
       2.628
       2.260
       1.901
       1.557
       1.223
       0.886
       0.528
       0.135
      -0.305
      -0.808
      -1.381
      -2.023
      -2.711
      -3.407
      -4.073
      -4.671
      -5.178
      -5.582
      -5.876
      -6.056
      -6.117
      -6.055
      -5.878
      -5.602
      -5.251
      -4.841
      -4.385
      -3.896
      -3.393
      -2.908
      -2.466
      -2.082
      -1.753
      -1.460
      -1.178
      -0.875
      -0.525
      -0.107
       0.390
       0.974
       1.651
       2.419
       3.269
       4.179
       5.120
       6.050
       6.924
       7.693
       8.312
       8.753
       8.999
       9.047
       8.903
       8.580
       8.102
       7.502
       6.816
       6.080
       5.323
       4.571
       3.843
       3.157
       2.529
       1.966
       1.468
       1.024
       0.618
       0.231
      -0.156
      -0.558
      -0.988
      -1.455
      -1.961
      -2.498
      -3.041
      -3.556
      -4.003
      -4.351
      -4.583
      -4.692
      -4.666
      -4.489
      -4.155
      -3.672
      -3.076
      -2.418
      -1.744
      -1.091
      -0.482
       0.060
       0.521
       0.893
       1.188
       1.419
       1.597
       1.722
       1.794
       1.818
       1.796
       1.731
       1.619
       1.457
       1.245
       0.985
       0.689
       0.378
       0.084
      -0.165
      -0.348
      -0.456
      -0.480
      -0.415
      -0.263
      -0.034
       0.251
       0.576
       0.934
       1.326
       1.754
       2.210
       2.677
       3.125
       3.517
       3.814
       3.983
       4.007
       3.892
       3.659
       3.332
       2.928
       2.448
       1.898
       1.296
       0.668
       0.035
      -0.594
      -1.213
      -1.816
      -2.389
      -2.924
      -3.421
      -3.882
      -4.307
      -4.693
      -5.042
      -5.348
      -5.602
      -5.778
      -5.851
      -5.798
      -5.607
      -5.266
      -4.765
      -4.098
      -3.272
      -2.311
      -1.244
      -0.105
       1.068
       2.226
       3.318
       4.301
       5.141
       5.811
       6.295
       6.581
       6.672
       6.569
       6.274
       5.785
       5.117
       4.300
       3.373
       2.376
       1.342
       0.304
      -0.697
      -1.620
      -2.433
      -3.124
      -3.697
      -4.165
      -4.540
      -4.829
      -5.034
      -5.151
      -5.175
      -5.105
      -4.947
      -4.715
      -4.427
      -4.103
      -3.768
      -3.445
      -3.152
      -2.907
      -2.722
      -2.600
      -2.531
      -2.497
      -2.486
      -2.487
      -2.486
      -2.464
      -2.398
      -2.267
      -2.056
      -1.755
      -1.358
      -0.866
      -0.286
       0.369
       1.081
       1.822
       2.548
       3.202
       3.739
       4.132
       4.377
       4.481
       4.450
       4.283
       3.977
       3.539
       2.992
       2.381
       1.761
       1.186
       0.698
       0.330
       0.096
      -0.004
       0.015
       0.129
       0.312
       0.547
       0.822
       1.120
       1.416
       1.677
       1.871
       1.985
       2.026
       2.011
       1.956
       1.861
       1.720
       1.526
       1.274
       0.962
       0.583
       0.128
      -0.407
      -1.014
      -1.666
      -2.322
      -2.934
      -3.459
      -3.856
      -4.101
      -4.179
      -4.088
      -3.830
      -3.414
      -2.866
      -2.225
      -1.535
      -0.836
      -0.164
       0.451
       0.976
       1.389
       1.687
       1.885
       2.010
       2.092
       2.157
       2.228
       2.317
       2.427
       2.547
       2.658
       2.740
       2.776
       2.755
       2.674
       2.536
       2.347
       2.109
       1.826
       1.508
       1.167
       0.825
       0.500
       0.210
      -0.036
      -0.231
      -0.372
      -0.460
      -0.505
      -0.528
      -0.558
      -0.625
      -0.747
      -0.926
      -1.150
      -1.402
      -1.661
      -1.906
      -2.114
      -2.267
      -2.348
      -2.343
      -2.242
      -2.044
      -1.764
      -1.430
      -1.067
      -0.693
      -0.318
       0.046
       0.397
       0.737
       1.080
       1.432
       1.792
       2.151
       2.507
       2.857
       3.195
       3.504
       3.758
       3.925
       3.977
       3.897
       3.683
       3.347
       2.908
       2.383
       1.784
       1.121
       0.405
      -0.350
      -1.137
      -1.950
      -2.784
      -3.632
      -4.477
      -5.292
      -6.038
      -6.680
      -7.192
      -7.558
      -7.771
      -7.823
      -7.707
      -7.424
      -6.980
      -6.388
      -5.670
      -4.863
      -4.014
      -3.172
      -2.371
      -1.636
      -0.991
      -0.463
      -0.062
       0.226
       0.438
       0.614
       0.780
       0.953
       1.138
       1.339
       1.548
       1.746
       1.908
       2.018
       2.072
       2.083
       2.071
       2.050
       2.018
       1.968
       1.897
       1.810
       1.718
       1.623
       1.526
       1.433
       1.362
       1.338
       1.387
       1.522
       1.741
       2.031
       2.373
       2.744
       3.119
       3.475
       3.785
       4.030
       4.191
       4.262
       4.245
       4.152
       3.991
       3.772
       3.495
       3.153
       2.736
       2.236
       1.659
       1.017
       0.318
      -0.436
      -1.241
      -2.079
      -2.910
      -3.687
      -4.371
      -4.937
      -5.376
      -5.688
      -5.878
      -5.950
      -5.908
      -5.743
      -5.435
      -4.956
      -4.289
      -3.440
      -2.443
      -1.355
      -0.244
       0.822
       1.791
       2.638
       3.363
       3.977
       4.482
       4.866
       5.116
       5.239
       5.255
       5.184
       5.039
       4.833
       4.587
       4.323
       4.053
       3.780
       3.499
       3.210
       2.917
       2.624
       2.329
       2.021
       1.675
       1.260
       0.751
       0.139
      -0.568
      -1.344
      -2.160
      -2.977
      -3.748
      -4.426
      -4.971
      -5.362
      -5.596
      -5.693
      -5.681
      -5.587
      -5.427
      -5.215
      -4.963
      -4.685
      -4.392
      -4.090
      -3.784
      -3.482
      -3.192
      -2.929
      -2.700
      -2.504
      -2.323
      -2.126
      -1.876
      -1.550
      -1.151
      -0.701
      -0.222
       0.272
       0.779
       1.299
       1.830
       2.367
       2.904
       3.427
       3.916
       4.349
       4.718
       5.021
       5.258
       5.417
       5.480
       5.436
       5.289
       5.056
       4.756
       4.393
       3.963
       3.453
       2.866
       2.221
       1.552
       0.887
       0.234
      -0.416
      -1.077
      -1.749
      -2.412
      -3.046
      -3.650
      -4.250
      -4.881
      -5.562
      -6.282
      -7.016
      -7.734
      -8.424
      -9.076
      -9.671
     -10.177
     -10.551
     -10.749
     -10.731
     -10.467
      -9.942
      -9.161
      -8.145
      -6.918
      -5.500
      -3.909
      -2.175
      -0.342
       1.535
       3.399
       5.197
       6.879
       8.393
       9.688
      10.725
      11.480
      11.952
      12.166
      12.158
      11.970
      11.638
      11.182
      10.608
       9.906
       9.071
       8.112
       7.065
       5.988
       4.937
       3.950
       3.046
       2.239
       1.555
       1.031
       0.696
       0.559
       0.597
       0.767
       1.025
       1.343
       1.710
       2.120
       2.557
       2.989
       3.375
       3.685
       3.902
       4.020
       4.041
       3.970
       3.817
       3.593
       3.304
       2.956
       2.559
       2.128
       1.675
       1.192
       0.660
       0.050
      -0.662
      -1.495
      -2.470
      -3.596
      -4.861
      -6.219
      -7.604
      -8.949
     -10.203
     -11.325
     -12.279
     -13.031
     -13.561
     -13.866
     -13.954
     -13.835
     -13.522
     -13.028
     -12.366
     -11.536
     -10.525
      -9.325
      -7.942
      -6.408
      -4.764
      -3.054
      -1.312
       0.437
       2.180
       3.903
       5.584
       7.192
       8.694
      10.054
      11.227
      12.158
      12.799
      13.129
      13.160
      12.929
      12.481
      11.862
      11.105
      10.222
       9.205
       8.042
       6.743
       5.339
       3.860
       2.318
       0.709
      -0.959
      -2.659
      -4.342
      -5.955
      -7.454
      -8.805
      -9.980
     -10.953
     -11.690
     -12.156
     -12.318
     -12.157
     -11.680
     -10.912
      -9.890
      -8.653
      -7.239
      -5.691
      -4.051
      -2.357
      -0.653
       1.003
       2.536
       3.876
       4.976
       5.806
       6.339
       6.554
       6.458
       6.104
       5.566
       4.908
       4.181
       3.433
       2.718
       2.080
       1.537
       1.096
       0.767
       0.557
       0.439
       0.352
       0.226
       0.018
      -0.282
      -0.669
      -1.138
      -1.678
      -2.256
      -2.816
      -3.287
      -3.594
      -3.679
      -3.512
      -3.110
      -2.518
      -1.785
      -0.946
      -0.027
       0.944
       1.936
       2.920
       3.857
       4.704
       5.419
       5.981
       6.386
       6.635
       6.729
       6.684
       6.541
       6.351
       6.146
       5.917
       5.632
       5.250
       4.736
       4.062
       3.209
       2.182
       1.010
      -0.261
      -1.588
      -2.930
      -4.242
      -5.482
      -6.615
      -7.624
      -8.501
      -9.236
      -9.806
     -10.184
     -10.344
     -10.275
      -9.984
      -9.495
      -8.832
      -8.017
      -7.072
      -6.020
      -4.881
      -3.664
      -2.375
      -1.028
       0.359
       1.762
       3.158
       4.518
       5.811
       7.006
       8.078
       9.004
       9.747
      10.260
      10.495
      10.412
       9.991
       9.227
       8.144
       6.798
       5.265
       3.621
       1.932
       0.262
      -1.323
      -2.758
      -3.997
      -5.013
      -5.783
      -6.282
      -6.493
      -6.415
      -6.068
      -5.481
      -4.695
      -3.756
      -2.721
      -1.640
      -0.553
       0.511
       1.533
       2.508
       3.441
       4.327
       5.149
       5.893
       6.564
       7.170
       7.697
       8.104
       8.351
       8.413
       8.284
       7.955
       7.419
       6.667
       5.698
       4.511
       3.121
       1.562
      -0.116
      -1.868
      -3.642
      -5.377
      -7.002
      -8.455
      -9.694
     -10.687
     -11.396
     -11.781
     -11.808
     -11.468
     -10.772
      -9.763
      -8.514
      -7.122
      -5.674
      -4.231
      -2.825
      -1.462
      -0.135
       1.171
       2.464
       3.730
       4.940
       6.064
       7.087
       7.998
       8.776
       9.380
       9.765
       9.899
       9.765
       9.360
       8.700
       7.824
       6.780
       5.610
       4.338
       2.974
       1.527
       0.015
      -1.532
      -3.080
      -4.586
      -6.006
      -7.294
      -8.405
      -9.297
      -9.932
     -10.290
     -10.372
     -10.186
      -9.746
      -9.066
      -8.173
      -7.098
      -5.879
      -4.551
      -3.154
      -1.725
      -0.298
       1.096
       2.416
       3.600
       4.572
       5.263
       5.630
       5.670
       5.419
       4.936
       4.287
       3.517
       2.644
       1.672
       0.614
      -0.494
      -1.588
      -2.603
      -3.491
      -4.226
      -4.796
      -5.188
      -5.394
      -5.423
      -5.297
      -5.045
      -4.698
      -4.288
      -3.835
      -3.331
      -2.747
      -2.072
      -1.332
      -0.575
       0.177
       0.948
       1.774
       2.660
       3.577
       4.478
       5.332
       6.120
       6.834
       7.468
       8.017
       8.458
       8.747
       8.828
       8.670
       8.273
       7.662
       6.865
       5.906
       4.805
       3.582
       2.259
       0.873
      -0.526
      -1.875
      -3.113
      -4.190
      -5.060
      -5.690
      -6.063
      -6.200
      -6.144
      -5.943
      -5.629
      -5.221
      -4.742
      -4.210
      -3.632
      -2.994
      -2.291
      -1.539
      -0.772
      -0.015
       0.731
       1.470
       2.196
       2.893
       3.540
       4.117
       4.614
       5.037
       5.410
       5.749
       6.042
       6.249
       6.329
       6.263
       6.060
       5.740
       5.329
       4.856
       4.336
       3.767
       3.130
       2.413
       1.618
       0.754
      -0.164
      -1.125
      -2.108
      -3.082
      -4.006
      -4.844
      -5.569
      -6.170
      -6.647
      -6.996
      -7.207
      -7.262
      -7.140
      -6.832
      -6.341
      -5.684
      -4.883
      -3.966
      -2.968
      -1.936
      -0.926
       0.004
       0.805
       1.439
       1.891
       2.167
       2.288
       2.275
       2.134
       1.871
       1.499
       1.052
       0.570
       0.094
      -0.340
      -0.700
      -0.967
      -1.154
      -1.300
      -1.455
      -1.644
      -1.867
      -2.111
      -2.372
      -2.647
      -2.926
      -3.184
      -3.392
      -3.528
      -3.573
      -3.497
      -3.271
      -2.871
      -2.282
      -1.506
      -0.565
       0.489
       1.595
       2.701
       3.777
       4.805
       5.761
       6.596
       7.249
       7.668
       7.828
       7.729
       7.391
       6.835
       6.095
       5.219
       4.269
       3.305
       2.371
       1.491
       0.674
      -0.078
      -0.770
      -1.403
      -1.974
      -2.479
      -2.921
      -3.323
      -3.716
      -4.134
