Origin Time       28/5/2010 07:25:06	 UTC
Lat.              31.2 N	
Long.             77.9 E	
Depth (Km)         43.0
Magnitude         4.8
 Region           Himachal                                                         
 Above details taken from USGS
    
Station Code      UNA
Station Lat.       31.466  N
Station Long.      76.263  E
Station Height(m)  351.0
Site Class        C   Vs30 between 200 m/sec to 375 m/sec *  
Record Time       28.05.2010 07:25:21.669 UTC
Sampling Rate     200. Hz
 Record Duration   80.205 Sec.
 Direction         N-S (N positive)
Max. Acceleration     -2.351 cm/sec**2
     
  * For reference see Site Classification link of website 
     
 Base Line Corrected and Low Pass Filtered (Cut Off at 35 Hz) Time History
 Acceleration data in cm/sec**2
    
[...]
      -0.087
      -0.064
      -0.045
      -0.039
      -0.047
      -0.061
      -0.070
      -0.062
      -0.039
      -0.010
       0.011
       0.022
       0.027
       0.032
       0.037
       0.035
       0.024
       0.007
      -0.009
      -0.021
      -0.029
      -0.037
      -0.040
      -0.031
      -0.009
       0.018
       0.040
       0.050
       0.050
       0.047
       0.052
       0.071
       0.098
       0.121
       0.127
       0.114
       0.087
       0.060
       0.045
       0.045
       0.050
       0.047
       0.033
       0.016
       0.005
       0.006
       0.018
       0.033
       0.043
       0.041
       0.026
       0.001
      -0.027
      -0.052
      -0.072
      -0.088
      -0.103
      -0.119
      -0.134
      -0.148
      -0.161
      -0.170
      -0.170
      -0.161
      -0.147
      -0.133
      -0.119
      -0.103
      -0.082
      -0.056
      -0.027
       0.001
       0.023
       0.039
       0.054
       0.073
       0.093
       0.109
       0.118
       0.121
       0.126
       0.134
       0.139
       0.125
       0.086
       0.033
      -0.011
      -0.027
      -0.018
       0.002
       0.016
       0.016
       0.001
      -0.021
      -0.041
      -0.048
      -0.046
      -0.045
      -0.053
      -0.073
      -0.100
      -0.128
      -0.146
      -0.151
      -0.141
      -0.121
      -0.096
      -0.070
      -0.047
      -0.025
      -0.002
       0.021
       0.044
       0.063
       0.075
       0.075
       0.067
       0.064
       0.080
       0.116
       0.158
       0.187
       0.193
       0.180
       0.163
       0.156
       0.164
       0.178
       0.176
       0.144
       0.086
       0.016
      -0.045
      -0.087
      -0.106
      -0.114
      -0.120
      -0.131
      -0.144
      -0.155
      -0.159
      -0.152
      -0.130
      -0.096
      -0.057
      -0.023
       0.002
       0.015
       0.019
       0.020
       0.029
       0.045
       0.059
       0.064
       0.056
       0.038
       0.018
       0.007
       0.014
       0.037
       0.066
       0.087
       0.091
       0.075
       0.048
       0.021
       0.001
      -0.014
      -0.035
      -0.065
      -0.098
      -0.122
      -0.127
      -0.111
      -0.080
      -0.048
      -0.022
      -0.001
       0.014
       0.021
       0.018
       0.012
       0.016
       0.034
       0.056
       0.066
       0.058
       0.043
       0.034
       0.039
       0.054
       0.066
       0.068
       0.065
       0.061
       0.058
       0.056
       0.051
       0.045
       0.037
       0.027
       0.017
       0.002
      -0.019
      -0.050
      -0.084
      -0.112
      -0.126
      -0.123
      -0.110
      -0.102
      -0.106
      -0.121
      -0.129
      -0.113
      -0.070
      -0.014
       0.027
       0.036
       0.016
      -0.009
      -0.016
       0.003
       0.036
       0.063
       0.072
       0.061
       0.037
       0.015
       0.007
       0.018
       0.038
       0.057
       0.067
       0.071
       0.076
       0.087
       0.110
       0.140
       0.167
       0.179
       0.171
       0.143
       0.100
       0.054
       0.020
       0.001
      -0.009
      -0.021
      -0.040
      -0.063
      -0.083
      -0.093
      -0.090
      -0.079
      -0.068
      -0.065
      -0.072
      -0.089
      -0.107
      -0.116
      -0.108
      -0.087
      -0.067
      -0.056
      -0.054
      -0.050
      -0.036
      -0.012
       0.014
       0.033
       0.046
       0.058
       0.078
       0.107
       0.138
       0.156
       0.150
       0.116
       0.067
       0.023
      -0.006
      -0.025
      -0.042
      -0.061
      -0.079
      -0.089
      -0.086
      -0.068
      -0.040
      -0.016
      -0.011
      -0.028
      -0.055
      -0.076
      -0.082
      -0.073
      -0.055
      -0.040
      -0.034
      -0.034
      -0.032
      -0.017
       0.015
       0.058
       0.097
       0.120
       0.120
       0.102
       0.074
       0.043
       0.015
      -0.008
      -0.026
      -0.043
      -0.059
      -0.068
      -0.067
      -0.059
      -0.049
      -0.043
      -0.040
      -0.043
      -0.051
      -0.063
      -0.071
      -0.073
      -0.071
      -0.068
      -0.067
      -0.064
      -0.055
      -0.037
      -0.007
       0.028
       0.061
       0.085
       0.095
       0.090
       0.077
       0.070
       0.081
       0.108
       0.140
       0.163
       0.167
       0.155
       0.140
       0.134
       0.138
       0.140
       0.127
       0.097
       0.057
       0.017
      -0.017
      -0.046
      -0.071
      -0.094
      -0.115
      -0.129
      -0.133
      -0.123
      -0.100
      -0.067
      -0.038
      -0.024
      -0.029
      -0.047
      -0.069
      -0.084
      -0.082
      -0.062
      -0.033
      -0.014
      -0.013
      -0.028
      -0.043
      -0.048
      -0.036
      -0.010
       0.019
       0.037
       0.034
       0.017
      -0.004
      -0.013
      -0.006
       0.012
       0.028
       0.032
       0.026
       0.017
       0.015
       0.020
       0.031
       0.043
       0.051
       0.050
       0.041
       0.033
       0.027
       0.019
       0.002
      -0.026
      -0.062
      -0.100
      -0.129
      -0.140
      -0.131
      -0.104
      -0.064
      -0.022
       0.016
       0.044
       0.061
       0.069
       0.069
       0.065
       0.061
       0.059
       0.057
       0.052
       0.038
       0.018
      -0.004
      -0.017
      -0.013
       0.005
       0.028
       0.044
       0.044
       0.029
       0.003
      -0.025
      -0.041
      -0.038
      -0.020
      -0.002
       0.003
      -0.007
      -0.029
      -0.048
      -0.048
      -0.019
       0.029
       0.071
       0.086
       0.068
       0.029
      -0.005
      -0.013
       0.008
       0.044
       0.072
       0.077
       0.065
       0.048
       0.043
       0.056
       0.079
       0.099
       0.099
       0.075
       0.032
      -0.018
      -0.057
      -0.075
      -0.070
      -0.056
      -0.048
      -0.053
      -0.069
      -0.084
      -0.084
      -0.061
      -0.023
       0.015
       0.040
       0.050
       0.049
       0.039
       0.021
       0.001
      -0.015
      -0.024
      -0.032
      -0.044
      -0.061
      -0.076
      -0.081
      -0.069
      -0.039
      -0.003
       0.028
       0.044
       0.042
       0.028
       0.012
       0.008
       0.015
       0.026
       0.030
       0.020
       0.000
      -0.022
      -0.033
      -0.021
       0.015
       0.059
       0.088
       0.087
       0.057
       0.015
      -0.016
      -0.022
      -0.007
       0.014
       0.025
       0.024
       0.015
       0.008
       0.005
       0.007
       0.010
       0.009
       0.002
      -0.014
      -0.035
      -0.056
      -0.065
      -0.054
      -0.022
       0.018
       0.051
       0.065
       0.057
       0.035
       0.015
       0.007
       0.012
       0.023
       0.035
       0.039
       0.029
       0.008
      -0.015
      -0.025
      -0.018
      -0.005
      -0.002
      -0.020
      -0.060
      -0.110
      -0.147
      -0.155
      -0.132
      -0.093
      -0.058
      -0.036
      -0.022
      -0.006
       0.021
       0.060
       0.097
       0.119
       0.117
       0.095
       0.067
       0.048
       0.048
       0.066
       0.087
       0.095
       0.086
       0.061
       0.026
      -0.007
      -0.028
      -0.031
      -0.021
      -0.013
      -0.020
      -0.046
      -0.078
      -0.097
      -0.090
      -0.060
      -0.025
       0.002
       0.018
       0.022
       0.019
       0.012
       0.012
       0.021
       0.030
       0.027
       0.011
      -0.013
      -0.037
      -0.053
      -0.054
      -0.038
      -0.017
      -0.005
      -0.010
      -0.026
      -0.039
      -0.037
      -0.014
       0.026
       0.069
       0.104
       0.123
       0.126
       0.115
       0.097
       0.077
       0.055
       0.030
       0.006
      -0.013
      -0.026
      -0.039
      -0.049
      -0.051
      -0.042
      -0.025
      -0.006
       0.006
       0.007
      -0.002
      -0.015
      -0.021
      -0.011
       0.009
       0.032
       0.047
       0.047
       0.032
       0.015
       0.009
       0.019
       0.040
       0.058
       0.062
       0.049
       0.025
       0.002
      -0.006
       0.003
       0.021
       0.036
       0.042
       0.037
       0.032
       0.040
       0.066
       0.105
       0.140
       0.152
       0.138
       0.102
       0.059
       0.022
      -0.007
      -0.032
      -0.062
      -0.098
      -0.135
      -0.166
      -0.182
      -0.177
      -0.150
      -0.110
      -0.072
      -0.046
      -0.039
      -0.048
      -0.064
      -0.075
      -0.075
      -0.069
      -0.066
      -0.069
      -0.077
      -0.084
      -0.080
      -0.056
      -0.011
       0.044
       0.093
       0.123
       0.130
       0.125
       0.123
       0.140
       0.176
       0.214
       0.237
       0.240
       0.226
       0.204
       0.184
       0.177
       0.184
       0.196
       0.198
       0.185
       0.158
       0.124
       0.089
       0.057
       0.030
       0.008
      -0.010
      -0.029
      -0.054
      -0.090
      -0.136
      -0.181
      -0.216
      -0.239
      -0.253
      -0.262
      -0.271
      -0.282
      -0.292
      -0.299
      -0.294
      -0.276
      -0.241
      -0.195
      -0.145
      -0.100
      -0.066
      -0.040
      -0.016
       0.010
       0.037
       0.060
       0.074
       0.079
       0.080
       0.086
       0.100
       0.124
       0.154
       0.185
       0.203
       0.200
       0.180
       0.158
       0.148
       0.148
       0.147
       0.131
       0.094
       0.039
      -0.019
      -0.056
      -0.062
      -0.037
      -0.002
       0.025
       0.029
       0.015
      -0.004
      -0.013
      -0.010
      -0.002
       0.005
       0.007
       0.005
       0.001
       0.000
       0.007
       0.023
       0.048
       0.078
       0.109
       0.130
       0.141
       0.148
       0.159
       0.176
       0.187
       0.181
       0.152
       0.102
       0.043
      -0.011
      -0.053
      -0.085
      -0.118
      -0.162
      -0.222
      -0.291
      -0.355
      -0.397
      -0.412
      -0.408
      -0.401
      -0.400
      -0.402
      -0.395
      -0.368
      -0.319
      -0.255
      -0.188
      -0.124
      -0.061
       0.006
       0.080
       0.157
       0.231
       0.296
       0.349
       0.396
       0.444
       0.498
       0.552
       0.596
       0.627
       0.644
       0.649
       0.641
       0.620
       0.579
       0.510
       0.409
       0.281
       0.138
      -0.010
      -0.156
      -0.299
      -0.438
      -0.569
      -0.689
      -0.792
      -0.872
      -0.926
      -0.952
      -0.952
      -0.931
      -0.898
      -0.858
      -0.804
      -0.728
      -0.627
      -0.507
      -0.380
      -0.256
      -0.141
      -0.037
       0.056
       0.140
       0.219
       0.294
       0.363
       0.423
       0.470
       0.505
       0.537
       0.574
       0.619
       0.666
       0.708
       0.740
       0.762
       0.781
       0.806
       0.839
       0.875
       0.901
       0.906
       0.885
       0.843
       0.792
       0.741
       0.688
       0.619
       0.521
       0.393
       0.244
       0.089
      -0.058
      -0.189
      -0.305
      -0.409
      -0.506
      -0.594
      -0.666
      -0.712
      -0.726
      -0.714
      -0.687
      -0.658
      -0.636
      -0.622
      -0.614
      -0.613
      -0.618
      -0.629
      -0.653
      -0.694
      -0.746
      -0.794
      -0.821
      -0.815
      -0.771
      -0.691
      -0.582
      -0.453
      -0.308
      -0.151
       0.012
       0.167
       0.302
       0.408
       0.476
       0.503
       0.489
       0.442
       0.375
       0.301
       0.230
       0.166
       0.104
       0.036
      -0.040
      -0.117
      -0.182
      -0.218
      -0.217
      -0.178
      -0.114
      -0.040
       0.037
       0.116
       0.201
       0.292
       0.384
       0.466
       0.523
       0.543
       0.522
       0.466
       0.380
       0.269
       0.136
      -0.017
      -0.183
      -0.348
      -0.493
      -0.602
      -0.668
      -0.685
      -0.649
      -0.559
      -0.422
      -0.249
      -0.051
       0.161
       0.378
       0.588
       0.779
       0.941
       1.065
       1.148
       1.184
       1.172
       1.109
       1.003
       0.866
       0.716
       0.563
       0.409
       0.248
       0.080
      -0.093
      -0.257
      -0.396
      -0.500
      -0.572
      -0.624
      -0.666
      -0.703
      -0.726
      -0.717
      -0.660
      -0.557
      -0.430
      -0.308
      -0.209
      -0.131
      -0.064
       0.004
       0.071
       0.132
       0.177
       0.205
       0.224
       0.241
       0.258
       0.278
       0.310
       0.365
       0.445
       0.543
       0.642
       0.728
       0.796
       0.853
       0.904
       0.942
       0.952
       0.917
       0.827
       0.682
       0.487
       0.251
      -0.016
      -0.309
      -0.631
      -0.976
      -1.328
      -1.659
      -1.938
      -2.145
      -2.276
      -2.340
      -2.351
      -2.316
      -2.236
      -2.105
      -1.921
      -1.688
      -1.415
      -1.121
      -0.822
      -0.529
      -0.247
       0.025
       0.285
       0.533
       0.764
       0.975
       1.165
       1.341
       1.503
       1.651
       1.783
       1.899
       2.003
       2.094
       2.166
       2.212
       2.224
       2.195
       2.127
       2.023
       1.889
       1.721
       1.514
       1.263
       0.974
       0.652
       0.313
      -0.028
      -0.358
      -0.674
      -0.977
      -1.266
      -1.537
      -1.775
      -1.957
      -2.059
      -2.068
      -1.991
      -1.855
      -1.686
      -1.501
      -1.303
      -1.085
      -0.844
      -0.590
      -0.342
      -0.123
       0.052
       0.181
       0.268
       0.320
       0.343
       0.341
       0.312
       0.251
       0.159
       0.039
      -0.095
      -0.224
      -0.324
      -0.380
      -0.391
      -0.370
      -0.335
      -0.290
      -0.221
      -0.111
       0.052
       0.255
       0.469
       0.659
       0.800
       0.891
       0.947
       0.990
       1.030
       1.057
       1.046
       0.974
       0.837
       0.647
       0.430
       0.215
       0.022
      -0.140
      -0.277
      -0.396
      -0.494
      -0.557
      -0.563
      -0.495
      -0.355
      -0.162
       0.050
       0.252
       0.428
       0.575
       0.694
       0.777
       0.807
       0.767
       0.655
       0.483
       0.274
       0.048
      -0.184
      -0.416
      -0.648
      -0.877
      -1.099
      -1.304
      -1.476
      -1.599
      -1.665
      -1.673
      -1.629
      -1.541
      -1.414
      -1.247
      -1.039
      -0.799
      -0.546
      -0.299
      -0.071
       0.131
       0.308
       0.463
       0.596
       0.701
       0.770
       0.801
       0.803
       0.790
       0.784
       0.796
       0.829
       0.870
       0.905
       0.931
       0.956
       0.984
       1.015
       1.043
       1.058
       1.046
       1.000
       0.916
       0.798
       0.648
       0.467
       0.259
       0.032
      -0.202
      -0.430
      -0.631
      -0.787
      -0.886
      -0.926
      -0.916
      -0.872
      -0.805
      -0.719
      -0.612
      -0.482
      -0.338
      -0.201
      -0.091
      -0.021
       0.005
      -0.005
      -0.031
      -0.053
      -0.062
      -0.055
      -0.039
      -0.022
      -0.010
       0.000
       0.018
       0.051
       0.099
       0.152
       0.201
       0.241
       0.273
       0.306
       0.344
       0.384
       0.414
       0.417
       0.380
       0.308
       0.213
       0.112
       0.013
      -0.086
      -0.194
      -0.310
      -0.424
      -0.519
      -0.579
      -0.596
      -0.571
      -0.512
      -0.436
      -0.354
      -0.271
      -0.182
      -0.084
       0.026
       0.143
       0.253
       0.342
       0.404
       0.440
       0.459
       0.461
       0.445
       0.403
       0.336
       0.251
       0.162
       0.080
       0.008
      -0.059
      -0.127
      -0.196
      -0.262
      -0.322
      -0.379
      -0.434
      -0.491
      -0.544
      -0.583
      -0.598
      -0.590
      -0.566
      -0.533
      -0.490
      -0.426
      -0.334
      -0.208
      -0.051
       0.128
       0.316
       0.500
       0.665
       0.797
       0.883
       0.924
       0.928
       0.901
       0.841
       0.736
       0.581
       0.382
       0.165
      -0.038
      -0.198
      -0.304
      -0.360
      -0.378
      -0.366
      -0.322
      -0.244
      -0.133
       0.002
       0.137
       0.244
       0.301
       0.307
       0.273
       0.223
       0.170
       0.116
       0.051
      -0.035
      -0.141
      -0.255
      -0.352
      -0.411
      -0.413
      -0.358
      -0.262
      -0.148
      -0.035
       0.064
       0.144
       0.201
       0.240
       0.261
       0.258
       0.227
       0.165
       0.082
      -0.009
      -0.092
      -0.159
      -0.210
      -0.257
      -0.311
      -0.373
      -0.430
      -0.470
      -0.484
      -0.468
      -0.430
      -0.377
      -0.319
      -0.260
      -0.204
      -0.150
      -0.096
      -0.045
      -0.002
       0.020
       0.019
       0.002
      -0.016
      -0.021
      -0.005
       0.029
       0.074
       0.124
       0.178
       0.239
       0.308
       0.387
       0.470
       0.549
       0.612
       0.651
       0.664
       0.653
       0.621
       0.565
       0.487
       0.390
       0.282
       0.168
       0.053
      -0.060
      -0.167
      -0.263
      -0.345
      -0.411
      -0.465
      -0.509
      -0.545
      -0.578
      -0.612
      -0.654
      -0.700
      -0.738
      -0.750
      -0.726
      -0.666
      -0.579
      -0.475
      -0.355
      -0.211
      -0.037
       0.160
       0.355
       0.520
       0.635
       0.693
       0.699
       0.665
       0.606
       0.535
       0.462
       0.388
       0.313
       0.240
       0.180
       0.148
       0.158
       0.210
       0.288
       0.373
       0.441
       0.478
       0.483
       0.464
       0.431
       0.388
       0.326
       0.232
       0.098
      -0.067
      -0.240
      -0.392
      -0.507
      -0.586
      -0.645
      -0.693
      -0.733
      -0.757
      -0.756
      -0.721
      -0.653
      -0.559
      -0.453
      -0.349
      -0.249
      -0.146
      -0.029
       0.108
       0.260
       0.407
       0.522
       0.578
       0.569
       0.506
       0.415
       0.320
       0.229
       0.141
       0.048
      -0.046
      -0.132
      -0.199
      -0.242
      -0.261
      -0.262
      -0.257
      -0.254
      -0.255
      -0.251
      -0.235
      -0.197
      -0.134
      -0.054
