Origin Time       1/5/2013 06:57:12	 
Lat.              33.1 N	
Long.             75.8 E	
Depth (Km)         15.0
Magnitude         5.8
 Region           JK-HP-Border                                                     
 Above details taken from IMD 
   
Station Code      UNA
Station Lat.       31.466
Station Long.      76.263
Station Height(m)  351.0
Site Class        C   Vs30 between 200 m/sec to 375 m/sec *  
Record Time       01.05.2013 06:57:20.749
Sampling Rate     200. Hz
 Record Duration  122.500 Sec.
 Direction         Vert. (Up positive)
Max. Acceleration     10.189 cm/sec**2
     
  * For reference see Site Classification link of website 
     
 Base Line Corrected and Low Pass Filtered (Cut Off at 35 Hz) Time History
 Acceleration data in cm/sec**2
    
[...]
       0.053
       0.028
      -0.089
      -0.295
      -0.563
      -0.856
      -1.142
      -1.391
      -1.567
      -1.627
      -1.534
      -1.279
      -0.882
      -0.382
       0.173
       0.728
       1.219
       1.574
       1.740
       1.709
       1.529
       1.292
       1.094
       1.003
       1.034
       1.152
       1.295
       1.410
       1.470
       1.480
       1.466
       1.451
       1.439
       1.414
       1.352
       1.249
       1.128
       1.023
       0.952
       0.902
       0.836
       0.716
       0.519
       0.240
      -0.112
      -0.523
      -0.980
      -1.458
      -1.919
      -2.318
      -2.627
      -2.848
      -3.002
      -3.091
      -3.076
      -2.903
      -2.555
      -2.101
      -1.665
      -1.344
      -1.153
      -1.031
      -0.902
      -0.733
      -0.538
      -0.344
      -0.169
      -0.019
       0.104
       0.207
       0.306
       0.439
       0.642
       0.931
       1.293
       1.690
       2.073
       2.390
       2.605
       2.715
       2.757
       2.787
       2.831
       2.864
       2.817
       2.635
       2.311
       1.892
       1.428
       0.939
       0.417
      -0.127
      -0.640
      -1.045
      -1.289
      -1.381
      -1.395
      -1.425
      -1.515
      -1.619
      -1.644
      -1.531
      -1.295
      -0.997
      -0.689
      -0.385
      -0.091
       0.173
       0.377
       0.506
       0.570
       0.586
       0.564
       0.513
       0.443
       0.364
       0.267
       0.127
      -0.080
      -0.350
      -0.656
      -0.955
      -1.207
      -1.382
      -1.463
      -1.451
      -1.353
      -1.183
      -0.962
      -0.725
      -0.522
      -0.390
      -0.339
      -0.341
      -0.353
      -0.338
      -0.273
      -0.144
       0.050
       0.298
       0.580
       0.859
       1.089
       1.229
       1.266
       1.228
       1.173
       1.136
       1.111
       1.063
       0.980
       0.887
       0.809
       0.735
       0.615
       0.403
       0.093
      -0.278
      -0.667
      -1.042
      -1.373
      -1.632
      -1.794
      -1.845
      -1.785
      -1.623
      -1.380
      -1.088
      -0.779
      -0.483
      -0.226
      -0.028
       0.100
       0.171
       0.231
       0.331
       0.491
       0.686
       0.866
       0.986
       1.024
       0.987
       0.892
       0.751
       0.560
       0.298
      -0.050
      -0.491
      -1.007
      -1.561
      -2.094
      -2.536
      -2.825
      -2.929
      -2.852
      -2.610
      -2.210
      -1.647
      -0.920
      -0.054
       0.888
       1.813
       2.618
       3.222
       3.587
       3.728
       3.689
       3.517
       3.246
       2.896
       2.486
       2.038
       1.570
       1.102
       0.657
       0.264
      -0.054
      -0.300
      -0.502
      -0.696
      -0.904
      -1.129
      -1.358
      -1.581
      -1.795
      -1.992
      -2.152
      -2.248
      -2.260
      -2.191
      -2.059
      -1.887
      -1.695
      -1.506
      -1.352
      -1.274
      -1.306
      -1.459
      -1.708
      -1.990
      -2.202
      -2.232
      -1.994
      -1.467
      -0.699
       0.213
       1.158
       2.046
       2.813
       3.421
       3.859
       4.130
       4.256
       4.265
       4.184
       4.024
       3.774
       3.408
       2.905
       2.263
       1.501
       0.643
      -0.275
      -1.193
      -2.022
      -2.674
      -3.097
      -3.295
      -3.318
      -3.231
      -3.081
      -2.880
      -2.609
      -2.248
      -1.800
      -1.293
      -0.760
      -0.225
       0.298
       0.779
       1.169
       1.419
       1.500
       1.405
       1.138
       0.713
       0.174
      -0.399
      -0.906
      -1.253
      -1.374
      -1.245
      -0.889
      -0.377
       0.185
       0.696
       1.101
       1.391
       1.577
       1.656
       1.618
       1.468
       1.247
       1.014
       0.811
       0.638
       0.463
       0.245
      -0.030
      -0.354
      -0.699
      -1.026
      -1.285
      -1.415
      -1.370
      -1.142
      -0.778
      -0.359
       0.034
       0.356
       0.607
       0.814
       1.000
       1.173
       1.320
       1.425
       1.476
       1.464
       1.383
       1.222
       0.969
       0.621
       0.192
      -0.292
      -0.792
      -1.259
      -1.635
      -1.861
      -1.905
      -1.782
      -1.544
      -1.264
      -1.005
      -0.806
      -0.680
      -0.618
      -0.589
      -0.551
      -0.465
      -0.305
      -0.058
       0.280
       0.699
       1.184
       1.713
       2.267
       2.824
       3.355
       3.827
       4.205
       4.464
       4.585
       4.545
       4.319
       3.884
       3.226
       2.350
       1.278
       0.056
      -1.238
      -2.500
      -3.632
      -4.569
      -5.292
      -5.801
      -6.091
      -6.144
      -5.953
      -5.544
      -4.971
      -4.289
      -3.534
      -2.736
      -1.939
      -1.218
      -0.655
      -0.313
      -0.205
      -0.286
      -0.459
      -0.611
      -0.642
      -0.485
      -0.116
       0.450
       1.165
       1.955
       2.737
       3.438
       4.002
       4.398
       4.616
       4.666
       4.585
       4.420
       4.216
       3.993
       3.750
       3.468
       3.121
       2.682
       2.122
       1.424
       0.592
      -0.346
      -1.333
      -2.288
      -3.121
      -3.760
      -4.166
      -4.329
      -4.256
      -3.965
      -3.497
      -2.917
      -2.301
      -1.703
      -1.155
      -0.674
      -0.278
       0.016
       0.190
       0.247
       0.217
       0.151
       0.098
       0.081
       0.092
       0.115
       0.144
       0.202
       0.317
       0.497
       0.726
       0.974
       1.218
       1.437
       1.611
       1.717
       1.726
       1.617
       1.377
       1.016
       0.570
       0.079
      -0.428
      -0.947
      -1.476
      -1.990
      -2.436
      -2.757
      -2.917
      -2.907
      -2.729
      -2.393
      -1.924
      -1.364
      -0.762
      -0.154
       0.436
       0.969
       1.392
       1.657
       1.757
       1.734
       1.650
       1.546
       1.441
       1.338
       1.240
       1.155
       1.091
       1.060
       1.062
       1.080
       1.071
       0.988
       0.815
       0.575
       0.322
       0.101
      -0.073
      -0.215
      -0.351
      -0.494
      -0.640
      -0.769
      -0.857
      -0.891
      -0.873
      -0.826
      -0.779
      -0.753
      -0.746
      -0.745
      -0.749
      -0.773
      -0.837
      -0.937
      -1.048
      -1.145
      -1.217
      -1.267
      -1.290
      -1.276
      -1.205
      -1.065
      -0.839
      -0.513
      -0.088
       0.416
       0.963
       1.517
       2.052
       2.535
       2.919
       3.159
       3.237
       3.167
       2.970
       2.659
       2.250
       1.789
       1.348
       0.987
       0.711
       0.474
       0.216
      -0.092
      -0.438
      -0.798
      -1.156
      -1.515
      -1.888
      -2.281
      -2.675
      -3.035
      -3.318
      -3.484
      -3.500
      -3.341
      -2.985
      -2.435
      -1.734
      -0.961
      -0.208
       0.446
       0.955
       1.309
       1.521
       1.614
       1.609
       1.517
       1.343
       1.103
       0.830
       0.560
       0.316
       0.099
      -0.114
      -0.366
      -0.695
      -1.101
      -1.529
      -1.881
      -2.068
      -2.050
      -1.853
      -1.529
      -1.125
      -0.666
      -0.176
       0.313
       0.773
       1.195
       1.588
       1.969
       2.339
       2.676
       2.929
       3.030
       2.926
       2.614
       2.147
       1.602
       1.040
       0.491
      -0.028
      -0.487
      -0.842
      -1.055
      -1.117
      -1.065
      -0.967
      -0.882
      -0.834
      -0.801
      -0.744
      -0.632
      -0.458
      -0.220
       0.088
       0.461
       0.866
       1.247
       1.555
       1.765
       1.876
       1.895
       1.838
       1.735
       1.618
       1.495
       1.332
       1.073
       0.677
       0.142
      -0.498
      -1.199
      -1.914
      -2.601
      -3.208
      -3.661
      -3.872
      -3.769
      -3.342
      -2.648
      -1.790
      -0.874
       0.007
       0.771
       1.351
       1.705
       1.834
       1.772
       1.580
       1.336
       1.124
       0.997
       0.967
       1.000
       1.040
       1.030
       0.924
       0.702
       0.379
       0.003
      -0.382
      -0.753
      -1.104
      -1.423
      -1.679
      -1.842
      -1.896
      -1.845
      -1.700
      -1.478
      -1.200
      -0.875
      -0.497
      -0.058
       0.419
       0.873
       1.221
       1.409
       1.421
       1.278
       1.024
       0.731
       0.478
       0.308
       0.200
       0.091
      -0.054
      -0.209
      -0.323
      -0.368
      -0.363
      -0.342
      -0.310
      -0.251
      -0.152
      -0.016
       0.144
       0.310
       0.456
       0.552
       0.581
       0.555
       0.502
       0.443
       0.373
       0.270
       0.128
      -0.031
      -0.162
      -0.217
      -0.191
      -0.125
      -0.092
      -0.140
      -0.255
      -0.373
      -0.423
      -0.374
      -0.231
      -0.001
       0.325
       0.758
       1.274
       1.793
       2.210
       2.449
       2.490
       2.351
       2.052
       1.615
       1.097
       0.597
       0.216
       0.002
      -0.071
      -0.068
      -0.063
      -0.118
      -0.292
      -0.624
      -1.113
      -1.707
      -2.314
      -2.833
      -3.181
      -3.311
      -3.228
      -2.976
      -2.609
      -2.177
      -1.723
      -1.296
      -0.947
      -0.714
      -0.599
      -0.566
      -0.547
      -0.470
      -0.287
       0.001
       0.343
       0.677
       0.962
       1.188
       1.361
       1.475
       1.527
       1.535
       1.551
       1.625
       1.770
       1.944
       2.072
       2.075
       1.894
       1.506
       0.935
       0.256
      -0.429
      -1.019
      -1.448
      -1.696
      -1.782
      -1.755
      -1.670
      -1.572
      -1.476
      -1.361
      -1.175
      -0.852
      -0.346
       0.347
       1.171
       2.024
       2.789
       3.367
       3.696
       3.766
       3.613
       3.301
       2.885
       2.393
       1.833
       1.213
       0.554
      -0.123
      -0.806
      -1.483
      -2.135
      -2.731
      -3.237
      -3.617
      -3.806
      -3.714
      -3.262
      -2.444
      -1.351
      -0.146
       1.005
       1.979
       2.711
       3.169
       3.338
       3.227
       2.881
       2.397
       1.899
       1.482
       1.174
       0.938
       0.716
       0.480
       0.234
      -0.021
      -0.308
      -0.657
      -1.075
      -1.524
      -1.944
      -2.278
      -2.496
      -2.602
      -2.634
      -2.656
      -2.727
      -2.876
      -3.088
      -3.313
      -3.479
      -3.515
      -3.373
      -3.055
      -2.605
      -2.081
      -1.527
      -0.964
      -0.413
       0.117
       0.634
       1.170
       1.757
       2.400
       3.085
       3.788
       4.478
       5.111
       5.629
       5.980
       6.141
       6.117
       5.942
       5.678
       5.408
       5.201
       5.073
       4.974
       4.816
       4.504
       3.973
       3.201
       2.216
       1.089
      -0.103
      -1.311
      -2.509
      -3.658
      -4.684
      -5.494
      -6.029
      -6.295
      -6.359
      -6.311
      -6.221
      -6.127
      -6.031
      -5.915
      -5.745
      -5.488
      -5.128
      -4.675
      -4.165
      -3.633
      -3.095
      -2.540
      -1.942
      -1.286
      -0.578
       0.151
       0.864
       1.527
       2.125
       2.663
       3.154
       3.603
       4.001
       4.330
       4.567
       4.691
       4.677
       4.516
       4.210
       3.771
       3.215
       2.569
       1.877
       1.188
       0.521
      -0.134
      -0.787
      -1.409
      -1.942
      -2.330
      -2.544
      -2.590
      -2.506
      -2.364
      -2.243
      -2.188
      -2.186
      -2.212
      -2.278
      -2.424
      -2.653
      -2.878
      -2.962
      -2.798
      -2.362
      -1.691
      -0.836
       0.168
       1.297
       2.513
       3.751
       4.923
       5.932
       6.688
       7.130
       7.224
       6.967
       6.381
       5.531
       4.513
       3.429
       2.338
       1.236
       0.071
      -1.206
      -2.602
      -4.074
      -5.544
      -6.916
      -8.083
      -8.951
      -9.458
      -9.579
      -9.307
      -8.645
      -7.628
      -6.345
      -4.910
      -3.410
      -1.884
      -0.371
       1.052
       2.293
       3.323
       4.197
       4.978
       5.672
       6.220
       6.571
       6.723
       6.700
       6.513
       6.167
       5.680
       5.087
       4.425
       3.724
       3.010
       2.297
       1.582
       0.867
       0.182
      -0.430
      -0.956
      -1.433
      -1.902
      -2.366
      -2.800
      -3.218
      -3.677
      -4.222
      -4.827
      -5.422
      -5.958
      -6.421
      -6.793
      -7.020
      -7.035
      -6.799
      -6.302
      -5.537
      -4.508
      -3.269
      -1.938
      -0.639
       0.559
       1.658
       2.702
       3.734
       4.786
       5.878
       7.006
       8.123
       9.126
       9.866
      10.189
       9.982
       9.238
       8.079
       6.716
       5.348
       4.094
       2.972
       1.948
       0.984
       0.057
      -0.842
      -1.731
      -2.641
      -3.605
      -4.624
      -5.648
      -6.601
      -7.427
      -8.110
      -8.651
      -9.041
      -9.254
      -9.263
      -9.043
      -8.553
      -7.758
      -6.659
      -5.309
      -3.791
      -2.179
      -0.525
       1.116
       2.685
       4.134
       5.436
       6.562
       7.482
       8.176
       8.648
       8.912
       8.968
       8.803
       8.401
       7.744
       6.812
       5.607
       4.189
       2.656
       1.085
      -0.497
      -2.071
      -3.570
      -4.891
      -5.951
      -6.726
      -7.240
      -7.536
      -7.657
      -7.624
      -7.422
      -7.010
      -6.363
      -5.501
      -4.472
      -3.317
      -2.075
      -0.793
       0.476
       1.694
       2.829
       3.825
       4.605
       5.093
       5.252
       5.092
       4.671
       4.110
       3.554
       3.103
       2.759
       2.471
       2.213
       2.000
       1.840
       1.699
       1.542
       1.386
       1.283
       1.242
       1.206
       1.106
       0.921
       0.686
       0.448
       0.239
       0.063
      -0.097
      -0.276
      -0.505
      -0.783
      -1.074
      -1.327
      -1.505
      -1.587
      -1.563
      -1.431
      -1.204
      -0.896
      -0.510
      -0.057
       0.418
       0.844
       1.173
       1.419
       1.640
       1.874
       2.107
       2.314
       2.493
       2.660
       2.816
       2.944
       3.025
       3.047
       2.997
       2.846
       2.562
       2.131
       1.546
       0.794
      -0.142
      -1.264
      -2.540
      -3.899
      -5.246
      -6.473
      -7.484
      -8.210
      -8.617
      -8.695
      -8.442
      -7.861
      -6.967
      -5.796
      -4.412
      -2.891
      -1.304
       0.283
       1.790
       3.142
       4.293
       5.242
       6.000
       6.556
       6.876
       6.938
       6.745
       6.298
       5.592
       4.655
       3.591
       2.537
       1.588
       0.770
       0.074
      -0.499
      -0.948
      -1.287
      -1.525
      -1.641
      -1.605
      -1.437
      -1.217
      -1.035
      -0.940
      -0.950
      -1.076
      -1.312
      -1.611
      -1.885
      -2.069
      -2.169
      -2.237
      -2.319
      -2.443
      -2.633
      -2.922
      -3.308
      -3.720
      -4.038
      -4.159
      -4.043
      -3.694
      -3.122
      -2.331
      -1.337
      -0.182
       1.071
       2.349
       3.558
       4.589
       5.344
       5.794
       5.980
       5.980
       5.840
       5.553
       5.078
       4.393
       3.536
       2.588
       1.625
       0.684
      -0.234
      -1.109
      -1.877
      -2.463
      -2.853
      -3.100
      -3.279
      -3.432
      -3.579
      -3.738
      -3.921
      -4.087
      -4.138
      -3.974
      -3.558
      -2.912
      -2.074
      -1.059
       0.104
       1.334
       2.497
       3.449
       4.104
       4.459
       4.581
       4.554
       4.430
       4.209
       3.859
       3.351
       2.681
       1.853
       0.864
      -0.286
      -1.560
      -2.869
      -4.087
      -5.090
      -5.799
      -6.198
      -6.325
      -6.247
      -6.022
      -5.680
      -5.218
      -4.626
      -3.906
      -3.072
      -2.129
      -1.072
       0.089
       1.291
       2.426
       3.398
       4.191
       4.856
       5.454
       5.994
       6.431
       6.710
       6.800
       6.704
       6.432
       5.989
       5.377
       4.603
       3.692
       2.703
       1.711
       0.785
      -0.028
      -0.685
      -1.136
      -1.334
      -1.272
      -1.005
      -0.634
      -0.262
       0.040
       0.223
       0.253
       0.104
      -0.230
      -0.719
      -1.309
      -1.925
      -2.486
      -2.924
      -3.195
      -3.292
      -3.230
      -3.038
      -2.751
      -2.416
      -2.095
      -1.823
      -1.585
      -1.324
      -0.989
      -0.577
      -0.126
       0.309
       0.682
       0.959
       1.121
       1.155
       1.059
       0.838
       0.520
       0.154
      -0.188
      -0.441
      -0.568
      -0.562
      -0.438
      -0.221
       0.059
       0.360
       0.622
       0.775
       0.771
       0.608
       0.344
       0.070
      -0.118
      -0.164
      -0.063
       0.141
       0.378
       0.575
       0.669
       0.614
       0.396
       0.037
      -0.393
      -0.797
      -1.083
      -1.203
      -1.173
      -1.051
      -0.895
      -0.734
      -0.564
      -0.376
      -0.172
       0.022
       0.171
       0.250
       0.256
       0.202
       0.110
       0.001
      -0.110
      -0.202
      -0.249
      -0.228
      -0.133
       0.027
       0.234
       0.476
       0.753
       1.064
       1.392
       1.692
       1.912
       2.018
       2.017
       1.961
       1.908
       1.896
       1.933
       2.004
       2.082
       2.113
       2.024
       1.752
       1.286
       0.675
       0.000
      -0.677
      -1.334
      -1.980
      -2.631
      -3.281
      -3.876
      -4.327
      -4.546
      -4.496
      -4.195
      -3.694
      -3.045
      -2.284
      -1.443
      -0.571
       0.254
       0.936
       1.386
       1.560
       1.471
       1.190
       0.808
       0.411
       0.058
      -0.232
      -0.471
      -0.688
      -0.903
      -1.125
      -1.349
      -1.571
      -1.788
      -1.998
      -2.183
      -2.317
      -2.381
      -2.371
      -2.305
      -2.203
      -2.060
      -1.839
      -1.487
      -0.967
      -0.300
       0.438
       1.161
       1.819
       2.420
       2.993
       3.537
       4.008
