Origin Time       1/5/2013 06:57:12	 
Lat.              33.1 N	
Long.             75.8 E	
Depth (Km)         15.0
Magnitude         5.8
 Region           JK-HP-Border                                                     
 Above details taken from IMD 
     
Station Code      UNA
Station Lat.       31.466  N
Station Long.      76.263  E
Station Height(m)  351.0
Site Class        C   Vs30 between 200 m/sec to 375 m/sec *  
Record Time       01.05.2013 06:57:20.749
Sampling Rate     200. Hz
 Record Duration  122.500 Sec.
 Direction         E-W (E positive)
Max. Acceleration     15.210 cm/sec**2
     
  * For reference see Site Classification link of website 
     
 Base Line Corrected and Low Pass Filtered (Cut Off at 35 Hz) Time History
 Acceleration data in cm/sec**2
    
[...]
      -0.031
       0.003
       0.042
       0.079
       0.110
       0.142
       0.180
       0.231
       0.295
       0.369
       0.442
       0.499
       0.529
       0.529
       0.512
       0.497
       0.502
       0.531
       0.578
       0.633
       0.682
       0.715
       0.726
       0.716
       0.680
       0.615
       0.518
       0.399
       0.279
       0.174
       0.088
       0.010
      -0.070
      -0.150
      -0.222
      -0.276
      -0.315
      -0.338
      -0.341
      -0.319
      -0.274
      -0.225
      -0.195
      -0.201
      -0.245
      -0.313
      -0.390
      -0.459
      -0.506
      -0.515
      -0.480
      -0.412
      -0.331
      -0.250
      -0.172
      -0.092
      -0.015
       0.046
       0.082
       0.097
       0.101
       0.108
       0.124
       0.150
       0.180
       0.206
       0.223
       0.229
       0.230
       0.231
       0.231
       0.220
       0.189
       0.135
       0.064
      -0.011
      -0.076
      -0.123
      -0.150
      -0.162
      -0.163
      -0.156
      -0.142
      -0.121
      -0.091
      -0.054
      -0.015
       0.019
       0.047
       0.066
       0.075
       0.073
       0.062
       0.050
       0.049
       0.066
       0.102
       0.152
       0.202
       0.241
       0.258
       0.249
       0.216
       0.165
       0.107
       0.051
       0.005
      -0.032
      -0.060
      -0.085
      -0.115
      -0.150
      -0.187
      -0.214
      -0.221
      -0.206
      -0.177
      -0.145
      -0.119
      -0.098
      -0.079
      -0.057
      -0.031
      -0.006
       0.015
       0.028
       0.031
       0.019
      -0.011
      -0.051
      -0.091
      -0.123
      -0.149
      -0.174
      -0.199
      -0.217
      -0.219
      -0.198
      -0.156
      -0.096
      -0.028
       0.038
       0.094
       0.138
       0.169
       0.190
       0.201
       0.203
       0.193
       0.169
       0.127
       0.069
       0.000
      -0.076
      -0.150
      -0.213
      -0.258
      -0.283
      -0.290
      -0.277
      -0.246
      -0.203
      -0.161
      -0.134
      -0.125
      -0.128
      -0.135
      -0.139
      -0.139
      -0.134
      -0.127
      -0.120
      -0.114
      -0.105
      -0.087
      -0.054
      -0.011
       0.034
       0.073
       0.103
       0.128
       0.150
       0.166
       0.166
       0.143
       0.097
       0.034
      -0.036
      -0.104
      -0.163
      -0.212
      -0.251
      -0.281
      -0.296
      -0.293
      -0.274
      -0.242
      -0.199
      -0.148
      -0.088
      -0.019
       0.059
       0.144
       0.236
       0.335
       0.437
       0.532
       0.605
       0.645
       0.645
       0.609
       0.544
       0.461
       0.373
       0.297
       0.243
       0.216
       0.207
       0.204
       0.194
       0.168
       0.126
       0.074
       0.022
      -0.020
      -0.048
      -0.062
      -0.067
      -0.068
      -0.068
      -0.065
      -0.059
      -0.050
      -0.043
      -0.038
      -0.027
      -0.001
       0.042
       0.092
       0.132
       0.149
       0.137
       0.097
       0.039
      -0.030
      -0.100
      -0.168
      -0.235
      -0.298
      -0.352
      -0.386
      -0.399
      -0.396
      -0.387
      -0.380
      -0.375
      -0.369
      -0.368
      -0.378
      -0.403
      -0.439
      -0.473
      -0.495
      -0.496
      -0.475
      -0.433
      -0.376
      -0.320
      -0.276
      -0.252
      -0.244
      -0.246
      -0.250
      -0.255
      -0.255
      -0.244
      -0.215
      -0.172
      -0.124
      -0.088
      -0.075
      -0.081
      -0.097
      -0.113
      -0.128
      -0.143
      -0.158
      -0.165
      -0.158
      -0.133
      -0.091
      -0.041
       0.009
       0.053
       0.092
       0.128
       0.163
       0.195
       0.217
       0.227
       0.226
       0.221
       0.217
       0.216
       0.208
       0.190
       0.168
       0.155
       0.158
       0.173
       0.187
       0.192
       0.185
       0.170
       0.148
       0.122
       0.097
       0.077
       0.062
       0.047
       0.026
      -0.002
      -0.037
      -0.075
      -0.112
      -0.144
      -0.167
      -0.177
      -0.165
      -0.127
      -0.066
       0.009
       0.087
       0.156
       0.209
       0.244
       0.264
       0.274
       0.275
       0.265
       0.246
       0.223
       0.201
       0.185
       0.173
       0.163
       0.156
       0.151
       0.153
       0.165
       0.188
       0.216
       0.239
       0.250
       0.251
       0.243
       0.232
       0.219
       0.200
       0.176
       0.150
       0.125
       0.104
       0.085
       0.061
       0.030
      -0.002
      -0.022
      -0.022
      -0.002
       0.030
       0.067
       0.105
       0.140
       0.169
       0.188
       0.195
       0.191
       0.180
       0.163
       0.137
       0.101
       0.062
       0.027
      -0.001
      -0.021
      -0.036
      -0.044
      -0.046
      -0.041
      -0.029
      -0.012
       0.009
       0.028
       0.042
       0.047
       0.042
       0.026
       0.000
      -0.030
      -0.058
      -0.079
      -0.090
      -0.087
      -0.071
      -0.046
      -0.020
      -0.010
      -0.024
      -0.062
      -0.112
      -0.157
      -0.184
      -0.192
      -0.187
      -0.182
      -0.184
      -0.195
      -0.209
      -0.218
      -0.212
      -0.183
      -0.131
      -0.063
       0.009
       0.073
       0.128
       0.172
       0.205
       0.225
       0.233
       0.232
       0.232
       0.242
       0.266
       0.303
       0.343
       0.375
       0.390
       0.377
       0.336
       0.274
       0.205
       0.137
       0.076
       0.022
      -0.028
      -0.072
      -0.110
      -0.141
      -0.164
      -0.173
      -0.167
      -0.143
      -0.105
      -0.061
      -0.021
       0.010
       0.032
       0.053
       0.077
       0.107
       0.141
       0.170
       0.182
       0.167
       0.125
       0.065
       0.000
      -0.058
      -0.104
      -0.137
      -0.161
      -0.188
      -0.226
      -0.269
      -0.291
      -0.274
      -0.225
      -0.186
      -0.197
      -0.260
      -0.332
      -0.364
      -0.338
      -0.281
      -0.234
      -0.226
      -0.257
      -0.310
      -0.361
      -0.390
      -0.389
      -0.359
      -0.312
      -0.264
      -0.222
      -0.186
      -0.154
      -0.125
      -0.103
      -0.089
      -0.082
      -0.078
      -0.074
      -0.068
      -0.059
      -0.048
      -0.035
      -0.019
      -0.007
      -0.001
      -0.001
       0.006
       0.031
       0.074
       0.124
       0.166
       0.193
       0.204
       0.200
       0.182
       0.147
       0.094
       0.023
      -0.064
      -0.159
      -0.251
      -0.327
      -0.379
      -0.404
      -0.409
      -0.403
      -0.393
      -0.381
      -0.363
      -0.338
      -0.305
      -0.274
      -0.255
      -0.256
      -0.274
      -0.296
      -0.308
      -0.307
      -0.297
      -0.284
      -0.270
      -0.249
      -0.221
      -0.191
      -0.161
      -0.131
      -0.102
      -0.074
      -0.055
      -0.051
      -0.068
      -0.101
      -0.138
      -0.155
      -0.131
      -0.055
       0.068
       0.218
       0.368
       0.494
       0.584
       0.641
       0.672
       0.680
       0.658
       0.605
       0.523
       0.423
       0.323
       0.235
       0.171
       0.131
       0.110
       0.103
       0.101
       0.094
       0.070
       0.024
      -0.039
      -0.104
      -0.155
      -0.183
      -0.185
      -0.171
      -0.153
      -0.137
      -0.125
      -0.113
      -0.096
      -0.071
      -0.039
       0.003
       0.053
       0.102
       0.146
       0.184
       0.219
       0.257
       0.293
       0.316
       0.314
       0.279
       0.216
       0.140
       0.070
       0.027
       0.021
       0.054
       0.118
       0.190
       0.249
       0.279
       0.278
       0.251
       0.207
       0.159
       0.114
       0.075
       0.032
      -0.021
      -0.081
      -0.136
      -0.175
      -0.199
      -0.216
      -0.236
      -0.266
      -0.300
      -0.325
      -0.328
      -0.303
      -0.249
      -0.171
      -0.074
       0.036
       0.152
       0.267
       0.377
       0.471
       0.539
       0.574
       0.576
       0.552
       0.506
       0.444
       0.370
       0.296
       0.231
       0.176
       0.131
       0.091
       0.054
       0.017
      -0.028
      -0.091
      -0.177
      -0.285
      -0.405
      -0.523
      -0.624
      -0.697
      -0.736
      -0.736
      -0.700
      -0.636
      -0.555
      -0.465
      -0.371
      -0.279
      -0.190
      -0.105
      -0.020
       0.079
       0.205
       0.363
       0.545
       0.734
       0.909
       1.060
       1.184
       1.283
       1.355
       1.399
       1.409
       1.386
       1.337
       1.273
       1.205
       1.137
       1.063
       0.980
       0.888
       0.793
       0.701
       0.616
       0.546
       0.497
       0.472
       0.468
       0.480
       0.499
       0.519
       0.530
       0.521
       0.482
       0.409
       0.304
       0.171
       0.014
      -0.161
      -0.346
      -0.532
      -0.703
      -0.847
      -0.962
      -1.054
      -1.125
      -1.172
      -1.189
      -1.174
      -1.135
      -1.080
      -1.014
      -0.945
      -0.876
      -0.808
      -0.739
      -0.665
      -0.588
      -0.511
      -0.439
      -0.373
      -0.312
      -0.252
      -0.192
      -0.137
      -0.086
      -0.032
       0.032
       0.105
       0.176
       0.233
       0.272
       0.298
       0.316
       0.330
       0.344
       0.368
       0.407
       0.468
       0.550
       0.653
       0.773
       0.901
       1.029
       1.149
       1.259
       1.356
       1.437
       1.497
       1.523
       1.503
       1.433
       1.319
       1.170
       0.997
       0.801
       0.581
       0.340
       0.082
      -0.183
      -0.446
      -0.703
      -0.954
      -1.205
      -1.458
      -1.707
      -1.936
      -2.136
      -2.305
      -2.448
      -2.573
      -2.680
      -2.763
      -2.816
      -2.839
      -2.835
      -2.810
      -2.765
      -2.700
      -2.613
      -2.499
      -2.356
      -2.179
      -1.966
      -1.723
      -1.456
      -1.170
      -0.868
      -0.555
      -0.242
       0.060
       0.345
       0.606
       0.841
       1.054
       1.250
       1.431
       1.590
       1.718
       1.804
       1.850
       1.866
       1.861
       1.836
       1.781
       1.682
       1.532
       1.339
       1.118
       0.883
       0.646
       0.418
       0.211
       0.040
      -0.079
      -0.134
      -0.123
      -0.052
       0.062
       0.207
       0.373
       0.557
       0.754
       0.959
       1.158
       1.334
       1.469
       1.556
       1.599
       1.608
       1.594
       1.560
       1.508
       1.432
       1.326
       1.185
       1.011
       0.816
       0.610
       0.396
       0.175
      -0.055
      -0.295
      -0.549
      -0.822
      -1.117
      -1.422
      -1.715
      -1.970
      -2.165
      -2.289
      -2.344
      -2.343
      -2.305
      -2.246
      -2.174
      -2.089
      -1.984
      -1.848
      -1.674
      -1.463
      -1.219
      -0.952
      -0.674
      -0.399
      -0.139
       0.103
       0.328
       0.534
       0.720
       0.887
       1.045
       1.211
       1.392
       1.588
       1.786
       1.976
       2.151
       2.312
       2.464
       2.602
       2.709
       2.766
       2.759
       2.682
       2.536
       2.327
       2.065
       1.767
       1.451
       1.134
       0.830
       0.546
       0.282
       0.037
      -0.187
      -0.390
      -0.570
      -0.723
      -0.851
      -0.959
      -1.061
      -1.167
      -1.285
      -1.418
      -1.571
      -1.759
      -1.990
      -2.271
      -2.599
      -2.964
      -3.354
      -3.746
      -4.117
      -4.449
      -4.738
      -4.992
      -5.217
      -5.415
      -5.578
      -5.700
      -5.776
      -5.805
      -5.784
      -5.713
      -5.595
      -5.430
      -5.217
      -4.953
      -4.634
      -4.255
      -3.813
      -3.308
      -2.741
      -2.114
      -1.437
      -0.724
       0.012
       0.758
       1.506
       2.245
       2.960
       3.638
       4.262
       4.821
       5.304
       5.713
       6.055
       6.333
       6.536
       6.646
       6.648
       6.540
       6.329
       6.026
       5.640
       5.186
       4.684
       4.162
       3.641
       3.129
       2.620
       2.098
       1.551
       0.972
       0.365
      -0.258
      -0.876
      -1.468
      -2.022
      -2.536
      -3.022
      -3.493
      -3.957
      -4.413
      -4.853
      -5.273
      -5.672
      -6.051
      -6.410
      -6.741
      -7.033
      -7.270
      -7.445
      -7.561
      -7.629
      -7.661
      -7.650
      -7.581
      -7.431
      -7.188
      -6.842
      -6.385
      -5.818
      -5.153
      -4.410
      -3.602
      -2.712
      -1.710
      -0.581
       0.645
       1.903
       3.143
       4.361
       5.594
       6.865
       8.158
       9.421
      10.605
      11.682
      12.647
      13.490
      14.191
      14.722
      15.062
      15.210
      15.172
      14.953
      14.550
      13.959
      13.183
      12.233
      11.135
       9.918
       8.617
       7.258
       5.861
       4.445
       3.031
       1.637
       0.275
      -1.048
      -2.317
      -3.511
      -4.605
      -5.585
      -6.451
      -7.205
      -7.854
      -8.410
      -8.884
      -9.278
      -9.581
      -9.778
      -9.860
      -9.830
      -9.692
      -9.446
      -9.086
      -8.603
      -8.001
      -7.297
      -6.521
      -5.697
      -4.842
      -3.958
      -3.060
      -2.179
      -1.358
      -0.621
       0.033
       0.621
       1.154
       1.629
       2.040
       2.387
       2.675
       2.915
       3.126
       3.329
       3.544
       3.785
       4.063
       4.384
       4.758
       5.194
       5.698
       6.270
       6.897
       7.548
       8.181
       8.758
       9.244
       9.609
       9.827
       9.870
       9.719
       9.368
       8.823
       8.098
       7.212
       6.193
       5.069
       3.867
       2.612
       1.326
       0.034
      -1.237
      -2.459
      -3.616
      -4.711
      -5.759
      -6.777
      -7.762
      -8.687
      -9.512
     -10.204
     -10.752
     -11.158
     -11.432
     -11.578
     -11.599
     -11.510
     -11.336
     -11.102
     -10.829
     -10.520
     -10.165
      -9.751
      -9.266
      -8.712
      -8.096
      -7.421
      -6.668
      -5.814
      -4.849
      -3.785
      -2.644
      -1.441
      -0.180
       1.133
       2.479
       3.818
       5.102
       6.284
       7.329
       8.214
       8.932
       9.486
       9.886
      10.135
      10.225
      10.145
       9.898
       9.511
       9.020
       8.459
       7.844
       7.180
       6.473
       5.741
       5.014
       4.329
       3.712
       3.174
       2.705
       2.290
       1.923
       1.611
       1.362
       1.173
       1.022
       0.875
       0.697
       0.466
       0.175
      -0.178
      -0.589
      -1.057
      -1.579
      -2.142
      -2.725
      -3.304
      -3.864
      -4.401
      -4.919
      -5.420
      -5.885
      -6.283
      -6.582
      -6.761
      -6.823
      -6.784
      -6.664
      -6.476
      -6.224
      -5.906
      -5.528
      -5.113
      -4.691
      -4.293
      -3.931
      -3.603
      -3.304
      -3.034
      -2.797
      -2.590
      -2.399
      -2.189
      -1.922
      -1.567
      -1.111
      -0.555
       0.089
       0.812
       1.606
       2.453
       3.323
       4.174
       4.961
       5.645
       6.202
       6.625
       6.922
       7.106
       7.192
       7.183
       7.075
       6.861
       6.546
       6.145
       5.675
       5.150
       4.576
       3.967
       3.334
       2.692
       2.056
       1.441
       0.859
       0.311
      -0.217
      -0.740
      -1.263
      -1.784
      -2.294
      -2.790
      -3.277
      -3.762
      -4.249
      -4.733
      -5.203
      -5.639
      -6.018
      -6.315
      -6.511
      -6.591
      -6.550
      -6.386
      -6.104
      -5.711
      -5.219
      -4.644
      -4.009
      -3.339
      -2.653
      -1.961
      -1.263
      -0.551
       0.178
       0.914
       1.625
       2.278
       2.842
       3.296
       3.619
       3.788
       3.783
       3.599
       3.254
       2.788
       2.247
       1.673
       1.097
       0.546
       0.048
      -0.372
      -0.686
      -0.875
      -0.922
      -0.824
      -0.587
      -0.227
       0.236
       0.790
       1.421
       2.110
       2.831
       3.546
       4.213
       4.790
       5.248
       5.571
       5.754
       5.794
       5.684
       5.414
       4.979
       4.387
       3.657
       2.814
       1.879
       0.859
      -0.249
      -1.438
      -2.680
      -3.918
      -5.086
      -6.131
      -7.022
      -7.747
      -8.294
      -8.652
      -8.805
      -8.750
      -8.489
      -8.037
      -7.416
      -6.663
      -5.825
      -4.955
      -4.093
      -3.267
      -2.493
      -1.780
      -1.126
      -0.517
       0.062
       0.617
       1.141
       1.621
       2.051
       2.436
       2.795
       3.151
       3.522
       3.922
       4.353
       4.814
       5.306
       5.829
       6.362
       6.847
       7.200
       7.348
       7.269
       6.996
       6.572
       6.029
       5.385
       4.660
       3.882
       3.084
       2.288
       1.516
       0.797
       0.168
      -0.345
      -0.737
      -1.028
      -1.245
      -1.407
      -1.522
      -1.595
      -1.635
      -1.655
      -1.672
      -1.705
      -1.767
      -1.864
      -1.993
      -2.145
      -2.305
      -2.451
      -2.556
      -2.587
      -2.517
      -2.339
      -2.078
      -1.787
      -1.528
      -1.347
      -1.266
      -1.284
      -1.381
      -1.526
      -1.686
      -1.830
      -1.933
      -1.977
      -1.949
      -1.846
      -1.679
      -1.472
      -1.246
      -0.998
      -0.711
      -0.364
       0.044
       0.502
       0.993
       1.502
       2.009
       2.488
       2.909
       3.257
       3.520
       3.696
       3.783
       3.783
       3.711
       3.578
       3.389
       3.143
       2.839
       2.492
       2.124
       1.762
       1.435
       1.174
       1.012
       0.968
       1.039
       1.202
       1.434
       1.715
       2.031
       2.361
       2.677
       2.947
       3.146
       3.257
       3.272
       3.195
       3.037
       2.815
       2.535
       2.189
       1.758
       1.229
       0.609
      -0.078
      -0.806
      -1.557
      -2.321
      -3.084
      -3.829
      -4.530
      -5.161
      -5.701
      -6.130
      -6.439
      -6.626
      -6.701
      -6.674
      -6.552
      -6.330
      -6.005
      -5.585
