Origin Time       09/2/2011 19:17:29	
Lat.              30.9 N	
Long.             78.2 E	
Depth (Km)         10.0
Magnitude         5.0
 Region           UTTARKASHI-UTTARAKHAND                                           
 Above details taken from IMD 
   
Station Code      UTK
Station Lat.       30.730
Station Long.      78.445
Station Height(m) 1147.0
Site Class        A   Vs30 between 700 m/sec to 1400 m/sec * 
Record Time       08.03.2061 00:43:07.099
Sampling Rate     200. Hz
 Record Duration  104.450 Sec.
 Direction         Vert. (Up positive)
Max. Acceleration     11.162 cm/sec**2
     
  * For reference see Site Classification link of website 
     
 Base Line Corrected and Low Pass Filtered (Cut Off at 35 Hz) Time History
 Acceleration data in cm/sec**2
    
[...]
      -0.016
      -0.021
      -0.020
      -0.010
       0.003
       0.011
       0.010
       0.003
      -0.004
      -0.004
       0.003
       0.010
       0.006
      -0.007
      -0.019
      -0.026
      -0.027
      -0.023
      -0.015
      -0.005
       0.002
       0.006
       0.010
       0.012
       0.009
       0.002
      -0.005
      -0.011
      -0.016
      -0.016
      -0.009
      -0.003
      -0.003
      -0.006
      -0.006
      -0.004
      -0.003
      -0.004
      -0.003
      -0.002
      -0.001
      -0.001
      -0.001
      -0.002
      -0.004
      -0.004
       0.000
       0.001
      -0.002
      -0.007
      -0.006
      -0.004
      -0.006
      -0.013
      -0.022
      -0.026
      -0.023
      -0.015
      -0.001
       0.013
       0.024
       0.033
       0.042
       0.048
       0.055
       0.071
       0.103
       0.150
       0.212
       0.287
       0.374
       0.460
       0.527
       0.564
       0.559
       0.514
       0.439
       0.360
       0.300
       0.273
       0.283
       0.326
       0.383
       0.412
       0.373
       0.247
       0.046
      -0.203
      -0.457
      -0.677
      -0.846
      -0.987
      -1.141
      -1.335
      -1.558
      -1.773
      -1.945
      -2.069
      -2.140
      -2.096
      -1.800
      -1.119
      -0.073
       1.104
       2.064
       2.561
       2.580
       2.286
       1.843
       1.278
       0.542
      -0.296
      -0.935
      -0.996
      -0.356
       0.665
       1.481
       1.686
       1.368
       0.994
       0.942
       1.111
       1.025
       0.363
      -0.586
      -1.055
      -0.487
       0.865
       2.053
       2.221
       1.321
       0.067
      -0.819
      -1.269
      -1.779
      -2.694
      -3.687
      -3.979
      -3.046
      -1.089
       1.140
       2.855
       3.627
       3.412
       2.397
       0.851
      -0.933
      -2.644
      -3.965
      -4.599
      -4.339
      -3.159
      -1.300
       0.735
       2.349
       3.132
       3.034
       2.294
       1.205
      -0.039
      -1.288
      -2.340
      -2.955
      -3.006
      -2.552
      -1.750
      -0.721
       0.449
       1.554
       2.200
       2.015
       0.996
      -0.371
      -1.417
      -1.768
      -1.533
      -1.064
      -0.578
      -0.047
       0.589
       1.192
       1.498
       1.430
       1.270
       1.419
       1.950
       2.429
       2.275
       1.316
      -0.008
      -1.032
      -1.428
      -1.385
      -1.243
      -1.036
      -0.471
       0.636
       1.983
       2.938
       3.081
       2.544
       1.770
       0.985
      -0.012
      -1.485
      -3.228
      -4.492
      -4.535
      -3.303
      -1.530
      -0.138
       0.508
       0.780
       1.275
       2.170
       3.058
       3.340
       2.742
       1.489
       0.074
      -1.104
      -1.917
      -2.365
      -2.326
      -1.536
       0.087
       2.082
       3.535
       3.725
       2.773
       1.573
       0.943
       0.811
       0.314
      -1.195
      -3.300
      -4.770
      -4.675
      -3.220
      -1.470
      -0.351
       0.007
       0.054
       0.171
       0.330
       0.274
      -0.138
      -0.819
      -1.552
      -2.135
      -2.442
      -2.461
      -2.283
      -1.957
      -1.284
       0.118
       2.319
       4.590
       5.650
       4.724
       2.437
       0.452
       0.023
       0.850
       1.467
       0.782
      -0.794
      -1.787
      -1.163
       0.646
       2.183
       2.349
       1.299
       0.055
      -0.584
      -0.661
      -0.661
      -0.736
      -0.503
       0.389
       1.681
       2.660
       2.838
       2.298
       1.322
      -0.099
      -2.071
      -4.147
      -5.227
      -4.469
      -2.306
      -0.285
       0.326
      -0.271
      -0.697
       0.109
       1.812
       3.051
       2.766
       1.068
      -1.046
      -2.606
      -3.276
      -3.268
      -2.925
      -2.426
      -1.718
      -0.610
       1.036
       3.047
       4.804
       5.452
       4.439
       1.997
      -0.916
      -3.246
      -4.495
      -4.763
      -4.206
      -2.616
       0.263
       3.955
       6.992
       7.696
       5.464
       1.342
      -2.699
      -5.147
      -5.774
      -5.263
      -4.189
      -2.489
       0.099
       3.233
       5.831
       6.825
       5.985
       3.939
       1.439
      -1.194
      -3.851
      -6.044
      -6.913
      -5.995
      -3.854
      -1.674
      -0.184
       0.843
       1.914
       2.895
       3.067
       2.146
       0.912
       0.547
       1.357
       2.390
       2.441
       1.315
      -0.021
      -0.503
      -0.030
       0.595
       0.622
       0.076
      -0.434
      -0.458
      -0.109
       0.211
       0.296
       0.256
       0.217
       0.045
      -0.507
      -1.364
      -1.934
      -1.474
       0.209
       2.402
       3.887
       3.794
       2.174
      -0.149
      -2.185
      -3.314
      -3.451
      -2.883
      -1.970
      -0.897
       0.360
       1.820
       3.180
       3.762
       2.911
       0.615
      -2.228
      -4.284
      -4.717
      -3.770
      -2.430
      -1.484
      -0.866
       0.065
       1.657
       3.394
       4.238
       3.526
       1.577
      -0.555
      -1.913
      -2.323
      -2.351
      -2.634
      -3.202
      -3.415
      -2.581
      -0.701
       1.403
       2.750
       3.030
       2.757
       2.579
       2.524
       2.013
       0.633
      -1.186
      -2.354
      -2.050
      -0.485
       1.229
       2.009
       1.652
       0.848
       0.419
       0.553
       0.750
       0.398
      -0.620
      -1.839
      -2.610
      -2.586
      -1.921
      -1.059
      -0.341
       0.197
       0.649
       0.930
       0.741
      -0.106
      -1.313
      -2.136
      -1.881
      -0.495
       1.291
       2.467
       2.526
       1.857
       1.341
       1.480
       1.848
       1.441
      -0.295
      -2.725
      -4.344
      -4.004
      -1.933
       0.454
       1.770
       1.746
       1.216
       1.109
       1.520
       1.717
       0.987
      -0.565
      -2.035
      -2.493
      -1.762
      -0.479
       0.550
       1.026
       1.258
       1.709
       2.525
       3.439
       3.992
       3.792
       2.666
       0.729
      -1.598
      -3.722
      -5.146
      -5.709
      -5.541
      -4.807
      -3.525
      -1.725
       0.235
       1.672
       2.029
       1.357
       0.278
      -0.530
      -0.761
      -0.442
       0.334
       1.434
       2.480
       2.863
       2.207
       0.833
      -0.424
      -0.942
      -0.843
      -0.672
      -0.600
      -0.073
       1.595
       4.252
       6.625
       7.147
       5.243
       1.874
      -1.227
      -2.938
      -3.455
      -3.717
      -4.231
      -4.590
      -4.111
      -2.762
      -1.275
      -0.396
      -0.190
      -0.189
      -0.081
      -0.048
      -0.405
      -1.094
      -1.703
      -1.893
      -1.624
      -0.940
       0.236
       1.879
       3.488
       4.205
       3.522
       1.875
       0.377
      -0.117
       0.250
       0.574
       0.156
      -0.757
      -1.222
      -0.630
       0.567
       1.202
       0.510
      -1.114
      -2.484
      -2.712
      -1.915
      -0.921
      -0.383
      -0.224
       0.113
       0.954
       1.981
       2.482
       1.974
       0.635
      -0.791
      -1.503
      -1.175
      -0.174
       0.708
       0.867
       0.376
      -0.118
      -0.079
       0.309
       0.293
      -0.614
      -1.952
      -2.562
      -1.606
       0.606
       2.787
       3.718
       3.188
       1.967
       0.912
       0.135
      -0.910
      -2.566
      -4.316
      -5.060
      -4.056
      -1.577
       1.302
       3.462
       4.318
       3.895
       2.604
       1.018
      -0.354
      -1.294
      -1.925
      -2.421
      -2.640
      -2.113
      -0.531
       1.748
       3.717
       4.347
       3.329
       1.331
      -0.442
      -1.094
      -0.661
      -0.014
      -0.073
      -0.975
      -1.952
      -2.094
      -1.294
      -0.380
      -0.238
      -0.822
      -1.198
      -0.606
       0.638
       1.494
       1.418
       0.993
       1.208
       2.229
       3.145
       2.976
       1.743
       0.369
      -0.418
      -0.842
      -1.638
      -2.996
      -4.159
      -4.147
      -2.772
      -0.812
       0.791
       1.754
       2.420
       3.032
       3.266
       2.569
       0.889
      -1.118
      -2.666
      -3.565
      -4.217
      -4.855
      -4.913
      -3.428
      -0.242
       3.288
       5.079
       4.065
       1.210
      -1.342
      -2.145
      -1.469
      -0.570
      -0.229
      -0.192
       0.141
       0.871
       1.580
       1.906
       1.850
       1.558
       1.071
       0.429
      -0.145
      -0.382
      -0.293
      -0.182
      -0.255
      -0.333
      -0.113
       0.311
       0.389
      -0.299
      -1.466
      -2.278
      -2.140
      -1.230
      -0.232
       0.402
       0.805
       1.324
       1.883
       1.861
       0.685
      -1.447
      -3.491
      -4.322
      -3.595
      -1.903
      -0.135
       1.236
       2.234
       2.942
       3.184
       2.698
       1.483
      -0.116
      -1.627
      -2.631
      -2.737
      -1.612
       0.709
       3.476
       5.396
       5.455
       3.756
       1.498
      -0.025
      -0.461
      -0.437
      -0.622
      -0.922
      -0.733
       0.136
       1.081
       1.342
       0.872
       0.291
       0.022
      -0.250
      -1.045
      -2.208
      -2.871
      -2.433
      -1.323
      -0.538
      -0.467
      -0.412
       0.534
       2.276
       3.598
       3.349
       1.640
      -0.250
      -1.127
      -0.983
      -0.831
      -1.524
      -2.783
      -3.402
      -2.389
       0.088
       2.814
       4.534
       4.827
       4.108
       2.920
       1.401
      -0.536
      -2.633
      -4.107
      -4.173
      -2.732
      -0.505
       1.555
       2.948
       3.727
       4.015
       3.560
       1.909
      -0.938
      -4.124
      -6.305
      -6.547
      -4.970
      -2.560
      -0.350
       1.260
       2.480
       3.577
       4.427
       4.581
       3.672
       1.716
      -0.880
      -3.499
      -5.511
      -6.441
      -6.122
      -4.750
      -2.768
      -0.638
       1.331
       2.958
       4.036
       4.247
       3.337
       1.457
      -0.670
      -2.068
      -2.141
      -1.070
       0.429
       1.753
       2.801
       3.739
       4.462
       4.424
       3.105
       0.654
      -2.014
      -3.844
      -4.366
      -3.857
      -2.872
      -1.736
      -0.461
       0.997
       2.497
       3.719
       4.314
       4.081
       3.066
       1.570
       0.024
      -1.218
      -2.040
      -2.543
      -2.869
      -3.014
      -2.819
      -2.149
      -1.132
      -0.209
       0.146
      -0.096
      -0.305
       0.377
       2.184
       4.255
       5.162
       4.125
       1.741
      -0.589
      -2.008
      -2.910
      -4.219
      -6.050
      -7.328
      -6.877
      -4.775
      -2.401
      -1.083
      -0.847
      -0.646
       0.330
       1.807
       2.885
       3.093
       2.759
       2.452
       2.290
       1.920
       1.061
      -0.129
      -1.246
      -2.046
      -2.563
      -2.874
      -2.883
      -2.379
      -1.239
       0.411
       2.173
       3.502
       3.969
       3.566
       2.737
       1.963
       1.258
       0.179
      -1.528
      -3.383
      -4.481
      -4.417
      -3.751
      -3.365
      -3.412
      -3.159
      -1.927
      -0.010
       1.584
       2.249
       2.390
       2.805
       3.606
       4.015
       3.246
       1.415
      -0.566
      -1.884
      -2.452
      -2.671
      -2.801
      -2.718
      -2.203
      -1.291
      -0.247
       0.702
       1.497
       2.130
       2.530
       2.587
       2.216
       1.347
      -0.011
      -1.551
      -2.546
      -2.191
      -0.294
       2.327
       4.278
       4.604
       3.511
       2.112
       1.372
       1.241
       0.807
      -0.642
      -2.714
      -4.102
      -3.757
      -1.870
       0.276
       1.418
       1.312
       0.764
       0.789
       1.708
       2.900
       3.374
       2.656
       1.231
       0.107
      -0.107
       0.306
       0.621
       0.551
       0.531
       1.058
       1.893
       2.125
       1.127
      -0.669
      -2.108
      -2.446
      -2.041
      -1.838
      -2.285
      -2.953
      -3.242
      -3.225
      -3.521
      -4.331
      -4.911
      -4.254
      -2.269
       0.015
       1.548
       2.367
       3.344
       4.868
       6.071
       5.619
       3.161
      -0.202
      -2.929
      -4.316
      -4.721
      -4.708
      -4.228
      -2.728
       0.062
       3.527
       6.349
       7.315
       6.124
       3.572
       0.956
      -0.815
      -1.675
      -2.066
      -2.257
      -2.064
      -1.211
       0.171
       1.542
       2.397
       2.609
       2.290
       1.496
       0.190
      -1.501
      -3.130
      -4.112
      -4.053
      -2.969
      -1.275
       0.417
       1.600
       2.115
       2.081
       1.569
       0.368
      -1.757
      -4.505
      -6.835
      -7.543
      -6.156
      -3.230
       0.244
       3.645
       6.841
       9.597
      11.162
      10.693
       8.094
       4.299
       0.565
      -2.485
      -5.012
      -7.185
      -8.459
      -7.885
      -5.188
      -1.412
       1.706
       3.078
       2.986
       2.497
       2.277
       2.036
       1.105
      -0.617
      -2.401
      -3.380
      -3.377
      -2.958
      -2.704
      -2.557
      -1.965
      -0.589
       1.244
       2.784
       3.475
       3.321
       2.743
       2.175
       1.780
       1.478
       1.129
       0.655
       0.021
      -0.793
      -1.700
      -2.431
      -2.676
      -2.402
      -1.988
      -1.919
      -2.313
      -2.773
      -2.774
      -2.164
      -1.259
      -0.460
       0.112
       0.545
       0.800
       0.655
       0.071
      -0.493
      -0.388
       0.535
       1.661
       2.230
       2.206
       2.385
       3.516
       5.368
       6.803
       6.803
       5.343
       3.198
       1.004
      -1.271
      -3.838
      -6.268
      -7.472
      -6.652
      -4.166
      -1.290
       0.879
       2.172
       3.023
       3.593
       3.454
       2.189
       0.156
      -1.539
      -1.937
      -1.066
       0.123
       0.658
       0.365
      -0.188
      -0.469
      -0.582
      -1.040
      -1.995
      -2.840
      -2.676
      -1.159
       1.150
       3.264
       4.473
       4.614
       3.837
       2.350
       0.417
      -1.555
      -3.090
      -3.851
      -3.768
      -2.972
      -1.653
      -0.030
       1.569
       2.640
       2.668
       1.462
      -0.574
      -2.571
      -3.699
      -3.671
      -2.810
      -1.633
      -0.380
       1.071
       2.841
       4.666
       5.923
       6.079
       5.117
       3.523
       1.873
       0.422
      -0.941
      -2.371
      -3.720
      -4.511
      -4.283
      -3.019
      -1.259
       0.216
       0.889
       0.777
       0.281
      -0.204
      -0.564
      -0.915
      -1.328
      -1.662
      -1.682
      -1.333
      -0.853
      -0.539
      -0.422
      -0.209
       0.399
       1.359
       2.301
       2.890
       3.146
       3.383
       3.837
       4.341
       4.393
       3.563
       1.911
      -0.002
      -1.558
      -2.570
      -3.326
      -4.122
      -4.811
      -4.900
      -4.139
      -2.933
      -2.064
      -1.955
      -2.246
      -2.162
      -1.291
       0.046
       1.172
       1.757
       2.069
       2.541
       3.118
       3.141
       1.959
      -0.310
      -2.678
      -4.001
      -3.842
      -2.645
      -1.128
       0.399
       2.082
       3.948
       5.462
       5.765
       4.388
       1.718
      -1.238
      -3.498
      -4.598
      -4.619
      -3.883
      -2.642
      -0.972
       1.073
       3.180
       4.684
       4.870
       3.532
       1.264
      -0.882
      -2.154
      -2.563
      -2.643
      -2.774
      -2.787
      -2.268
      -1.182
      -0.123
       0.140
      -0.637
      -1.900
      -2.715
      -2.438
      -1.090
       0.774
       2.465
       3.525
       3.863
       3.644
       3.064
       2.192
       1.003
      -0.463
      -2.014
      -3.349
      -4.179
      -4.337
      -3.834
      -2.864
      -1.699
      -0.529
       0.623
       1.786
       2.814
       3.315
       2.904
       1.582
      -0.147
      -1.608
      -2.401
      -2.542
      -2.218
      -1.534
      -0.561
       0.486
       1.292
       1.741
       2.061
       2.515
       2.961
       2.880
       1.993
       0.758
       0.071
       0.359
       1.091
       1.302
       0.584
      -0.546
      -1.277
      -1.367
      -1.273
      -1.479
      -1.860
      -1.803
      -0.905
       0.534
       1.738
       2.157
       1.917
       1.611
       1.638
       1.764
       1.352
       0.037
      -1.831
      -3.391
      -3.923
      -3.329
      -2.072
      -0.741
       0.332
       1.133
       1.798
       2.408
       2.919
       3.178
       3.001
       2.262
       1.002
      -0.494
      -1.742
      -2.283
      -1.998
      -1.242
      -0.596
      -0.404
      -0.524
      -0.573
      -0.367
      -0.077
       0.065
       0.098
       0.283
       0.765
       1.373
       1.790
       1.841
       1.555
       1.022
       0.355
      -0.185
      -0.199
       0.467
       1.345
       1.539
       0.532
      -1.171
      -2.342
      -2.124
      -0.852
       0.238
       0.167
      -0.905
      -1.893
      -1.839
      -0.739
       0.601
       1.408
       1.568
       1.454
       1.308
       0.948
       0.076
      -1.219
      -2.388
      -2.852
      -2.464
      -1.558
      -0.574
       0.311
       1.219
       2.287
       3.387
       4.157
       4.295
       3.814
       2.953
       1.865
       0.482
      -1.231
      -2.919
      -3.908
      -3.755
      -2.697
      -1.448
      -0.529
       0.102
       0.717
       1.268
       1.346
       0.723
      -0.271
      -1.028
      -1.276
      -1.273
      -1.371
      -1.514
      -1.306
      -0.551
       0.408
       0.982
       0.899
       0.405
      -0.088
      -0.424
      -0.714
      -1.000
      -1.077
      -0.730
      -0.085
       0.386
       0.278
      -0.352
      -1.035
      -1.320
      -1.126
      -0.676
      -0.190
       0.279
       0.681
       0.795
       0.360
      -0.564
      -1.475
      -1.823
      -1.584
      -1.359
      -1.753
      -2.626
      -3.058
      -2.236
      -0.382
       1.325
       1.869
       1.369
       0.852
       1.085
       1.797
       2.097
       1.536
       0.574
       0.000
       0.047
       0.201
      -0.132
      -0.898
      -1.380
      -0.877
       0.628
       2.414
       3.544
       3.484
       2.393
       0.973
      -0.006
      -0.222
      -0.039
      -0.187
