Origin Time       05/09/2013 18:35:42
Lat.              30.9 N	
Long.             78.5 E	
Depth (Km)         11.0
Magnitude         3.5
 Region           UTTARKASHI-UTTARAKHAND                                           
 Above details taken from IMD 
     
Station Code      UTK
Station Lat.       30.730  N
Station Long.      78.445  E
Station Height(m) 1147.0
Site Class        A   Vs30 between 700 m/sec to 1400 m/sec * 
Record Time       05.09.2013 18:35:17.134
Sampling Rate     200. Hz
 Record Duration   82.230 Sec.
 Direction         E-W (E positive)
Max. Acceleration     -7.956 cm/sec**2
     
  * For reference see Site Classification link of website 
     
 Base Line Corrected and Low Pass Filtered (Cut Off at 35 Hz) Time History
 Acceleration data in cm/sec**2
    
[...]
      -0.006
      -0.004
      -0.004
      -0.005
      -0.006
      -0.006
      -0.006
      -0.008
      -0.009
      -0.006
       0.003
       0.012
       0.013
       0.007
      -0.002
      -0.009
      -0.009
      -0.005
      -0.003
      -0.005
      -0.010
      -0.011
      -0.006
       0.002
       0.005
       0.002
      -0.006
      -0.014
      -0.017
      -0.013
      -0.005
       0.003
       0.005
       0.003
      -0.003
      -0.009
      -0.013
      -0.012
      -0.007
      -0.003
      -0.001
       0.000
      -0.001
      -0.004
      -0.010
      -0.014
      -0.013
      -0.004
       0.008
       0.019
       0.025
       0.023
       0.018
       0.013
       0.009
       0.006
       0.003
       0.001
      -0.001
      -0.004
      -0.008
      -0.009
      -0.007
      -0.003
       0.000
       0.000
       0.001
       0.001
       0.002
       0.004
       0.004
       0.002
      -0.003
      -0.007
      -0.009
      -0.006
       0.000
       0.005
       0.006
       0.002
      -0.004
      -0.007
      -0.006
      -0.002
      -0.001
      -0.001
      -0.003
      -0.008
      -0.015
      -0.020
      -0.020
      -0.015
      -0.008
      -0.002
       0.001
       0.002
       0.002
       0.003
       0.003
      -0.001
      -0.009
      -0.015
      -0.014
      -0.006
       0.003
       0.007
       0.004
      -0.001
      -0.004
      -0.002
       0.000
      -0.002
      -0.007
      -0.010
      -0.008
      -0.002
       0.003
       0.005
       0.007
       0.007
       0.007
       0.007
       0.008
       0.010
       0.013
       0.016
       0.019
       0.019
       0.017
       0.013
       0.011
       0.011
       0.010
       0.008
       0.005
       0.002
       0.000
       0.001
       0.005
       0.006
       0.002
      -0.005
      -0.009
      -0.006
       0.002
       0.009
       0.010
       0.003
      -0.005
      -0.007
      -0.002
       0.005
       0.007
       0.002
      -0.004
      -0.008
      -0.008
      -0.004
       0.004
       0.010
       0.010
       0.006
       0.000
      -0.002
      -0.001
       0.002
       0.002
       0.000
      -0.003
      -0.003
       0.004
       0.012
       0.014
       0.007
      -0.003
      -0.010
      -0.011
      -0.008
      -0.001
       0.003
       0.004
       0.001
      -0.002
      -0.003
       0.000
       0.005
       0.008
       0.007
       0.003
       0.000
       0.000
       0.001
      -0.003
      -0.008
      -0.010
      -0.008
      -0.006
      -0.006
      -0.006
      -0.007
      -0.008
      -0.008
      -0.009
      -0.009
      -0.009
      -0.009
      -0.007
      -0.002
       0.003
       0.006
       0.005
       0.000
      -0.005
      -0.006
       0.000
       0.008
       0.011
       0.006
      -0.003
      -0.010
      -0.013
      -0.012
      -0.007
      -0.005
      -0.007
      -0.012
      -0.016
      -0.014
      -0.009
      -0.004
      -0.005
      -0.009
      -0.011
      -0.007
       0.002
       0.008
       0.003
      -0.009
      -0.018
      -0.018
      -0.012
      -0.005
      -0.003
      -0.003
      -0.001
       0.004
       0.011
       0.011
       0.002
      -0.007
      -0.006
       0.006
       0.017
       0.017
       0.007
      -0.006
      -0.013
      -0.014
      -0.009
      -0.004
      -0.001
       0.001
       0.002
       0.002
       0.001
       0.001
       0.003
       0.005
       0.004
      -0.003
      -0.011
      -0.015
      -0.012
      -0.003
       0.004
       0.004
      -0.004
      -0.010
      -0.009
      -0.003
       0.003
       0.006
       0.004
      -0.001
      -0.007
      -0.011
      -0.009
      -0.003
       0.003
       0.004
       0.002
       0.000
       0.002
       0.005
       0.006
       0.001
      -0.008
      -0.014
      -0.012
      -0.005
       0.000
      -0.003
      -0.008
      -0.008
      -0.004
       0.001
       0.002
       0.001
       0.001
       0.005
       0.010
       0.011
       0.009
       0.005
       0.005
       0.006
       0.004
       0.001
       0.000
       0.005
       0.012
       0.014
       0.009
       0.000
      -0.007
      -0.009
      -0.004
       0.003
       0.007
       0.004
      -0.002
      -0.005
      -0.006
      -0.005
      -0.002
       0.001
       0.001
      -0.002
      -0.007
      -0.011
      -0.014
      -0.016
      -0.014
      -0.008
       0.000
       0.006
       0.009
       0.009
       0.007
       0.003
       0.000
      -0.002
      -0.004
      -0.004
      -0.002
       0.002
       0.003
       0.001
      -0.004
      -0.007
      -0.004
       0.002
       0.008
       0.009
       0.004
      -0.005
      -0.012
      -0.013
      -0.011
      -0.007
      -0.002
       0.004
       0.010
       0.016
       0.020
       0.020
       0.015
       0.007
       0.001
       0.000
       0.003
       0.006
       0.007
       0.005
       0.002
       0.002
       0.005
       0.009
       0.007
       0.001
      -0.005
      -0.005
       0.001
       0.006
       0.006
       0.000
      -0.009
      -0.014
      -0.011
      -0.005
      -0.001
       0.000
       0.000
       0.002
       0.007
       0.009
       0.009
       0.007
       0.002
      -0.006
      -0.012
      -0.013
      -0.009
      -0.004
      -0.001
      -0.001
      -0.005
      -0.009
      -0.008
      -0.003
       0.002
       0.004
       0.002
      -0.001
      -0.003
      -0.002
       0.001
       0.002
       0.001
      -0.002
      -0.005
      -0.006
      -0.005
      -0.005
      -0.005
      -0.003
       0.000
       0.004
       0.008
       0.013
       0.016
       0.017
       0.016
       0.012
       0.007
       0.004
       0.007
       0.015
       0.022
       0.022
       0.017
       0.010
       0.005
       0.003
       0.003
       0.001
      -0.002
      -0.006
      -0.003
       0.005
       0.013
       0.017
       0.015
       0.012
       0.007
       0.002
       0.000
       0.002
       0.005
       0.005
       0.002
      -0.001
      -0.002
       0.002
       0.006
       0.009
       0.007
       0.004
       0.003
       0.004
       0.004
       0.001
      -0.003
      -0.004
      -0.001
       0.003
       0.005
       0.004
       0.001
      -0.001
      -0.001
       0.000
      -0.001
      -0.002
      -0.002
       0.000
       0.004
       0.006
       0.008
       0.011
       0.012
       0.008
       0.001
      -0.004
      -0.003
       0.001
       0.002
      -0.001
      -0.008
      -0.016
      -0.026
      -0.036
      -0.049
      -0.062
      -0.068
      -0.063
      -0.054
      -0.054
      -0.066
      -0.068
      -0.028
       0.060
       0.148
       0.157
       0.063
      -0.051
      -0.054
       0.092
       0.251
       0.232
      -0.002
      -0.251
      -0.250
       0.061
       0.443
       0.560
       0.293
      -0.148
      -0.414
      -0.337
      -0.064
       0.104
       0.014
      -0.224
      -0.372
      -0.297
      -0.072
       0.116
       0.141
       0.030
      -0.088
      -0.109
      -0.034
       0.073
       0.171
       0.270
       0.374
       0.436
       0.386
       0.216
       0.021
      -0.057
       0.030
       0.153
       0.078
      -0.327
      -0.911
      -1.291
      -1.132
      -0.437
       0.406
       0.911
       0.885
       0.562
       0.347
       0.432
       0.633
       0.597
       0.158
      -0.500
      -0.993
      -1.054
      -0.743
      -0.370
      -0.206
      -0.250
      -0.271
      -0.057
       0.366
       0.754
       0.863
       0.649
       0.284
      -0.005
      -0.116
      -0.119
      -0.149
      -0.242
      -0.277
      -0.105
       0.268
       0.621
       0.684
       0.374
      -0.104
      -0.413
      -0.385
      -0.168
      -0.066
      -0.213
      -0.427
      -0.417
      -0.095
       0.341
       0.614
       0.607
       0.376
       0.043
      -0.292
      -0.554
      -0.699
      -0.745
      -0.745
      -0.709
      -0.567
      -0.247
       0.219
       0.681
       0.975
       1.017
       0.796
       0.357
      -0.150
      -0.471
      -0.435
      -0.182
      -0.113
      -0.457
      -0.924
      -0.916
      -0.186
       0.792
       1.230
       0.832
       0.116
      -0.141
       0.261
       0.758
       0.675
      -0.027
      -0.719
      -0.764
      -0.129
       0.636
       0.932
       0.602
      -0.022
      -0.461
      -0.476
      -0.179
       0.157
       0.365
       0.459
       0.465
       0.278
      -0.231
      -0.940
      -1.409
      -1.227
      -0.476
       0.261
       0.430
       0.052
      -0.319
      -0.201
       0.313
       0.668
       0.436
      -0.239
      -0.804
      -0.849
      -0.469
      -0.087
       0.004
      -0.130
      -0.247
      -0.223
      -0.096
       0.115
       0.471
       0.943
       1.271
       1.145
       0.556
      -0.125
      -0.488
      -0.475
      -0.362
      -0.376
      -0.420
      -0.257
       0.099
       0.315
       0.141
      -0.198
      -0.147
       0.560
       1.483
       1.780
       0.999
      -0.440
      -1.572
      -1.716
      -1.017
      -0.199
       0.165
       0.112
       0.098
       0.418
       0.878
       1.013
       0.595
      -0.108
      -0.597
      -0.654
      -0.530
      -0.598
      -0.861
      -0.904
      -0.386
       0.487
       1.094
       1.015
       0.451
      -0.040
      -0.152
      -0.099
      -0.254
      -0.659
      -0.966
      -0.863
      -0.425
      -0.017
       0.115
       0.080
       0.177
       0.565
       1.097
       1.441
       1.331
       0.756
      -0.021
      -0.605
      -0.733
      -0.461
      -0.130
      -0.073
      -0.322
      -0.555
      -0.404
       0.163
       0.763
       0.944
       0.611
       0.082
      -0.295
      -0.513
      -0.815
      -1.261
      -1.517
      -1.200
      -0.419
       0.214
       0.193
      -0.288
      -0.494
       0.080
       1.158
       1.976
       2.068
       1.671
       1.332
       1.207
       0.897
       0.013
      -1.199
      -1.987
      -1.884
      -1.268
      -0.982
      -1.377
      -1.871
      -1.559
      -0.220
       1.370
       2.169
       1.861
       1.075
       0.659
       0.832
       1.075
       0.777
      -0.095
      -0.965
      -1.220
      -0.774
      -0.103
       0.248
       0.152
      -0.074
      -0.103
       0.024
      -0.027
      -0.446
      -0.995
      -1.202
      -0.820
      -0.079
       0.521
       0.651
       0.424
       0.257
       0.461
       0.936
       1.239
       0.989
       0.233
      -0.577
      -0.985
      -0.901
      -0.611
      -0.449
      -0.471
      -0.427
      -0.064
       0.555
       1.019
       0.916
       0.223
      -0.648
      -1.203
      -1.248
      -0.934
      -0.501
      -0.052
       0.445
       0.980
       1.399
       1.490
       1.190
       0.688
       0.285
       0.120
       0.036
      -0.256
      -0.869
      -1.575
      -1.963
      -1.763
      -1.067
      -0.259
       0.291
       0.505
       0.601
       0.837
       1.228
       1.524
       1.464
       1.056
       0.565
       0.220
      -0.009
      -0.298
      -0.648
      -0.806
      -0.581
      -0.201
      -0.177
      -0.735
      -1.419
      -1.432
      -0.444
       0.993
       1.899
       1.767
       0.973
       0.335
       0.306
       0.615
       0.625
       0.007
      -0.964
      -1.708
      -1.891
      -1.644
      -1.272
      -0.839
      -0.138
       0.941
       2.090
       2.754
       2.625
       1.954
       1.303
       1.012
       0.927
       0.642
      -0.054
      -1.026
      -1.988
      -2.756
      -3.312
      -3.710
      -3.976
      -4.065
      -3.861
      -3.243
      -2.199
      -0.865
       0.571
       2.013
       3.470
       4.892
       6.043
       6.580
       6.328
       5.438
       4.259
       3.032
       1.714
       0.086
      -1.970
      -4.261
      -6.305
      -7.564
      -7.733
      -6.890
      -5.393
      -3.624
      -1.795
       0.009
       1.629
       2.778
       3.240
       3.133
       2.886
       2.877
       3.099
       3.210
       2.914
       2.271
       1.613
       1.197
       0.950
       0.606
       0.090
      -0.304
      -0.156
       0.595
       1.448
       1.652
       0.816
      -0.720
      -2.096
      -2.568
      -2.021
      -0.979
      -0.169
      -0.075
      -0.777
      -2.022
      -3.372
      -4.366
      -4.713
      -4.449
      -3.875
      -3.266
      -2.602
      -1.601
      -0.054
       1.875
       3.716
       5.060
       5.845
       6.269
       6.457
       6.255
       5.367
       3.687
       1.501
      -0.650
      -2.296
      -3.279
      -3.699
      -3.699
      -3.354
      -2.771
      -2.202
      -1.960
      -2.163
      -2.570
      -2.700
      -2.182
      -1.030
       0.397
       1.694
       2.686
       3.412
       3.845
       3.716
       2.711
       0.894
      -1.116
      -2.497
      -2.835
      -2.403
      -1.819
      -1.407
      -0.931
       0.071
       1.714
       3.545
       4.887
       5.351
       5.038
       4.275
       3.219
       1.767
      -0.211
      -2.593
      -4.977
      -6.879
      -7.933
      -7.956
      -6.910
      -4.892
      -2.181
       0.758
       3.381
       5.249
       6.149
       6.091
       5.216
       3.714
       1.769
      -0.418
      -2.558
      -4.246
      -5.066
      -4.792
      -3.538
      -1.702
       0.253
       2.021
       3.476
       4.533
       5.011
       4.662
       3.390
       1.450
      -0.598
      -2.191
      -3.081
      -3.373
      -3.280
      -2.876
      -2.114
      -1.051
       0.014
       0.676
       0.683
       0.096
      -0.791
      -1.624
      -2.093
      -1.953
      -1.063
       0.485
       2.285
       3.735
       4.355
       4.065
       3.192
       2.205
       1.383
       0.690
      -0.076
      -1.004
      -1.921
      -2.492
      -2.448
      -1.759
      -0.644
       0.523
       1.351
       1.562
       1.097
       0.130
      -1.025
      -2.051
      -2.740
      -3.006
      -2.847
      -2.313
      -1.492
      -0.509
       0.490
       1.363
       2.020
       2.450
       2.705
       2.817
       2.754
       2.457
       1.955
       1.394
       0.915
       0.501
      -0.024
      -0.791
      -1.709
      -2.477
      -2.818
      -2.678
      -2.230
      -1.690
      -1.149
      -0.566
       0.110
       0.836
       1.479
       1.882
       1.914
       1.504
       0.689
      -0.337
      -1.261
      -1.789
      -1.802
      -1.377
      -0.676
       0.174
       1.088
       1.936
       2.512
       2.612
       2.154
       1.188
      -0.159
      -1.713
      -3.190
      -4.173
      -4.263
      -3.343
      -1.697
       0.148
       1.739
       2.892
       3.607
       3.870
       3.577
       2.701
       1.459
       0.283
      -0.459
      -0.704
      -0.691
      -0.727
      -0.943
      -1.259
      -1.518
      -1.626
      -1.569
      -1.355
      -0.985
      -0.504
      -0.035
       0.279
       0.395
       0.420
       0.531
       0.816
       1.188
       1.432
       1.356
       0.899
       0.159
      -0.664
      -1.353
      -1.738
      -1.743
      -1.385
      -0.740
       0.079
       0.915
       1.566
       1.841
       1.674
       1.189
       0.618
       0.130
      -0.280
      -0.700
      -1.097
      -1.257
      -0.976
      -0.336
       0.283
       0.502
       0.285
      -0.051
      -0.145
       0.081
       0.420
       0.620
       0.609
       0.462
       0.219
      -0.193
      -0.831
      -1.563
      -2.087
      -2.159
      -1.806
      -1.284
      -0.805
      -0.342
       0.288
       1.124
       1.889
       2.177
       1.817
       1.077
       0.473
       0.347
       0.606
       0.827
       0.633
      -0.011
      -0.798
      -1.330
      -1.389
      -1.009
      -0.377
       0.307
       0.912
       1.390
       1.756
       2.032
       2.166
       2.007
       1.412
       0.412
      -0.730
      -1.649
      -2.115
      -2.165
      -2.014
      -1.845
      -1.670
      -1.379
      -0.903
      -0.309
       0.238
       0.596
       0.720
       0.655
       0.481
       0.275
       0.093
      -0.030
      -0.075
      -0.025
       0.130
       0.377
       0.641
       0.790
       0.714
       0.432
       0.116
      -0.024
       0.093
       0.346
       0.512
       0.440
       0.152
      -0.212
      -0.497
      -0.606
      -0.500
      -0.211
       0.137
       0.336
       0.193
      -0.334
      -1.084
      -1.776
      -2.184
      -2.239
      -2.007
      -1.578
      -0.990
      -0.238
       0.664
       1.646
       2.555
       3.182
       3.323
       2.892
       1.997
       0.914
      -0.053
      -0.718
      -1.079
      -1.249
      -1.341
      -1.384
      -1.331
      -1.124
      -0.736
      -0.187
       0.448
       1.039
       1.413
       1.427
       1.066
       0.483
      -0.067
      -0.412
      -0.581
      -0.761
      -1.082
      -1.449
      -1.573
      -1.211
      -0.391
       0.587
       1.363
       1.751
       1.790
       1.600
       1.241
       0.724
       0.111
      -0.445
      -0.819
      -1.027
      -1.211
      -1.457
      -1.672
      -1.639
      -1.202
      -0.411
       0.508
       1.295
       1.775
       1.881
       1.623
       1.079
       0.404
      -0.215
      -0.640
      -0.826
      -0.790
      -0.548
      -0.116
       0.417
       0.874
       1.066
       0.930
       0.580
       0.200
      -0.117
      -0.430
      -0.837
      -1.304
      -1.645
      -1.668
      -1.351
      -0.864
      -0.422
      -0.138
       0.012
       0.100
       0.160
       0.182
       0.169
       0.166
       0.227
       0.350
       0.475
       0.550
       0.578
       0.592
       0.590
       0.516
       0.313
      -0.001
      -0.338
      -0.596
      -0.713
      -0.655
      -0.399
       0.051
       0.625
       1.184
       1.579
       1.721
       1.603
       1.277
       0.824
       0.346
      -0.054
      -0.320
      -0.473
      -0.579
      -0.677
      -0.742
      -0.731
      -0.646
      -0.537
      -0.454
      -0.405
      -0.375
      -0.356
      -0.351
      -0.341
      -0.287
      -0.172
      -0.061
      -0.071
      -0.270
      -0.588
      -0.831
      -0.806
      -0.455
       0.096
       0.612
       0.885
       0.854
       0.617
       0.320
       0.043
      -0.215
      -0.454
      -0.601
      -0.561
      -0.325
      -0.007
       0.253
       0.396
       0.466
       0.526
       0.585
       0.601
       0.548
       0.445
       0.324
       0.184
       0.015
      -0.144
      -0.207
      -0.132
       0.005
       0.053
      -0.068
      -0.301
      -0.516
      -0.624
      -0.623
      -0.543
      -0.399
      -0.200
       0.024
       0.221
       0.353
       0.413
