Origin Time       05/09/2013 18:35:42 UTC
Lat.              30.9 N	
Long.             78.5 E	
Depth (Km)         11.0
Magnitude         3.5
 Region           UTTARKASHI-UTTARAKHAND                                           
 Above details taken from IMD 
    
Station Code      UTK
Station Lat.       30.730  N
Station Long.      78.445  E
Station Height(m) 1147.0
Site Class        A   Vs30 between 700 m/sec to 1400 m/sec * 
Record Time       05.09.2013 18:35:17.134 UTC
Sampling Rate     200. Hz
 Record Duration   82.230 Sec.
 Direction         N-S (N positive)
Max. Acceleration    -10.272 cm/sec**2
     
  * For reference see Site Classification link of website 
     
 Base Line Corrected and Low Pass Filtered (Cut Off at 35 Hz) Time History
 Acceleration data in cm/sec**2
    
[...]
      -0.011
      -0.011
      -0.012
      -0.012
      -0.010
      -0.005
       0.002
       0.005
       0.004
       0.000
      -0.002
      -0.004
      -0.004
      -0.004
      -0.003
       0.000
       0.003
       0.003
       0.002
       0.000
      -0.002
      -0.002
      -0.001
       0.002
       0.008
       0.014
       0.016
       0.012
       0.004
      -0.005
      -0.010
      -0.012
      -0.012
      -0.011
      -0.009
      -0.007
      -0.005
      -0.004
      -0.001
       0.004
       0.009
       0.013
       0.014
       0.013
       0.009
       0.003
      -0.003
      -0.007
      -0.007
      -0.002
       0.006
       0.013
       0.015
       0.010
       0.003
      -0.003
      -0.005
      -0.003
      -0.001
      -0.003
      -0.007
      -0.010
      -0.009
      -0.005
      -0.001
       0.000
      -0.001
       0.000
       0.003
       0.008
       0.011
       0.013
       0.015
       0.019
       0.023
       0.021
       0.014
       0.003
      -0.006
      -0.007
       0.000
       0.008
       0.010
       0.004
      -0.006
      -0.011
      -0.007
       0.004
       0.011
       0.009
       0.000
      -0.009
      -0.014
      -0.013
      -0.008
      -0.001
       0.006
       0.010
       0.010
       0.007
       0.005
       0.006
       0.012
       0.019
       0.022
       0.017
       0.003
      -0.010
      -0.014
      -0.007
       0.003
       0.007
       0.001
      -0.010
      -0.015
      -0.008
       0.005
       0.016
       0.016
       0.007
      -0.005
      -0.013
      -0.012
      -0.007
      -0.001
       0.003
       0.003
       0.001
      -0.001
      -0.002
      -0.001
       0.001
       0.001
      -0.002
      -0.005
      -0.006
      -0.003
       0.001
       0.002
       0.001
      -0.002
      -0.004
      -0.006
      -0.006
      -0.002
       0.003
       0.005
       0.004
       0.002
       0.003
       0.005
       0.007
       0.007
       0.006
       0.007
       0.010
       0.013
       0.014
       0.012
       0.006
      -0.001
      -0.006
      -0.009
      -0.009
      -0.008
      -0.006
      -0.006
      -0.005
      -0.004
      -0.002
      -0.001
       0.000
      -0.001
      -0.003
      -0.005
      -0.005
      -0.003
       0.002
       0.006
       0.008
       0.006
       0.003
       0.002
       0.003
       0.007
       0.012
       0.015
       0.012
       0.006
       0.000
      -0.002
       0.000
       0.002
       0.001
      -0.001
      -0.004
      -0.004
      -0.002
       0.003
       0.007
       0.008
       0.006
       0.003
       0.002
       0.001
       0.000
       0.000
       0.002
       0.008
       0.014
       0.017
       0.016
       0.012
       0.011
       0.013
       0.014
       0.011
       0.003
      -0.006
      -0.013
      -0.014
      -0.009
      -0.001
       0.003
       0.003
      -0.001
      -0.003
      -0.002
       0.003
       0.008
       0.012
       0.013
       0.011
       0.007
       0.004
       0.005
       0.008
       0.011
       0.013
       0.013
       0.015
       0.018
       0.020
       0.018
       0.011
       0.002
      -0.004
      -0.006
      -0.005
      -0.004
      -0.002
       0.000
       0.002
       0.002
       0.001
      -0.001
      -0.003
      -0.001
       0.002
       0.003
       0.002
       0.001
       0.002
       0.008
       0.016
       0.020
       0.018
       0.011
       0.004
      -0.001
      -0.003
      -0.001
       0.001
       0.002
       0.000
      -0.004
      -0.005
       0.000
       0.008
       0.014
       0.014
       0.009
       0.003
      -0.001
      -0.001
       0.002
       0.005
       0.008
       0.008
       0.005
       0.002
       0.003
       0.007
       0.011
       0.010
       0.006
       0.001
       0.002
       0.008
       0.017
       0.022
       0.020
       0.012
       0.004
       0.000
       0.001
       0.003
       0.003
       0.001
      -0.001
      -0.002
      -0.002
      -0.002
      -0.002
      -0.004
      -0.008
      -0.010
      -0.009
      -0.004
       0.001
       0.002
      -0.003
      -0.011
      -0.018
      -0.018
      -0.013
      -0.002
       0.008
       0.013
       0.013
       0.009
       0.006
       0.004
       0.004
       0.003
      -0.001
      -0.006
      -0.010
      -0.013
      -0.012
      -0.009
      -0.006
      -0.004
      -0.003
      -0.003
      -0.003
      -0.002
      -0.001
       0.001
       0.004
       0.007
       0.008
       0.005
       0.004
       0.004
       0.007
       0.007
       0.004
       0.000
      -0.001
       0.002
       0.007
       0.009
       0.006
       0.001
      -0.005
      -0.008
      -0.007
      -0.004
      -0.001
       0.000
      -0.001
      -0.002
      -0.002
       0.000
       0.002
       0.004
       0.007
       0.010
       0.014
       0.014
       0.012
       0.009
       0.007
       0.009
       0.011
       0.011
       0.007
       0.002
      -0.001
      -0.001
       0.000
      -0.001
      -0.005
      -0.010
      -0.013
      -0.014
      -0.013
      -0.011
      -0.007
      -0.001
       0.005
       0.009
       0.009
       0.006
       0.001
      -0.001
      -0.001
       0.001
       0.002
       0.002
       0.003
       0.006
       0.007
       0.006
       0.001
      -0.005
      -0.009
      -0.011
      -0.010
      -0.008
      -0.005
      -0.002
      -0.003
      -0.004
      -0.005
      -0.001
       0.005
       0.010
       0.009
       0.002
      -0.007
      -0.012
      -0.008
       0.000
       0.008
       0.011
       0.009
       0.005
       0.004
       0.007
       0.008
       0.004
      -0.005
      -0.012
      -0.013
      -0.007
       0.000
       0.004
       0.005
       0.003
       0.001
       0.000
       0.002
       0.004
       0.006
       0.007
       0.006
       0.004
       0.001
       0.000
       0.003
       0.008
       0.010
       0.008
       0.004
       0.002
       0.004
       0.008
       0.011
       0.010
       0.008
       0.004
       0.002
       0.000
       0.000
       0.000
       0.000
      -0.001
      -0.003
      -0.006
      -0.010
      -0.012
      -0.010
      -0.004
       0.004
       0.011
       0.014
       0.012
       0.007
       0.001
      -0.002
      -0.001
       0.001
       0.005
       0.007
       0.008
       0.006
       0.005
       0.005
       0.006
       0.009
       0.011
       0.010
       0.007
       0.001
      -0.006
      -0.012
      -0.014
      -0.012
      -0.008
      -0.004
       0.003
       0.015
       0.032
       0.050
       0.069
       0.092
       0.123
       0.159
       0.194
       0.219
       0.222
       0.198
       0.152
       0.097
       0.042
      -0.024
      -0.121
      -0.255
      -0.386
      -0.446
      -0.387
      -0.235
      -0.075
       0.016
       0.039
       0.055
       0.119
       0.213
       0.261
       0.203
       0.054
      -0.105
      -0.195
      -0.203
      -0.187
      -0.219
      -0.319
      -0.434
      -0.476
      -0.386
      -0.168
       0.112
       0.372
       0.549
       0.625
       0.621
       0.574
       0.514
       0.455
       0.382
       0.252
       0.012
      -0.348
      -0.743
      -1.024
      -1.062
      -0.846
      -0.490
      -0.147
       0.114
       0.345
       0.636
       0.988
       1.255
       1.247
       0.885
       0.294
      -0.277
      -0.638
      -0.773
      -0.801
      -0.842
      -0.911
      -0.927
      -0.802
      -0.534
      -0.215
       0.044
       0.213
       0.361
       0.575
       0.849
       1.070
       1.117
       0.973
       0.741
       0.538
       0.390
       0.207
      -0.123
      -0.612
      -1.130
      -1.477
      -1.517
      -1.265
      -0.851
      -0.421
      -0.048
       0.280
       0.599
       0.910
       1.162
       1.288
       1.239
       0.996
       0.565
      -0.008
      -0.623
      -1.135
      -1.436
      -1.513
      -1.419
      -1.186
      -0.788
      -0.198
       0.509
       1.145
       1.509
       1.508
       1.198
       0.732
       0.279
      -0.054
      -0.262
      -0.412
      -0.550
      -0.606
      -0.441
      -0.027
       0.445
       0.681
       0.559
       0.253
       0.056
       0.083
       0.173
       0.079
      -0.256
      -0.633
      -0.786
      -0.618
      -0.251
       0.101
       0.291
       0.293
       0.154
      -0.055
      -0.267
      -0.423
      -0.482
      -0.432
      -0.296
      -0.133
      -0.022
      -0.002
      -0.030
      -0.013
       0.105
       0.289
       0.456
       0.545
       0.534
       0.423
       0.216
      -0.048
      -0.280
      -0.388
      -0.344
      -0.217
      -0.118
      -0.111
      -0.165
      -0.179
      -0.064
       0.184
       0.477
       0.698
       0.783
       0.742
       0.624
       0.471
       0.306
       0.149
       0.009
      -0.140
      -0.352
      -0.644
      -0.944
      -1.138
      -1.159
      -1.033
      -0.817
      -0.523
      -0.129
       0.322
       0.696
       0.855
       0.799
       0.675
       0.647
       0.729
       0.784
       0.656
       0.319
      -0.103
      -0.440
      -0.602
      -0.615
      -0.559
      -0.498
      -0.459
      -0.462
      -0.526
      -0.629
      -0.670
      -0.492
       0.002
       0.726
       1.382
       1.611
       1.249
       0.485
      -0.253
      -0.628
      -0.635
      -0.524
      -0.508
      -0.561
      -0.503
      -0.231
       0.173
       0.540
       0.777
       0.893
       0.897
       0.740
       0.363
      -0.193
      -0.742
      -1.044
      -0.960
      -0.563
      -0.109
       0.142
       0.120
      -0.009
      -0.012
       0.166
       0.335
       0.257
      -0.085
      -0.433
      -0.488
      -0.203
       0.181
       0.382
       0.348
       0.273
       0.350
       0.539
       0.608
       0.423
       0.125
      -0.017
       0.073
       0.170
      -0.002
      -0.441
      -0.844
      -0.919
      -0.675
      -0.376
      -0.256
      -0.306
      -0.351
      -0.263
      -0.080
       0.062
       0.094
       0.068
       0.085
       0.168
       0.232
       0.172
      -0.008
      -0.181
      -0.206
      -0.053
       0.171
       0.336
       0.410
       0.483
       0.662
       0.960
       1.250
       1.349
       1.141
       0.660
       0.059
      -0.511
      -0.997
      -1.411
      -1.720
      -1.806
      -1.566
      -1.048
      -0.438
       0.093
       0.510
       0.864
       1.157
       1.289
       1.152
       0.772
       0.323
       0.015
      -0.069
      -0.014
       0.019
      -0.045
      -0.145
      -0.190
      -0.201
      -0.326
      -0.689
      -1.202
      -1.575
      -1.519
      -0.984
      -0.199
       0.509
       0.959
       1.208
       1.418
       1.661
       1.833
       1.752
       1.320
       0.591
      -0.267
      -1.064
      -1.652
      -1.945
      -1.913
      -1.593
      -1.106
      -0.648
      -0.398
      -0.377
      -0.402
      -0.220
       0.276
       0.946
       1.501
       1.725
       1.601
       1.285
       0.949
       0.649
       0.312
      -0.144
      -0.680
      -1.134
      -1.377
      -1.447
      -1.494
      -1.561
      -1.447
      -0.869
       0.199
       1.378
       2.142
       2.257
       1.953
       1.664
       1.586
       1.520
       1.117
       0.256
      -0.827
      -1.744
      -2.255
      -2.390
      -2.323
      -2.174
      -1.907
      -1.415
      -0.671
       0.214
       1.056
       1.742
       2.263
       2.642
       2.828
       2.685
       2.102
       1.111
      -0.078
      -1.165
      -1.896
      -2.168
      -2.053
      -1.718
      -1.308
      -0.876
      -0.411
       0.067
       0.477
       0.719
       0.740
       0.539
       0.140
      -0.396
      -0.929
      -1.272
      -1.311
      -1.100
      -0.803
      -0.527
      -0.238
       0.147
       0.621
       1.044
       1.262
       1.238
       1.072
       0.912
       0.848
       0.865
       0.879
       0.796
       0.593
       0.343
       0.185
       0.231
       0.484
       0.825
       1.077
       1.077
       0.712
      -0.057
      -1.156
      -2.354
      -3.311
      -3.703
      -3.358
      -2.337
      -0.940
       0.390
       1.273
       1.568
       1.420
       1.116
       0.873
       0.721
       0.565
       0.324
       0.013
      -0.297
      -0.557
      -0.758
      -0.886
      -0.879
      -0.635
      -0.082
       0.759
       1.757
       2.705
       3.399
       3.714
       3.625
       3.168
       2.385
       1.295
      -0.057
      -1.553
      -2.993
      -4.149
      -4.838
      -4.997
      -4.701
      -4.112
      -3.383
      -2.583
      -1.707
      -0.745
       0.256
       1.222
       2.118
       2.964
       3.751
       4.368
       4.650
       4.500
       3.951
       3.104
       2.031
       0.755
      -0.676
      -2.110
      -3.302
      -4.023
      -4.183
      -3.869
      -3.259
      -2.481
      -1.549
      -0.414
       0.932
       2.404
       3.851
       5.112
       6.020
       6.354
       5.845
       4.280
       1.673
      -1.649
      -5.101
      -8.016
      -9.841
     -10.272
      -9.297
      -7.161
      -4.289
      -1.186
       1.659
       3.852
       5.172
       5.601
       5.315
       4.608
       3.791
       3.092
       2.610
       2.327
       2.159
       1.983
       1.653
       1.042
       0.134
      -0.941
      -1.974
      -2.811
      -3.417
      -3.800
      -3.907
      -3.621
      -2.883
      -1.801
      -0.631
       0.382
       1.156
       1.772
       2.321
       2.740
       2.834
       2.452
       1.645
       0.636
      -0.327
      -1.053
      -1.381
      -1.151
      -0.292
       1.025
       2.360
       3.178
       3.123
       2.186
       0.667
      -1.028
      -2.581
      -3.814
      -4.623
      -4.902
      -4.555
      -3.585
      -2.153
      -0.536
       1.014
       2.357
       3.435
       4.148
       4.305
       3.732
       2.453
       0.776
      -0.841
      -2.012
      -2.575
      -2.586
      -2.205
      -1.583
      -0.830
      -0.037
       0.677
       1.166
       1.320
       1.144
       0.788
       0.487
       0.446
       0.725
       1.186
       1.523
       1.404
       0.647
      -0.634
      -2.060
      -3.164
      -3.617
      -3.331
      -2.422
      -1.104
       0.375
       1.746
       2.733
       3.111
       2.793
       1.908
       0.780
      -0.191
      -0.705
      -0.716
      -0.431
      -0.169
      -0.154
      -0.381
      -0.636
      -0.660
      -0.335
       0.243
       0.839
       1.231
       1.317
       1.109
       0.674
       0.115
      -0.411
      -0.720
      -0.694
      -0.387
      -0.016
       0.170
       0.038
      -0.362
      -0.862
      -1.279
      -1.485
      -1.445
      -1.215
      -0.911
      -0.636
      -0.417
      -0.205
       0.040
       0.277
       0.412
       0.411
       0.375
       0.473
       0.789
       1.239
       1.629
       1.794
       1.694
       1.404
       1.027
       0.635
       0.253
      -0.097
      -0.388
      -0.611
      -0.813
      -1.077
      -1.436
      -1.804
      -1.988
      -1.799
      -1.181
      -0.270
       0.661
       1.331
       1.580
       1.428
       1.038
       0.599
       0.230
      -0.054
      -0.277
      -0.444
      -0.523
      -0.508
      -0.456
      -0.457
      -0.536
      -0.614
      -0.568
      -0.362
      -0.115
      -0.009
      -0.122
      -0.348
      -0.480
      -0.371
      -0.038
       0.381
       0.737
       0.955
       1.039
       1.017
       0.901
       0.691
       0.410
       0.112
      -0.157
      -0.403
      -0.671
      -0.970
      -1.213
      -1.254
      -1.004
      -0.515
       0.046
       0.515
       0.821
       1.000
       1.121
       1.213
       1.261
       1.242
       1.171
       1.092
       1.026
       0.942
       0.766
       0.430
      -0.087
      -0.746
      -1.451
      -2.068
      -2.448
      -2.472
      -2.109
      -1.445
      -0.669
       0.007
       0.440
       0.619
       0.647
       0.667
       0.769
       0.948
       1.118
       1.186
       1.110
       0.906
       0.618
       0.290
      -0.032
      -0.287
      -0.422
      -0.441
      -0.433
      -0.518
      -0.738
      -0.997
      -1.118
      -0.990
      -0.672
      -0.356
      -0.209
      -0.233
      -0.277
      -0.169
       0.132
       0.512
       0.787
       0.826
       0.619
       0.264
      -0.109
      -0.404
      -0.599
      -0.735
      -0.857
      -0.949
      -0.926
      -0.682
      -0.179
       0.503
       1.183
       1.675
       1.881
       1.823
       1.593
       1.271
       0.892
       0.473
       0.051
      -0.311
      -0.558
      -0.684
      -0.723
      -0.719
      -0.699
      -0.663
      -0.599
      -0.482
      -0.282
       0.017
       0.392
       0.769
       1.041
       1.106
       0.902
       0.431
      -0.230
      -0.931
      -1.495
      -1.782
      -1.759
      -1.509
      -1.184
      -0.920
      -0.768
      -0.673
      -0.526
      -0.234
       0.233
       0.815
       1.384
       1.772
       1.834
       1.520
       0.933
       0.303
      -0.102
      -0.123
       0.214
       0.720
       1.154
       1.347
       1.273
       1.024
       0.736
       0.495
       0.304
       0.097
      -0.195
      -0.594
      -1.054
      -1.492
      -1.828
      -2.026
      -2.094
      -2.079
      -2.021
      -1.920
      -1.708
      -1.274
      -0.538
       0.456
       1.512
       2.341
       2.699
       2.508
       1.882
       1.045
       0.207
      -0.510
      -1.072
      -1.457
      -1.621
      -1.500
      -1.062
      -0.354
       0.510
       1.378
       2.112
       2.603
       2.771
       2.560
       1.955
       1.010
      -0.140
      -1.300
      -2.262
      -2.853
      -2.970
      -2.602
      -1.834
      -0.839
       0.163
       0.964
       1.429
       1.524
       1.304
       0.875
       0.344
      -0.216
      -0.764
      -1.263
      -1.642
      -1.803
      -1.655
      -1.175
      -0.432
       0.422
       1.206
       1.768
       2.034
       2.026
       1.829
       1.528
       1.148
       0.661
       0.052
      -0.609
      -1.154
      -1.410
      -1.301
      -0.909
      -0.425
      -0.031
       0.189
       0.262
       0.257
       0.211
       0.110
      -0.063
      -0.271
      -0.427
      -0.453
      -0.338
      -0.143
       0.061
       0.246
       0.418
       0.567
       0.647
       0.604
       0.427
       0.156
      -0.150
      -0.454
      -0.746
      -1.012
      -1.217
      -1.304
      -1.218
      -0.935
      -0.478
       0.097
       0.709
       1.278
       1.723
       1.981
       2.011
       1.807
       1.400
       0.847
       0.226
      -0.399
