Origin Time       25/12/2013 02:56:52
Lat.              31.2 N 
Long.             78.3 E 
Depth (Km)         10.0
Magnitude         4.0
 Region           Uttarkashi-Uttarakhand                                           
 Above details taken from IMD 
     
Station Code      UTK
Station Lat.       30.730  N
Station Long.      78.445  E
Station Height(m) 1152.0
Site Class        A   Vs30 between 700 m/sec to 1400 m/sec * 
Record Time       25.12.2013 02:56:43.869
Sampling Rate     200. Hz
 Record Duration   81.470 Sec.
 Direction         E-W (E positive)
Max. Acceleration      3.698 cm/sec**2
     
  * For reference see Site Classification link of website 
     
 Base Line Corrected and Low Pass Filtered (Cut Off at 35 Hz) Time History
 Acceleration data in cm/sec**2
    
[...]
       0.053
       0.027
      -0.028
      -0.094
      -0.140
      -0.145
      -0.110
      -0.048
       0.024
       0.095
       0.168
       0.251
       0.340
       0.405
       0.411
       0.348
       0.244
       0.140
       0.057
      -0.023
      -0.123
      -0.228
      -0.287
      -0.259
      -0.164
      -0.062
       0.000
       0.029
       0.061
       0.109
       0.144
       0.124
       0.036
      -0.093
      -0.217
      -0.309
      -0.371
      -0.416
      -0.438
      -0.406
      -0.288
      -0.094
       0.114
       0.259
       0.301
       0.259
       0.203
       0.185
       0.209
       0.229
       0.201
       0.124
       0.031
      -0.047
      -0.105
      -0.147
      -0.166
      -0.144
      -0.078
       0.008
       0.077
       0.114
       0.131
       0.147
       0.162
       0.153
       0.103
       0.020
      -0.070
      -0.139
      -0.182
      -0.209
      -0.240
      -0.284
      -0.326
      -0.326
      -0.256
      -0.126
       0.012
       0.101
       0.131
       0.148
       0.212
       0.333
       0.457
       0.507
       0.448
       0.304
       0.130
      -0.038
      -0.187
      -0.310
      -0.388
      -0.393
      -0.320
      -0.199
      -0.088
      -0.041
      -0.068
      -0.116
      -0.109
      -0.001
       0.174
       0.326
       0.370
       0.289
       0.150
       0.044
       0.016
       0.036
       0.036
      -0.029
      -0.141
      -0.242
      -0.285
      -0.267
      -0.216
      -0.157
      -0.087
       0.009
       0.134
       0.258
       0.338
       0.348
       0.294
       0.202
       0.100
       0.012
      -0.044
      -0.075
      -0.115
      -0.196
      -0.310
      -0.399
      -0.400
      -0.301
      -0.154
      -0.036
       0.019
       0.039
       0.067
       0.113
       0.145
       0.122
       0.047
      -0.041
      -0.093
      -0.092
      -0.057
      -0.027
      -0.029
      -0.060
      -0.086
      -0.064
       0.017
       0.125
       0.204
       0.217
       0.183
       0.154
       0.165
       0.184
       0.147
       0.031
      -0.111
      -0.181
      -0.135
      -0.018
       0.077
       0.094
       0.059
       0.031
       0.036
       0.040
      -0.007
      -0.111
      -0.223
      -0.282
      -0.264
      -0.192
      -0.107
      -0.039
       0.013
       0.080
       0.187
       0.324
       0.442
       0.473
       0.375
       0.167
      -0.081
      -0.284
      -0.392
      -0.415
      -0.396
      -0.366
      -0.322
      -0.237
      -0.104
       0.054
       0.193
       0.282
       0.317
       0.318
       0.303
       0.276
       0.227
       0.146
       0.040
      -0.068
      -0.152
      -0.199
      -0.210
      -0.196
      -0.163
      -0.108
      -0.037
       0.033
       0.079
       0.094
       0.093
       0.097
       0.115
       0.134
       0.133
       0.097
       0.027
      -0.057
      -0.126
      -0.163
      -0.170
      -0.165
      -0.163
      -0.160
      -0.133
      -0.063
       0.037
       0.126
       0.168
       0.164
       0.152
       0.173
       0.231
       0.285
       0.287
       0.226
       0.130
       0.044
      -0.016
      -0.064
      -0.124
      -0.199
      -0.275
      -0.337
      -0.385
      -0.417
      -0.415
      -0.355
      -0.242
      -0.113
      -0.009
       0.056
       0.110
       0.184
       0.272
       0.326
       0.293
       0.175
       0.031
      -0.059
      -0.064
      -0.016
       0.023
       0.021
      -0.001
       0.005
       0.067
       0.165
       0.237
       0.221
       0.111
      -0.040
      -0.146
      -0.157
      -0.090
      -0.012
       0.021
       0.005
      -0.020
      -0.015
       0.017
       0.046
       0.047
       0.025
      -0.001
      -0.016
      -0.018
      -0.016
      -0.020
      -0.035
      -0.051
      -0.047
      -0.012
       0.044
       0.085
       0.074
       0.002
      -0.100
      -0.175
      -0.177
      -0.110
      -0.024
       0.009
      -0.039
      -0.133
      -0.191
      -0.154
      -0.040
       0.072
       0.107
       0.061
       0.003
       0.011
       0.098
       0.203
       0.244
       0.182
       0.055
      -0.061
      -0.112
      -0.101
      -0.067
      -0.046
      -0.040
      -0.033
      -0.014
       0.011
       0.026
       0.025
       0.022
       0.036
       0.074
       0.114
       0.119
       0.073
       0.004
      -0.035
      -0.008
       0.065
       0.123
       0.113
       0.036
      -0.057
      -0.113
      -0.123
      -0.115
      -0.110
      -0.103
      -0.071
      -0.009
       0.060
       0.094
       0.063
      -0.028
      -0.138
      -0.207
      -0.187
      -0.077
       0.075
       0.192
       0.211
       0.123
      -0.021
      -0.147
      -0.197
      -0.161
      -0.076
       0.002
       0.030
       0.009
      -0.023
      -0.021
       0.038
       0.136
       0.238
       0.313
       0.346
       0.335
       0.276
       0.165
       0.010
      -0.163
      -0.303
      -0.363
      -0.324
      -0.217
      -0.100
      -0.021
       0.009
       0.013
       0.019
       0.030
       0.024
      -0.020
      -0.094
      -0.151
      -0.148
      -0.076
       0.032
       0.125
       0.174
       0.175
       0.154
       0.147
       0.178
       0.227
       0.243
       0.181
       0.052
      -0.080
      -0.148
      -0.144
      -0.120
      -0.138
      -0.204
      -0.268
      -0.278
      -0.230
      -0.170
      -0.136
      -0.132
      -0.132
      -0.111
      -0.056
       0.026
       0.113
       0.176
       0.199
       0.194
       0.194
       0.221
       0.261
       0.274
       0.233
       0.147
       0.051
      -0.016
      -0.042
      -0.036
      -0.015
       0.010
       0.040
       0.082
       0.132
       0.162
       0.131
       0.017
      -0.144
      -0.271
      -0.299
      -0.234
      -0.159
      -0.154
      -0.220
      -0.277
      -0.241
      -0.106
       0.048
       0.140
       0.157
       0.156
       0.191
       0.260
       0.300
       0.256
       0.129
      -0.028
      -0.159
      -0.240
      -0.278
      -0.282
      -0.253
      -0.194
      -0.120
      -0.046
       0.032
       0.130
       0.252
       0.376
       0.455
       0.451
       0.356
       0.204
       0.055
      -0.043
      -0.082
      -0.096
      -0.131
      -0.198
      -0.258
      -0.251
      -0.153
      -0.001
       0.122
       0.151
       0.080
      -0.038
      -0.136
      -0.183
      -0.188
      -0.181
      -0.173
      -0.151
      -0.097
      -0.017
       0.057
       0.095
       0.095
       0.083
       0.080
       0.079
       0.051
      -0.011
      -0.077
      -0.091
      -0.023
       0.092
       0.183
       0.206
       0.188
       0.197
       0.268
       0.365
       0.405
       0.328
       0.141
      -0.096
      -0.311
      -0.462
      -0.540
      -0.552
      -0.495
      -0.373
      -0.210
      -0.044
       0.093
       0.197
       0.288
       0.386
       0.491
       0.567
       0.565
       0.451
       0.237
      -0.024
      -0.258
      -0.406
      -0.457
      -0.437
      -0.391
      -0.340
      -0.273
      -0.166
      -0.019
       0.136
       0.258
       0.325
       0.332
       0.287
       0.199
       0.095
       0.012
      -0.027
      -0.040
      -0.073
      -0.163
      -0.285
      -0.361
      -0.322
      -0.175
      -0.003
       0.105
       0.129
       0.124
       0.154
       0.225
       0.283
       0.278
       0.221
       0.175
       0.186
       0.237
       0.258
       0.193
       0.042
      -0.130
      -0.248
      -0.268
      -0.207
      -0.125
      -0.085
      -0.113
      -0.185
      -0.247
      -0.261
      -0.225
      -0.167
      -0.105
      -0.046
       0.010
       0.053
       0.069
       0.056
       0.038
       0.039
       0.059
       0.069
       0.038
      -0.031
      -0.103
      -0.145
      -0.148
      -0.123
      -0.089
      -0.055
      -0.016
       0.047
       0.148
       0.271
       0.361
       0.354
       0.223
       0.012
      -0.185
      -0.285
      -0.267
      -0.175
      -0.086
      -0.048
      -0.062
      -0.085
      -0.056
       0.063
       0.261
       0.473
       0.622
       0.661
       0.594
       0.462
       0.312
       0.177
       0.067
      -0.033
      -0.155
      -0.321
      -0.516
      -0.680
      -0.749
      -0.697
      -0.561
      -0.410
      -0.286
      -0.171
      -0.016
       0.202
       0.439
       0.608
       0.643
       0.553
       0.409
       0.290
       0.215
       0.142
       0.006
      -0.215
      -0.470
      -0.656
      -0.679
      -0.523
      -0.259
      -0.001
       0.168
       0.230
       0.213
       0.143
       0.038
      -0.076
      -0.152
      -0.145
      -0.052
       0.070
       0.147
       0.137
       0.068
       0.019
       0.056
       0.179
       0.315
       0.353
       0.220
      -0.072
      -0.413
      -0.645
      -0.659
      -0.464
      -0.182
       0.047
       0.161
       0.197
       0.224
       0.266
       0.290
       0.248
       0.140
       0.024
      -0.035
      -0.030
      -0.019
      -0.060
      -0.143
      -0.182
      -0.096
       0.101
       0.291
       0.348
       0.247
       0.090
       0.018
       0.094
       0.259
       0.386
       0.380
       0.238
       0.032
      -0.158
      -0.297
      -0.380
      -0.404
      -0.352
      -0.229
      -0.081
       0.031
       0.084
       0.115
       0.174
       0.260
       0.328
       0.343
       0.331
       0.343
       0.388
       0.395
       0.269
      -0.008
      -0.348
      -0.603
      -0.681
      -0.608
      -0.502
      -0.476
      -0.551
      -0.635
      -0.606
      -0.409
      -0.114
       0.137
       0.244
       0.220
       0.166
       0.164
       0.213
       0.238
       0.177
       0.049
      -0.057
      -0.060
       0.036
       0.150
       0.192
       0.144
       0.059
       0.003
       0.001
       0.032
       0.066
       0.095
       0.136
       0.201
       0.282
       0.351
       0.388
       0.383
       0.334
       0.241
       0.105
      -0.054
      -0.193
      -0.274
      -0.282
      -0.238
      -0.183
      -0.146
      -0.138
      -0.140
      -0.125
      -0.063
       0.061
       0.232
       0.408
       0.535
       0.584
       0.570
       0.532
       0.488
       0.417
       0.277
       0.062
      -0.174
      -0.344
      -0.389
      -0.318
      -0.200
      -0.114
      -0.097
      -0.134
      -0.171
      -0.172
      -0.155
      -0.191
      -0.343
      -0.592
      -0.831
      -0.942
      -0.888
      -0.740
      -0.607
      -0.537
      -0.484
      -0.361
      -0.122
       0.199
       0.522
       0.780
       0.937
       0.979
       0.904
       0.735
       0.519
       0.299
       0.088
      -0.126
      -0.351
      -0.574
      -0.773
      -0.936
      -1.069
      -1.163
      -1.177
      -1.032
      -0.674
      -0.138
       0.430
       0.832
       0.935
       0.747
       0.397
       0.040
      -0.243
      -0.459
      -0.644
      -0.797
      -0.860
      -0.775
      -0.527
      -0.152
       0.308
       0.830
       1.388
       1.920
       2.328
       2.527
       2.500
       2.306
       2.029
       1.717
       1.364
       0.941
       0.444
      -0.101
      -0.650
      -1.163
      -1.595
      -1.878
      -1.957
      -1.833
      -1.591
      -1.357
      -1.213
      -1.137
      -1.041
      -0.848
      -0.558
      -0.246
       0.002
       0.137
       0.170
       0.153
       0.155
       0.220
       0.360
       0.553
       0.777
       1.018
       1.260
       1.473
       1.610
       1.633
       1.532
       1.325
       1.035
       0.671
       0.228
      -0.291
      -0.839
      -1.332
      -1.709
      -1.979
      -2.209
      -2.435
      -2.606
      -2.597
      -2.312
      -1.760
      -1.057
      -0.352
       0.254
       0.725
       1.065
       1.267
       1.315
       1.216
       1.019
       0.809
       0.664
       0.629
       0.693
       0.811
       0.931
       1.019
       1.056
       1.013
       0.835
       0.479
      -0.040
      -0.618
      -1.110
      -1.399
      -1.438
      -1.226
      -0.763
      -0.055
       0.838
       1.767
       2.541
       3.011
       3.112
       2.836
       2.194
       1.216
       0.001
      -1.269
      -2.378
      -3.156
      -3.533
      -3.517
      -3.157
      -2.497
      -1.579
      -0.467
       0.724
       1.818
       2.615
       2.950
       2.757
       2.096
       1.120
       0.015
      -1.053
      -1.963
      -2.637
      -3.034
      -3.142
      -2.946
      -2.418
      -1.538
      -0.363
       0.929
       2.066
       2.805
       3.051
       2.889
       2.482
       1.935
       1.257
       0.443
      -0.417
      -1.137
      -1.553
      -1.646
      -1.539
      -1.380
      -1.216
      -0.978
      -0.592
      -0.083
       0.414
       0.736
       0.792
       0.587
       0.194
      -0.285
      -0.746
      -1.095
      -1.258
      -1.193
      -0.899
      -0.410
       0.231
       0.985
       1.807
       2.615
       3.286
       3.679
       3.698
       3.322
       2.610
       1.678
       0.654
      -0.350
      -1.253
      -2.007
      -2.572
      -2.900
      -2.940
      -2.657
      -2.080
      -1.321
      -0.562
       0.004
       0.243
       0.129
      -0.259
      -0.779
      -1.284
      -1.667
      -1.877
      -1.916
      -1.805
      -1.538
      -1.072
      -0.359
       0.579
       1.611
       2.539
       3.203
       3.560
       3.659
       3.569
       3.301
       2.827
       2.152
       1.364
       0.604
      -0.018
      -0.485
      -0.848
      -1.163
      -1.428
      -1.609
      -1.686
      -1.690
      -1.677
      -1.681
      -1.679
      -1.601
      -1.378
      -0.999
      -0.538
      -0.133
       0.089
       0.105
       0.025
       0.026
       0.222
       0.564
       0.878
       0.993
       0.861
       0.574
       0.284
       0.105
       0.053
       0.060
       0.023
      -0.112
      -0.307
      -0.451
      -0.448
      -0.292
      -0.074
       0.086
       0.119
       0.038
      -0.098
      -0.233
      -0.344
      -0.428
      -0.482
      -0.503
      -0.501
      -0.485
      -0.447
      -0.350
      -0.159
       0.119
       0.426
       0.677
       0.812
       0.807
       0.673
       0.444
       0.193
       0.024
       0.019
       0.181
       0.404
       0.533
       0.468
       0.243
       0.006
      -0.083
       0.019
       0.201
       0.281
       0.147
      -0.153
      -0.452
      -0.588
      -0.505
      -0.262
       0.039
       0.328
       0.593
       0.848
       1.076
       1.203
       1.140
       0.860
       0.449
       0.071
      -0.143
      -0.191
      -0.196
      -0.298
      -0.536
      -0.820
      -1.019
      -1.071
      -1.030
      -1.001
      -1.043
      -1.119
      -1.117
      -0.926
      -0.509
       0.061
       0.645
       1.119
       1.443
       1.653
       1.797
       1.853
       1.719
       1.291
       0.556
      -0.359
      -1.239
      -1.892
      -2.229
      -2.286
      -2.154
      -1.900
      -1.526
      -1.014
      -0.384
       0.274
       0.844
       1.252
       1.485
       1.562
       1.485
       1.226
       0.767
       0.152
      -0.491
      -0.986
      -1.205
      -1.138
      -0.902
      -0.640
      -0.417
      -0.190
       0.114
       0.484
       0.812
       0.981
       0.976
       0.893
       0.854
       0.888
       0.909
       0.789
       0.484
       0.079
      -0.265
      -0.426
      -0.399
      -0.280
      -0.168
      -0.090
       0.011
       0.197
       0.454
       0.672
       0.701
       0.460
       0.003
      -0.499
      -0.853
      -0.961
      -0.866
      -0.698
      -0.571
      -0.489
      -0.351
      -0.042
       0.449
       0.985
       1.354
       1.403
       1.130
       0.661
       0.142
      -0.354
      -0.835
      -1.305
      -1.686
      -1.833
      -1.646
      -1.174
      -0.597
      -0.100
       0.256
       0.539
       0.837
       1.151
       1.378
       1.392
       1.140
       0.694
       0.213
      -0.148
      -0.320
      -0.342
      -0.315
      -0.321
      -0.376
      -0.436
      -0.458
      -0.435
      -0.387
      -0.315
      -0.181
       0.043
       0.310
       0.505
       0.531
       0.395
       0.214
       0.128
       0.185
       0.312
       0.370
       0.263
       0.003
      -0.317
      -0.596
      -0.787
      -0.909
      -1.005
      -1.101
      -1.178
      -1.178
      -1.030
      -0.701
      -0.237
       0.239
       0.592
       0.761
       0.792
       0.800
       0.866
       0.985
       1.088
       1.112
       1.045
       0.909
       0.727
       0.514
       0.288
       0.086
      -0.050
      -0.079
       0.017
       0.216
       0.426
       0.507
       0.346
      -0.045
      -0.518
      -0.883
      -1.051
      -1.094
      -1.170
      -1.362
      -1.574
      -1.601
      -1.288
      -0.668
       0.055
       0.653
       1.013
       1.173
       1.244
       1.305
       1.342
       1.262
       0.969
       0.458
      -0.147
      -0.647
      -0.881
      -0.824
      -0.576
      -0.267
       0.032
       0.318
       0.589
       0.790
       0.834
       0.669
       0.327
      -0.092
      -0.482
      -0.780
      -0.973
      -1.064
      -1.052
      -0.932
      -0.725
      -0.474
      -0.227
      -0.005
       0.195
       0.371
       0.482
       0.466
       0.300
       0.045
      -0.177
      -0.280
      -0.269
      -0.212
      -0.166
      -0.129
      -0.065
       0.043
       0.186
       0.337
       0.468
       0.546
       0.547
       0.468
       0.350
       0.246
       0.181
       0.138
       0.081
      -0.002
      -0.090
      -0.154
      -0.186
      -0.192
      -0.172
      -0.120
      -0.039
       0.050
       0.120
       0.160
       0.172
       0.156
       0.109
       0.044
      -0.005
      -0.010
       0.021
       0.042
       0.018
      -0.038
      -0.070
      -0.040
       0.025
       0.056
       0.004
      -0.113
      -0.229
      -0.283
      -0.261
      -0.200
      -0.144
      -0.116
      -0.098
      -0.043
       0.092
       0.314
       0.579
       0.806
       0.916
       0.867
       0.667
       0.358
      -0.006
      -0.368
      -0.670
      -0.872
      -0.961
      -0.963
      -0.913
      -0.811
      -0.618
      -0.297
       0.138
       0.611
       1.018
       1.285
       1.373
       1.272
       0.987
       0.560
       0.069
      -0.390
      -0.747
      -0.982
      -1.106
      -1.135
      -1.083
      -0.967
      -0.810
      -0.621
      -0.381
      -0.062
       0.328
       0.703
       0.932
       0.913
       0.651
       0.260
