Origin Time       17/2/2013 16:27:07	 UTC
Lat.              30.9 N	
Long.             78.4 E	
Depth (Km)         10.0
Magnitude         3.2
 Region           UTTARKASHI-UTTARAKHAND                                           
 Above details taken from IMD 
    
Station Code      UTK
Station Lat.       30.730  N
Station Long.      78.445  E
Station Height(m) 1147.0
Site Class        A   Vs30 between 700 m/sec to 1400 m/sec * 
Record Time       17.02.2013 16:26:44.209 UTC
Sampling Rate     200. Hz
 Record Duration   80.320 Sec.
 Direction         N-S (N positive)
Max. Acceleration     -2.949 cm/sec**2
     
  * For reference see Site Classification link of website 
     
 Base Line Corrected and Low Pass Filtered (Cut Off at 35 Hz) Time History
 Acceleration data in cm/sec**2
    
[...]
       0.006
       0.009
       0.009
       0.004
      -0.001
      -0.004
      -0.004
      -0.002
       0.000
       0.001
      -0.001
      -0.005
      -0.008
      -0.007
      -0.005
      -0.005
      -0.009
      -0.012
      -0.012
      -0.006
       0.000
       0.003
       0.003
       0.002
       0.002
       0.004
       0.008
       0.014
       0.020
       0.024
       0.025
       0.024
       0.021
       0.018
       0.012
       0.003
      -0.006
      -0.009
      -0.007
      -0.004
      -0.004
      -0.010
      -0.016
      -0.017
      -0.014
      -0.007
      -0.002
       0.003
       0.006
       0.008
       0.010
       0.012
       0.013
       0.014
       0.015
       0.016
       0.016
       0.014
       0.009
       0.003
      -0.002
      -0.003
      -0.002
       0.000
       0.002
       0.004
       0.002
      -0.002
      -0.007
      -0.011
      -0.011
      -0.010
      -0.007
      -0.002
       0.002
       0.002
      -0.001
      -0.002
       0.003
       0.015
       0.024
       0.026
       0.019
       0.010
       0.004
       0.003
       0.004
       0.003
       0.001
       0.000
      -0.001
      -0.001
       0.000
       0.002
       0.004
       0.003
      -0.001
      -0.008
      -0.013
      -0.014
      -0.012
      -0.008
      -0.005
      -0.001
       0.006
       0.014
       0.020
       0.023
       0.022
       0.017
       0.013
       0.013
       0.016
       0.017
       0.012
       0.001
      -0.009
      -0.014
      -0.014
      -0.012
      -0.010
      -0.009
      -0.009
      -0.009
      -0.009
      -0.008
      -0.006
      -0.005
      -0.006
      -0.009
      -0.011
      -0.012
      -0.010
      -0.006
      -0.003
       0.001
       0.005
       0.008
       0.009
       0.007
       0.005
       0.005
       0.008
       0.012
       0.015
       0.013
       0.006
      -0.005
      -0.014
      -0.018
      -0.018
      -0.015
      -0.013
      -0.010
      -0.008
      -0.005
      -0.003
       0.000
       0.003
       0.006
       0.006
       0.004
       0.002
       0.004
       0.010
       0.016
       0.015
       0.007
      -0.001
      -0.004
       0.000
       0.009
       0.017
       0.019
       0.015
       0.004
      -0.007
      -0.013
      -0.012
      -0.006
       0.000
       0.004
       0.003
       0.001
      -0.001
      -0.001
       0.000
       0.001
       0.001
       0.002
       0.006
       0.014
       0.022
       0.027
       0.027
       0.022
       0.014
       0.003
      -0.007
      -0.014
      -0.014
      -0.007
      -0.001
       0.002
       0.000
      -0.003
      -0.006
      -0.008
      -0.011
      -0.014
      -0.014
      -0.013
      -0.010
      -0.007
      -0.002
       0.004
       0.009
       0.011
       0.011
       0.010
       0.011
       0.013
       0.015
       0.014
       0.011
       0.010
       0.010
       0.010
       0.010
       0.006
       0.002
      -0.002
      -0.003
      -0.003
      -0.004
      -0.008
      -0.012
      -0.011
      -0.002
       0.011
       0.020
       0.020
       0.013
       0.005
       0.004
       0.010
       0.018
       0.020
       0.016
       0.008
       0.004
       0.006
       0.009
       0.010
       0.006
       0.001
       0.001
       0.006
       0.010
       0.009
       0.001
      -0.009
      -0.015
      -0.015
      -0.012
      -0.010
      -0.012
      -0.014
      -0.015
      -0.013
      -0.008
      -0.003
       0.001
       0.004
       0.008
       0.012
       0.015
       0.014
       0.008
       0.003
       0.001
       0.002
       0.003
       0.001
      -0.003
      -0.007
      -0.009
      -0.009
      -0.007
      -0.003
       0.002
       0.003
      -0.001
      -0.007
      -0.011
      -0.012
      -0.009
      -0.005
       0.000
       0.004
       0.008
       0.009
       0.010
       0.011
       0.014
       0.015
       0.012
       0.006
       0.000
      -0.002
       0.000
       0.002
       0.003
       0.002
      -0.002
      -0.006
      -0.008
      -0.008
      -0.006
      -0.003
       0.000
       0.002
       0.002
       0.000
      -0.005
      -0.008
      -0.006
       0.001
       0.008
       0.009
       0.005
       0.002
       0.005
       0.011
       0.014
       0.014
       0.013
       0.015
       0.017
       0.017
       0.012
       0.005
      -0.002
      -0.005
      -0.003
       0.001
       0.004
       0.001
      -0.005
      -0.010
      -0.010
      -0.003
       0.007
       0.014
       0.016
       0.018
       0.021
       0.024
       0.026
       0.025
       0.021
       0.015
       0.010
       0.007
       0.006
       0.008
       0.011
       0.015
       0.018
       0.018
       0.012
       0.003
      -0.006
      -0.010
      -0.007
       0.001
       0.009
       0.013
       0.011
       0.008
       0.005
       0.005
       0.008
       0.013
       0.019
       0.023
       0.023
       0.021
       0.018
       0.017
       0.019
       0.022
       0.024
       0.022
       0.016
       0.008
       0.002
       0.001
       0.005
       0.009
       0.009
       0.004
      -0.002
      -0.004
      -0.004
      -0.003
      -0.004
      -0.006
      -0.006
       0.000
       0.007
       0.013
       0.013
       0.010
       0.007
       0.008
       0.013
       0.017
       0.016
       0.010
       0.002
      -0.002
      -0.001
       0.002
       0.003
       0.002
      -0.001
      -0.002
      -0.001
       0.004
       0.009
       0.012
       0.011
       0.007
       0.004
       0.004
       0.007
       0.010
       0.010
       0.008
       0.006
       0.006
       0.008
       0.013
       0.019
       0.023
       0.025
       0.025
       0.025
       0.025
       0.022
       0.017
       0.008
       0.000
      -0.006
      -0.010
      -0.012
      -0.012
      -0.013
      -0.014
      -0.014
      -0.014
      -0.012
      -0.010
      -0.007
      -0.004
      -0.002
       0.001
       0.003
       0.002
      -0.001
      -0.004
      -0.003
       0.001
       0.003
       0.002
      -0.002
      -0.006
      -0.006
      -0.004
      -0.001
       0.000
      -0.001
       0.000
       0.002
       0.004
       0.002
      -0.003
      -0.008
      -0.011
      -0.011
      -0.010
      -0.007
      -0.002
       0.003
       0.007
       0.008
       0.005
       0.002
       0.002
       0.007
       0.011
       0.013
       0.010
       0.007
       0.006
       0.009
       0.013
       0.014
       0.010
       0.003
      -0.004
      -0.010
      -0.013
      -0.017
      -0.019
      -0.021
      -0.019
      -0.011
       0.002
       0.016
       0.022
       0.021
       0.015
       0.013
       0.017
       0.024
       0.029
       0.027
       0.021
       0.014
       0.011
       0.012
       0.012
       0.008
       0.001
      -0.005
      -0.007
      -0.005
      -0.002
      -0.001
      -0.001
      -0.002
      -0.001
       0.000
       0.001
       0.001
       0.001
      -0.001
      -0.003
      -0.004
      -0.002
       0.002
       0.007
       0.011
       0.016
       0.023
       0.029
       0.028
       0.021
       0.013
       0.007
       0.005
       0.007
       0.008
       0.006
       0.000
      -0.007
      -0.011
      -0.012
      -0.010
      -0.006
      -0.002
      -0.001
       0.000
       0.002
       0.004
       0.004
       0.002
       0.000
       0.001
       0.006
       0.009
       0.008
       0.003
      -0.002
       0.000
       0.009
       0.019
       0.023
       0.018
       0.008
       0.002
       0.001
       0.005
       0.009
       0.009
       0.004
      -0.002
      -0.004
      -0.002
       0.001
       0.001
      -0.002
      -0.008
      -0.011
      -0.010
      -0.005
       0.002
       0.007
       0.010
       0.014
       0.019
       0.021
       0.018
       0.012
       0.006
       0.005
       0.007
       0.008
       0.005
      -0.001
      -0.006
      -0.007
      -0.004
       0.000
       0.004
       0.006
       0.005
       0.000
      -0.011
      -0.029
      -0.055
      -0.088
      -0.115
      -0.115
      -0.074
       0.002
       0.082
       0.130
       0.128
       0.094
       0.066
       0.072
       0.105
       0.129
       0.112
       0.061
       0.012
      -0.007
      -0.003
      -0.017
      -0.077
      -0.170
      -0.239
      -0.228
      -0.121
       0.039
       0.182
       0.253
       0.249
       0.214
       0.202
       0.228
       0.248
       0.194
       0.042
      -0.166
      -0.352
      -0.459
      -0.479
      -0.435
      -0.358
      -0.263
      -0.152
      -0.020
       0.130
       0.277
       0.385
       0.433
       0.435
       0.422
       0.405
       0.352
       0.226
       0.026
      -0.203
      -0.407
      -0.547
      -0.603
      -0.554
      -0.393
      -0.168
       0.022
       0.083
       0.012
      -0.080
      -0.051
       0.150
       0.427
       0.605
       0.573
       0.376
       0.164
       0.060
       0.054
       0.034
      -0.075
      -0.234
      -0.336
      -0.325
      -0.260
      -0.239
      -0.283
      -0.310
      -0.235
      -0.068
       0.096
       0.186
       0.229
       0.308
       0.445
       0.553
       0.502
       0.247
      -0.115
      -0.412
      -0.510
      -0.394
      -0.161
       0.059
       0.172
       0.167
       0.101
       0.042
       0.011
      -0.033
      -0.141
      -0.304
      -0.427
      -0.391
      -0.158
       0.181
       0.466
       0.582
       0.532
       0.413
       0.319
       0.267
       0.205
       0.078
      -0.112
      -0.301
      -0.422
      -0.461
      -0.456
      -0.447
      -0.423
      -0.331
      -0.124
       0.180
       0.499
       0.722
       0.762
       0.603
       0.317
       0.038
      -0.116
      -0.119
      -0.061
      -0.081
      -0.263
      -0.572
      -0.883
      -1.049
      -0.965
      -0.610
      -0.070
       0.479
       0.848
       0.940
       0.806
       0.603
       0.468
       0.411
       0.322
       0.087
      -0.291
      -0.673
      -0.882
      -0.829
      -0.572
      -0.254
      -0.002
       0.148
       0.239
       0.333
       0.446
       0.538
       0.567
       0.536
       0.487
       0.443
       0.365
       0.171
      -0.178
      -0.604
      -0.919
      -0.946
      -0.657
      -0.209
       0.153
       0.270
       0.160
      -0.023
      -0.120
      -0.072
       0.075
       0.229
       0.324
       0.335
       0.263
       0.120
      -0.057
      -0.186
      -0.183
      -0.037
       0.148
       0.216
       0.094
      -0.146
      -0.347
      -0.402
      -0.325
      -0.215
      -0.161
      -0.190
      -0.266
      -0.314
      -0.242
       0.011
       0.430
       0.893
       1.216
       1.256
       1.000
       0.568
       0.126
      -0.229
      -0.495
      -0.725
      -0.933
      -1.075
      -1.084
      -0.934
      -0.656
      -0.307
       0.066
       0.429
       0.743
       0.945
       0.973
       0.805
       0.499
       0.170
      -0.074
      -0.210
      -0.293
      -0.376
      -0.441
      -0.416
      -0.257
      -0.007
       0.227
       0.351
       0.326
       0.168
      -0.079
      -0.359
      -0.603
      -0.731
      -0.668
      -0.382
       0.075
       0.548
       0.852
       0.884
       0.691
       0.424
       0.203
       0.041
      -0.115
      -0.279
      -0.404
      -0.438
      -0.393
      -0.333
      -0.308
      -0.303
      -0.253
      -0.100
       0.160
       0.459
       0.682
       0.730
       0.587
       0.327
       0.060
      -0.148
      -0.290
      -0.373
      -0.381
      -0.293
      -0.143
      -0.032
      -0.060
      -0.223
      -0.392
      -0.398
      -0.176
       0.166
       0.419
       0.447
       0.298
       0.151
       0.145
       0.252
       0.309
       0.187
      -0.070
      -0.275
      -0.281
      -0.128
      -0.011
      -0.079
      -0.285
      -0.435
      -0.394
      -0.231
      -0.139
      -0.217
      -0.346
      -0.287
       0.088
       0.647
       1.086
       1.157
       0.861
       0.427
       0.127
       0.067
       0.136
       0.121
      -0.108
      -0.500
      -0.874
      -1.053
      -0.969
      -0.680
      -0.305
       0.047
       0.306
       0.436
       0.441
       0.366
       0.292
       0.278
       0.315
       0.330
       0.249
       0.065
      -0.158
      -0.335
      -0.413
      -0.380
      -0.247
      -0.046
       0.160
       0.278
       0.244
       0.073
      -0.140
      -0.283
      -0.299
      -0.199
      -0.033
       0.138
       0.251
       0.264
       0.175
       0.038
      -0.071
      -0.120
      -0.144
      -0.207
      -0.338
      -0.482
      -0.523
      -0.369
      -0.037
       0.336
       0.576
       0.600
       0.478
       0.359
       0.340
       0.385
       0.369
       0.204
      -0.091
      -0.406
      -0.622
      -0.686
      -0.623
      -0.494
      -0.336
      -0.140
       0.110
       0.389
       0.619
       0.729
       0.727
       0.709
       0.774
       0.939
       1.113
       1.158
       0.966
       0.494
      -0.232
      -1.125
      -2.020
      -2.696
      -2.949
      -2.699
      -2.034
      -1.153
      -0.241
       0.607
       1.376
       2.045
       2.532
       2.717
       2.506
       1.900
       1.008
       0.016
      -0.887
      -1.559
      -1.935
      -2.004
      -1.790
      -1.340
      -0.738
      -0.113
       0.419
       0.814
       1.114
       1.366
       1.526
       1.450
       1.020
       0.276
      -0.559
      -1.216
      -1.549
      -1.601
      -1.514
      -1.381
      -1.178
      -0.813
      -0.247
       0.443
       1.108
       1.612
       1.900
       1.971
       1.816
       1.391
       0.664
      -0.308
      -1.332
      -2.148
      -2.552
      -2.499
      -2.104
      -1.535
      -0.898
      -0.207
       0.550
       1.325
       1.989
       2.394
       2.460
       2.219
       1.778
       1.254
       0.725
       0.224
      -0.231
      -0.616
      -0.906
      -1.081
      -1.148
      -1.134
      -1.073
      -0.988
      -0.887
      -0.769
      -0.627
      -0.436
      -0.165
       0.201
       0.615
       0.952
       1.058
       0.842
       0.363
      -0.171
      -0.506
      -0.495
      -0.189
       0.196
       0.438
       0.448
       0.308
       0.166
       0.099
       0.069
      -0.006
      -0.148
      -0.294
      -0.360
      -0.321
      -0.231
      -0.165
      -0.147
      -0.130
      -0.053
       0.103
       0.309
       0.523
       0.722
       0.875
       0.913
       0.734
       0.289
      -0.353
      -1.008
      -1.486
      -1.698
      -1.675
      -1.489
      -1.168
      -0.693
      -0.072
       0.598
       1.160
       1.492
       1.573
       1.466
       1.226
       0.858
       0.347
      -0.251
      -0.782
      -1.070
      -1.045
      -0.804
      -0.533
      -0.348
      -0.208
       0.020
       0.407
       0.846
       1.123
       1.087
       0.779
       0.398
       0.138
       0.047
       0.021
      -0.076
      -0.290
      -0.553
      -0.752
      -0.828
      -0.801
      -0.714
      -0.566
      -0.323
       0.009
       0.327
       0.485
       0.422
       0.225
       0.055
       0.001
       0.004
      -0.064
      -0.254
      -0.464
      -0.530
      -0.369
      -0.054
       0.257
       0.443
       0.491
       0.464
       0.411
       0.327
       0.192
       0.020
      -0.116
      -0.148
      -0.070
       0.049
       0.129
       0.144
       0.137
       0.154
       0.188
       0.183
       0.093
      -0.072
      -0.245
      -0.369
      -0.437
      -0.488
      -0.558
      -0.629
      -0.635
      -0.510
      -0.238
       0.121
       0.461
       0.677
       0.708
       0.567
       0.340
       0.151
       0.088
       0.133
       0.172
       0.094
      -0.096
      -0.269
      -0.268
      -0.041
       0.312
       0.613
       0.724
       0.618
       0.359
       0.053
      -0.212
      -0.385
      -0.469
      -0.514
      -0.586
      -0.710
      -0.840
      -0.881
      -0.759
      -0.486
      -0.148
       0.163
       0.411
       0.623
       0.831
       1.012
       1.087
       0.988
       0.718
       0.351
      -0.027
      -0.371
      -0.676
      -0.930
      -1.080
      -1.052
      -0.813
      -0.414
       0.017
       0.355
       0.558
       0.677
       0.787
       0.900
       0.933
       0.778
       0.397
      -0.127
      -0.634
      -0.971
      -1.068
      -0.956
      -0.728
      -0.481
      -0.270
      -0.104
       0.037
       0.173
       0.307
       0.426
       0.494
       0.475
       0.364
       0.211
       0.098
       0.075
       0.122
       0.159
       0.129
       0.041
      -0.047
      -0.093
      -0.113
      -0.155
      -0.227
      -0.283
      -0.259
      -0.143
       0.007
       0.110
       0.137
       0.130
       0.151
       0.213
       0.259
       0.215
       0.058
      -0.162
      -0.358
      -0.461
      -0.457
      -0.371
      -0.249
      -0.133
      -0.053
      -0.022
      -0.038
      -0.072
      -0.068
       0.029
       0.220
       0.424
       0.520
       0.433
       0.201
      -0.059
      -0.233
      -0.277
      -0.228
      -0.144
      -0.064
       0.003
       0.050
       0.057
       0.008
      -0.078
      -0.136
      -0.094
       0.063
       0.277
       0.446
       0.503
       0.450
       0.345
       0.242
       0.159
       0.081
      -0.012
      -0.127
      -0.255
      -0.389
      -0.518
      -0.619
      -0.657
      -0.591
      -0.404
      -0.124
       0.180
       0.422
       0.535
       0.498
       0.343
       0.137
      -0.041
      -0.145
      -0.179
      -0.179
      -0.170
      -0.140
      -0.059
       0.084
       0.257
       0.398
       0.466
       0.454
       0.376
       0.240
       0.038
      -0.219
      -0.479
      -0.649
      -0.652
      -0.484
      -0.222
       0.031
       0.210
       0.317
       0.387
       0.440
       0.466
       0.441
       0.338
       0.130
      -0.193
      -0.596
      -0.972
      -1.177
      -1.116
      -0.803
      -0.366
       0.032
       0.286
       0.384
       0.385
       0.352
       0.318
       0.290
       0.275
       0.286
       0.331
       0.400
       0.468
       0.510
       0.508
       0.451
       0.337
       0.173
      -0.012
      -0.177
      -0.288
      -0.346
      -0.394
      -0.485
      -0.625
      -0.747
      -0.749
      -0.581
      -0.288
       0.016
       0.232
       0.335
       0.360
       0.351
       0.323
       0.273
       0.209
       0.151
       0.105
       0.048
      -0.054
      -0.206
      -0.372
      -0.483
      -0.487
      -0.369
      -0.160
       0.091
       0.333
       0.525
       0.637
       0.652
       0.576
