Origin Time       27/11/2012 12:15:15
Lat.              30.9 N	
Long.             78.4 E	
Depth (Km)         12.0
Magnitude         4.8
 Region           Uttarkashi-Uttarakhand                                           
 Above details taken from IMD 
     
Station Code      UTK
Station Lat.       30.730  N
Station Long.      78.445  E
Station Height(m) 1152.0
Site Class        A   Vs30 between 700 m/sec to 1400 m/sec * 
Record Time       27.11.2012 12:14:49.809
Sampling Rate     200. Hz
 Record Duration  100.880 Sec.
 Direction         E-W (E positive)
Max. Acceleration    -46.101 cm/sec**2
     
  * For reference see Site Classification link of website 
     
 Base Line Corrected and Low Pass Filtered (Cut Off at 35 Hz) Time History
 Acceleration data in cm/sec**2
    
[...]
      -0.035
      -0.002
       0.023
       0.023
       0.003
      -0.015
      -0.017
      -0.007
       0.005
       0.012
       0.010
       0.005
      -0.001
      -0.003
      -0.002
       0.003
       0.008
       0.009
       0.000
      -0.011
      -0.016
      -0.010
       0.002
       0.012
       0.014
       0.008
      -0.002
      -0.009
      -0.001
       0.020
       0.035
       0.026
      -0.004
      -0.028
      -0.025
       0.000
       0.019
       0.014
      -0.011
      -0.031
      -0.028
      -0.007
       0.013
       0.017
       0.006
      -0.007
      -0.014
      -0.011
       0.003
       0.023
       0.038
       0.041
       0.028
       0.007
      -0.014
      -0.030
      -0.037
      -0.033
      -0.023
      -0.014
      -0.016
      -0.026
      -0.030
      -0.020
       0.003
       0.023
       0.025
       0.009
      -0.004
      -0.002
       0.013
       0.025
       0.024
       0.015
       0.002
      -0.010
      -0.016
      -0.012
       0.001
       0.014
       0.013
      -0.005
      -0.027
      -0.035
      -0.019
       0.006
       0.019
       0.008
      -0.012
      -0.024
      -0.022
      -0.011
       0.000
       0.011
       0.020
       0.025
       0.023
       0.016
       0.008
       0.002
       0.004
       0.012
       0.025
       0.030
       0.018
      -0.012
      -0.047
      -0.067
      -0.062
      -0.038
      -0.009
       0.010
       0.017
       0.016
       0.006
      -0.009
      -0.025
      -0.031
      -0.028
      -0.021
      -0.015
      -0.012
      -0.010
      -0.005
       0.001
       0.009
       0.019
       0.026
       0.029
       0.023
       0.006
      -0.014
      -0.025
      -0.020
      -0.008
      -0.001
      -0.005
      -0.015
      -0.026
      -0.033
      -0.032
      -0.017
       0.006
       0.026
       0.027
       0.012
      -0.010
      -0.026
      -0.036
      -0.039
      -0.034
      -0.015
       0.013
       0.034
       0.030
       0.005
      -0.018
      -0.017
       0.001
       0.013
       0.001
      -0.029
      -0.056
      -0.061
      -0.041
      -0.009
       0.017
       0.021
       0.002
      -0.026
      -0.039
      -0.026
       0.002
       0.021
       0.012
      -0.017
      -0.040
      -0.036
      -0.011
       0.009
       0.009
      -0.003
      -0.010
      -0.004
       0.010
       0.018
       0.013
      -0.003
      -0.022
      -0.032
      -0.026
      -0.012
      -0.005
      -0.008
      -0.017
      -0.021
      -0.013
       0.002
       0.012
       0.012
       0.006
       0.004
       0.008
       0.010
       0.001
      -0.017
      -0.035
      -0.044
      -0.039
      -0.021
       0.002
       0.018
       0.020
       0.014
       0.008
       0.009
       0.012
       0.012
       0.007
      -0.002
      -0.013
      -0.025
      -0.037
      -0.048
      -0.050
      -0.036
      -0.008
       0.019
       0.031
       0.025
       0.007
      -0.013
      -0.027
      -0.028
      -0.012
       0.013
       0.026
       0.015
      -0.015
      -0.041
      -0.040
      -0.013
       0.023
       0.044
       0.044
       0.029
       0.009
      -0.014
      -0.034
      -0.045
      -0.038
      -0.019
      -0.001
       0.008
       0.008
       0.003
      -0.005
      -0.014
      -0.019
      -0.016
      -0.005
       0.006
       0.010
       0.006
       0.001
       0.005
       0.017
       0.027
       0.025
       0.015
       0.008
       0.008
       0.007
       0.000
      -0.012
      -0.023
      -0.029
      -0.027
      -0.022
      -0.020
      -0.022
      -0.021
      -0.009
       0.015
       0.036
       0.039
       0.020
      -0.008
      -0.027
      -0.032
      -0.031
      -0.034
      -0.035
      -0.020
       0.016
       0.049
       0.053
       0.027
      -0.003
      -0.008
       0.011
       0.031
       0.025
      -0.005
      -0.039
      -0.051
      -0.039
      -0.019
      -0.015
      -0.030
      -0.056
      -0.074
      -0.078
      -0.071
      -0.071
      -0.095
      -0.144
      -0.191
      -0.198
      -0.147
      -0.058
       0.023
       0.052
       0.025
      -0.018
      -0.027
       0.016
       0.070
       0.063
      -0.051
      -0.255
      -0.475
      -0.629
      -0.675
      -0.641
      -0.589
      -0.562
      -0.547
      -0.494
      -0.375
      -0.213
      -0.045
       0.122
       0.312
       0.520
       0.687
       0.725
       0.590
       0.335
       0.070
      -0.128
      -0.279
      -0.457
      -0.683
      -0.868
      -0.877
      -0.666
      -0.343
      -0.087
       0.025
       0.113
       0.381
       0.895
       1.461
       1.769
       1.664
       1.273
       0.860
       0.575
       0.360
       0.081
      -0.293
      -0.654
      -0.888
      -1.016
      -1.150
      -1.305
      -1.274
      -0.766
       0.254
       1.366
       1.926
       1.616
       0.816
       0.352
       0.763
       1.772
       2.505
       2.282
       1.225
       0.123
      -0.279
       0.101
       0.648
       0.578
      -0.440
      -2.013
      -3.297
      -3.592
      -2.822
      -1.550
      -0.547
      -0.266
      -0.588
      -0.957
      -0.780
       0.172
       1.579
       2.712
       2.848
       1.728
      -0.204
      -1.977
      -2.636
      -1.875
      -0.344
       0.709
       0.349
      -1.214
      -2.638
      -2.506
      -0.604
       1.780
       2.951
       2.350
       1.019
       0.505
       1.294
       2.360
       2.250
       0.588
      -1.532
      -2.612
      -2.148
      -0.995
      -0.389
      -0.713
      -1.229
      -0.977
       0.171
       1.373
       1.678
       0.936
      -0.116
      -0.614
      -0.351
       0.169
       0.393
       0.322
       0.412
       0.925
       1.526
       1.635
       1.109
       0.420
       0.092
       0.087
      -0.116
      -0.821
      -1.605
      -1.637
      -0.558
       0.972
       1.718
       1.009
      -0.522
      -1.420
      -0.789
       0.768
       1.682
       0.965
      -0.778
      -1.942
      -1.518
      -0.046
       1.010
       0.718
      -0.559
      -1.740
      -2.151
      -1.984
      -1.800
      -1.830
      -1.857
      -1.660
      -1.366
      -1.314
      -1.621
      -1.952
      -1.734
      -0.638
       1.075
       2.674
       3.491
       3.443
       3.028
       2.768
       2.665
       2.284
       1.391
       0.418
       0.138
       0.808
       1.751
       1.943
       1.081
      -0.032
      -0.258
       0.687
       1.892
       2.126
       1.033
      -0.575
      -1.603
      -1.786
      -1.844
      -2.529
      -3.605
      -3.941
      -2.720
      -0.474
       1.278
       1.531
       0.831
       0.662
       1.754
       3.157
       3.135
       0.995
      -2.092
      -4.121
      -4.059
      -2.610
      -1.312
      -1.024
      -1.304
      -1.115
       0.048
       1.777
       3.341
       4.450
       5.306
       5.994
       6.070
       4.974
       2.803
       0.418
      -1.366
      -2.599
      -3.965
      -5.708
      -7.008
      -6.633
      -4.229
      -0.876
       1.707
       2.517
       1.919
       1.093
       0.933
       1.404
       1.790
       1.407
       0.090
      -1.822
      -3.748
      -5.076
      -5.335
      -4.407
      -2.665
      -0.769
       0.780
       1.896
       2.721
       3.302
       3.580
       3.650
       3.830
       4.264
       4.531
       3.841
       1.785
      -1.094
      -3.592
      -4.768
      -4.601
      -3.765
      -2.818
      -1.702
      -0.056
       2.109
       4.167
       5.369
       5.501
       4.969
       4.228
       3.240
       1.613
      -0.727
      -3.124
      -4.583
      -4.620
      -3.686
      -2.738
      -2.402
      -2.540
      -2.543
      -1.978
      -0.946
       0.094
       0.802
       1.241
       1.732
       2.423
       3.025
       3.021
       2.166
       0.796
      -0.410
      -1.016
      -1.185
      -1.454
      -2.134
      -2.966
      -3.396
      -3.170
      -2.604
      -2.256
      -2.378
      -2.729
      -2.854
      -2.460
      -1.549
      -0.342
       0.848
       1.744
       2.236
       2.419
       2.465
       2.425
       2.158
       1.439
       0.132
      -1.628
      -3.333
      -4.204
      -3.616
      -1.636
       0.825
       2.544
       2.895
       2.347
       1.988
       2.446
       3.295
       3.632
       3.216
       2.822
       3.271
       4.230
       4.292
       2.456
      -0.598
      -2.963
      -3.322
      -2.248
      -1.597
      -2.638
      -4.813
      -6.309
      -5.726
      -3.230
      -0.242
       1.823
       2.532
       2.395
       2.065
       1.681
       0.983
      -0.033
      -0.794
      -0.667
       0.210
       0.788
      -0.002
      -2.169
      -4.524
      -5.660
      -5.054
      -3.245
      -1.064
       1.179
       3.754
       6.857
      10.017
      12.234
      12.740
      11.608
       9.564
       7.221
       4.576
       1.292
      -2.610
      -6.475
      -9.457
     -11.193
     -11.969
     -12.223
     -11.911
     -10.460
      -7.403
      -3.090
       1.312
       4.616
       6.416
       7.129
       7.325
       7.149
       6.385
       4.906
       2.861
       0.430
      -2.372
      -5.466
      -8.305
      -9.949
      -9.724
      -7.831
      -5.177
      -2.575
      -0.137
       2.512
       5.470
       8.132
       9.581
       9.369
       7.873
       5.914
       4.074
       2.422
       0.817
      -0.674
      -1.759
      -2.325
      -2.711
      -3.393
      -4.340
      -4.792
      -3.873
      -1.500
       1.377
       3.512
       4.363
       4.387
       4.397
       4.680
       4.729
       3.834
       1.927
      -0.208
      -1.655
      -2.340
      -3.154
      -4.984
      -7.604
      -9.693
     -10.057
      -8.770
      -7.005
      -5.740
      -4.782
      -3.147
      -0.339
       2.885
       5.110
       5.590
       4.877
       4.059
       3.437
       2.139
      -0.785
      -4.955
      -8.531
      -9.690
      -8.257
      -5.812
      -4.088
      -3.267
      -1.934
       1.264
       5.978
      10.284
      12.453
      12.506
      11.956
      12.114
      12.763
      12.484
      10.160
       6.060
       1.503
      -2.379
      -5.443
      -8.143
     -10.515
     -11.761
     -10.972
      -8.214
      -4.710
      -1.806
       0.183
       1.970
       4.167
       6.340
       7.307
       6.299
       3.703
       0.669
      -1.911
      -3.984
      -5.958
      -7.871
      -9.041
      -8.630
      -6.527
      -3.563
      -0.777
       1.503
       3.814
       6.785
      10.277
      13.331
      14.948
      14.877
      13.624
      11.707
       8.959
       4.677
      -1.403
      -8.256
     -13.876
     -16.693
     -16.828
     -15.905
     -15.505
     -15.755
     -15.384
     -13.100
      -8.857
      -3.842
       0.651
       4.240
       7.365
      10.303
      12.458
      12.825
      11.187
       8.674
       6.899
       6.474
       6.479
       5.492
       3.096
       0.306
      -1.444
      -1.622
      -0.870
      -0.110
       0.468
       1.416
       3.075
       4.759
       5.046
       3.003
      -0.877
      -4.983
      -7.879
      -9.303
      -9.963
     -10.433
     -10.395
      -9.019
      -6.019
      -2.201
       1.143
       3.356
       4.885
       6.609
       8.782
      10.691
      11.331
      10.278
       7.864
       4.640
       0.894
      -3.251
      -7.446
     -11.096
     -13.771
     -15.489
     -16.426
     -16.377
     -14.657
     -10.634
      -4.393
       3.064
      10.237
      15.783
      18.985
      19.814
      18.583
      15.460
      10.252
       2.746
      -6.600
     -16.259
     -24.070
     -28.362
     -28.899
     -26.840
     -23.635
     -19.794
     -14.623
      -7.216
       2.196
      11.861
      19.551
      24.140
      26.285
      27.633
      29.339
      31.236
      32.249
      31.501
      29.014
      25.408
      21.080
      15.870
       9.615
       2.957
      -2.627
      -5.825
      -6.631
      -6.436
      -6.815
      -8.070
      -8.984
      -8.193
      -5.894
      -4.081
      -4.883
      -8.619
     -13.570
     -17.718
     -20.585
     -23.277
     -26.813
     -30.608
     -32.673
     -31.243
     -26.090
     -18.318
      -9.151
       0.793
      11.005
      20.258
      26.770
      29.473
      29.000
      27.140
      25.125
      22.418
      17.292
       8.703
      -2.320
     -13.185
     -21.654
     -27.289
     -31.066
     -33.635
     -34.109
     -30.694
     -22.579
     -11.193
       0.533
      10.232
      17.512
      23.337
      28.059
      30.242
      27.653
      19.571
       8.098
      -3.005
     -10.965
     -15.640
     -18.652
     -20.980
     -21.489
     -17.844
      -8.858
       3.992
      17.251
      27.652
      33.900
      36.749
      37.636
      37.188
      34.811
      29.542
      21.324
      11.578
       2.500
      -4.382
      -9.067
     -12.549
     -15.405
     -16.959
     -15.867
     -11.541
      -5.004
       1.574
       6.150
       7.786
       6.709
       3.611
      -1.090
      -7.420
     -15.352
     -24.222
     -32.725
     -39.568
     -44.076
     -46.101
     -45.408
     -41.421
     -33.729
     -22.839
     -10.315
       1.888
      12.357
      20.688
      27.235
      32.381
      35.896
      36.871
      34.386
      28.468
      20.552
      12.857
       7.073
       3.428
       0.983
      -1.168
      -3.018
      -3.885
      -3.394
      -2.057
      -0.806
      -0.053
       0.691
       2.161
       4.293
       5.912
       5.594
       2.959
      -0.917
      -4.477
      -7.110
      -9.513
     -12.572
     -15.918
     -17.779
     -16.419
     -11.781
      -5.708
      -0.464
       3.061
       5.809
       9.300
      13.889
      18.192
      20.167
      18.839
      15.099
      10.905
       7.669
       5.311
       2.779
      -0.589
      -4.218
      -6.734
      -7.205
      -5.919
      -3.993
      -2.262
      -0.651
       1.352
       3.709
       5.471
       5.478
       3.390
      -0.044
      -3.716
      -7.093
     -10.374
     -13.774
     -16.793
     -18.279
     -17.300
     -13.952
      -9.283
      -4.434
       0.083
       4.261
       7.936
      10.511
      11.435
      10.835
       9.476
       8.049
       6.558
       4.499
       1.594
      -1.690
      -4.382
      -5.732
      -5.710
      -4.816
      -3.488
      -1.761
       0.511
       3.174
       5.642
       7.255
       7.735
       7.219
       5.928
       3.897
       1.095
      -2.239
      -5.481
      -7.902
      -9.133
      -9.363
      -9.111
      -8.744
      -8.201
      -7.156
      -5.413
      -3.104
      -0.560
       1.917
       4.089
       5.648
       6.164
       5.305
       3.176
       0.427
      -2.044
      -3.572
      -3.986
      -3.455
      -2.140
      -0.057
       2.747
       5.938
       8.905
      11.080
      12.302
      12.807
      12.781
      11.905
       9.444
       4.921
      -1.175
      -7.375
     -12.029
     -14.324
     -14.646
     -13.957
     -12.760
     -10.663
      -6.988
      -1.817
       3.609
       7.648
       9.435
       9.361
       8.412
       7.147
       5.359
       2.686
      -0.614
      -3.659
      -5.730
      -6.949
      -8.002
      -9.141
      -9.574
      -8.033
      -4.058
       1.289
       6.082
       8.962
       9.994
      10.172
      10.190
       9.774
       8.173
       5.155
       1.405
      -2.063
      -4.766
      -6.944
      -8.973
     -10.734
     -11.622
     -11.096
      -9.120
      -6.102
      -2.521
       1.312
       5.175
       8.716
      11.379
      12.599
      12.124
      10.201
       7.424
       4.371
       1.376
      -1.376
      -3.619
      -4.992
      -5.283
      -4.662
      -3.597
      -2.552
      -1.737
      -1.115
      -0.568
      -0.025
       0.543
       1.142
       1.717
       2.062
       1.865
       0.929
      -0.589
      -2.174
      -3.248
      -3.531
      -3.161
      -2.525
      -1.978
      -1.626
      -1.318
      -0.841
      -0.179
       0.412
       0.591
       0.220
      -0.533
      -1.338
      -1.896
      -2.019
      -1.626
      -0.778
       0.281
       1.182
       1.664
       1.770
       1.825
       2.160
       2.814
       3.464
       3.652
       3.115
       1.935
       0.379
      -1.359
      -3.235
      -5.161
      -6.810
      -7.668
      -7.356
      -5.903
      -3.756
      -1.506
       0.460
       2.141
       3.826
       5.787
       7.988
      10.037
      11.398
      11.664
      10.700
       8.620
       5.721
       2.434
      -0.746
      -3.412
      -5.401
      -6.787
      -7.643
      -7.783
      -6.810
      -4.515
      -1.283
       1.946
       4.191
       5.015
       4.685
       3.819
       2.862
       1.837
       0.510
      -1.246
      -3.248
      -5.112
      -6.511
      -7.323
      -7.589
      -7.368
      -6.670
      -5.531
      -4.143
      -2.874
      -2.099
      -1.924
      -2.072
      -2.079
      -1.680
      -1.037
      -0.584
      -0.641
      -1.150
      -1.772
      -2.185
      -2.300
      -2.207
      -1.970
      -1.505
      -0.643
       0.675
       2.288
       3.886
       5.200
       6.146
       6.782
       7.180
       7.368
       7.381
       7.275
       7.026
       6.440
       5.279
       3.559
       1.710
       0.363
      -0.114
       0.062
       0.238
      -0.136
      -1.048
      -1.945
      -2.234
      -1.751
      -0.795
       0.273
       1.377
       2.643
       4.032
       5.161
       5.579
       5.217
       4.496
       3.934
       3.625
       3.142
       1.992
       0.155
      -1.850
      -3.445
      -4.517
      -5.436
      -6.554
      -7.730
      -8.386
      -8.060
      -6.888
      -5.534
      -4.635
      -4.313
      -4.212
      -3.944
      -3.483
      -3.140
      -3.192
      -3.549
      -3.793
      -3.554
      -2.864
      -2.141
      -1.772
      -1.701
      -1.457
      -0.620
       0.748
       2.130
       2.991
       3.186
       2.994
       2.839
       3.003
       3.527
       4.285
       5.093
       5.779
       6.202
       6.286
       6.051
       5.588
       4.982
       4.259
       3.410
       2.474
       1.554
       0.746
       0.063
      -0.559
      -1.153
      -1.628
      -1.800
      -1.543
      -0.928
      -0.200
       0.397
       0.773
       0.958
       0.953
       0.661
       0.012
      -0.871
      -1.718
      -2.349
      -2.857
      -3.471
      -4.244
      -4.917
      -5.135
      -4.770
      -3.977
      -2.979
      -1.852
      -0.579
       0.750
       1.856
       2.419
       2.324
       1.758
       1.072
       0.524
       0.089
      -0.482
      -1.397
      -2.526
      -3.353
      -3.279
      -2.081
      -0.108
       1.984
       3.717
       5.042
       6.125
