Origin Time       25/12/2013 02:56:52
Lat.              31.2 N 
Long.             78.3 E 
Depth (Km)         10.0
Magnitude         4.0
 Region           Uttarkashi-Uttarakhand                                           
 Above details taken from IMD 
   
Station Code      UTK
Station Lat.       30.730
Station Long.      78.445
Station Height(m) 1152.0
Site Class        A   Vs30 between 700 m/sec to 1400 m/sec * 
Record Time       25.12.2013 02:56:43.869
Sampling Rate     200. Hz
 Record Duration   81.470 Sec.
 Direction         Vert. (Up positive)
Max. Acceleration      2.595 cm/sec**2
     
  * For reference see Site Classification link of website 
     
 Base Line Corrected and Low Pass Filtered (Cut Off at 35 Hz) Time History
 Acceleration data in cm/sec**2
    
[...]
       0.426
       0.427
       0.375
       0.178
      -0.145
      -0.419
      -0.441
      -0.175
       0.186
       0.380
       0.300
       0.089
      -0.014
       0.083
       0.233
       0.203
      -0.074
      -0.405
      -0.512
      -0.295
       0.067
       0.276
       0.179
      -0.103
      -0.301
      -0.245
       0.000
       0.233
       0.313
       0.266
       0.203
       0.182
       0.163
       0.084
      -0.035
      -0.106
      -0.079
      -0.013
      -0.037
      -0.206
      -0.424
      -0.516
      -0.392
      -0.139
       0.068
       0.128
       0.102
       0.142
       0.322
       0.549
       0.632
       0.452
       0.078
      -0.285
      -0.460
      -0.433
      -0.332
      -0.287
      -0.314
      -0.311
      -0.174
       0.089
       0.345
       0.440
       0.333
       0.124
      -0.036
      -0.076
      -0.050
      -0.055
      -0.116
      -0.147
      -0.026
       0.271
       0.605
       0.757
       0.592
       0.183
      -0.243
      -0.474
      -0.469
      -0.363
      -0.328
      -0.402
      -0.454
      -0.318
       0.023
       0.386
       0.529
       0.360
       0.015
      -0.261
      -0.312
      -0.175
      -0.011
       0.051
       0.011
      -0.048
      -0.065
      -0.048
      -0.040
      -0.062
      -0.097
      -0.120
      -0.118
      -0.084
      -0.002
       0.142
       0.325
       0.486
       0.556
       0.501
       0.345
       0.142
      -0.067
      -0.266
      -0.437
      -0.534
      -0.505
      -0.345
      -0.120
       0.061
       0.120
       0.069
       0.001
       0.017
       0.147
       0.320
       0.424
       0.400
       0.279
       0.142
       0.033
      -0.080
      -0.252
      -0.472
      -0.624
      -0.572
      -0.295
       0.066
       0.308
       0.332
       0.214
       0.099
       0.052
       0.004
      -0.138
      -0.345
      -0.452
      -0.296
       0.100
       0.510
       0.667
       0.482
       0.104
      -0.221
      -0.347
      -0.311
      -0.251
      -0.267
      -0.339
      -0.361
      -0.237
       0.040
       0.383
       0.660
       0.757
       0.626
       0.310
      -0.069
      -0.372
      -0.515
      -0.505
      -0.408
      -0.285
      -0.158
      -0.016
       0.139
       0.270
       0.323
       0.276
       0.164
       0.053
      -0.020
      -0.068
      -0.119
      -0.178
      -0.218
      -0.209
      -0.146
      -0.048
       0.057
       0.151
       0.223
       0.251
       0.206
       0.084
      -0.068
      -0.167
      -0.150
      -0.023
       0.139
       0.249
       0.260
       0.188
       0.081
      -0.023
      -0.118
      -0.205
      -0.265
      -0.254
      -0.140
       0.052
       0.239
       0.315
       0.225
       0.002
      -0.244
      -0.393
      -0.398
      -0.314
      -0.239
      -0.231
      -0.262
      -0.250
      -0.130
       0.092
       0.343
       0.527
       0.571
       0.453
       0.208
      -0.070
      -0.258
      -0.262
      -0.093
       0.118
       0.207
       0.112
      -0.068
      -0.160
      -0.072
       0.100
       0.148
      -0.054
      -0.406
      -0.638
      -0.531
      -0.110
       0.363
       0.592
       0.469
       0.138
      -0.136
      -0.185
      -0.059
       0.050
      -0.009
      -0.204
      -0.350
      -0.270
       0.043
       0.411
       0.604
       0.517
       0.244
      -0.007
      -0.090
      -0.019
       0.068
       0.050
      -0.074
      -0.199
      -0.218
      -0.114
       0.023
       0.066
      -0.052
      -0.297
      -0.550
      -0.667
      -0.541
      -0.168
       0.319
       0.697
       0.789
       0.583
       0.251
       0.011
      -0.045
      -0.008
      -0.047
      -0.230
      -0.447
      -0.503
      -0.301
       0.053
       0.329
       0.367
       0.199
       0.006
      -0.049
       0.050
       0.182
       0.202
       0.071
      -0.122
      -0.238
      -0.202
      -0.044
       0.134
       0.229
       0.194
       0.047
      -0.148
      -0.328
      -0.445
      -0.467
      -0.371
      -0.161
       0.106
       0.330
       0.423
       0.363
       0.214
       0.074
       0.003
      -0.020
      -0.060
      -0.154
      -0.264
      -0.308
      -0.233
      -0.063
       0.114
       0.206
       0.179
       0.065
      -0.061
      -0.130
      -0.114
      -0.025
       0.104
       0.237
       0.342
       0.390
       0.355
       0.216
      -0.035
      -0.362
      -0.664
      -0.798
      -0.662
      -0.277
       0.206
       0.586
       0.731
       0.651
       0.462
       0.280
       0.133
      -0.031
      -0.253
      -0.482
      -0.590
      -0.479
      -0.179
       0.147
       0.315
       0.249
       0.027
      -0.191
      -0.293
      -0.286
      -0.248
      -0.231
      -0.202
      -0.088
       0.131
       0.374
       0.498
       0.403
       0.106
      -0.272
      -0.574
      -0.680
      -0.545
      -0.217
       0.186
       0.515
       0.669
       0.634
       0.478
       0.287
       0.106
      -0.060
      -0.210
      -0.311
      -0.320
      -0.235
      -0.114
      -0.032
      -0.011
      -0.005
       0.050
       0.153
       0.217
       0.149
      -0.061
      -0.298
      -0.397
      -0.279
      -0.017
       0.216
       0.287
       0.196
       0.055
      -0.011
       0.038
       0.133
       0.164
       0.061
      -0.135
      -0.293
      -0.291
      -0.113
       0.117
       0.226
       0.125
      -0.111
      -0.287
      -0.250
      -0.027
       0.192
       0.231
       0.094
      -0.037
       0.008
       0.201
       0.321
       0.159
      -0.267
      -0.693
      -0.821
      -0.566
      -0.107
       0.297
       0.527
       0.638
       0.710
       0.714
       0.541
       0.157
      -0.309
      -0.646
      -0.729
      -0.594
      -0.363
      -0.100
       0.208
       0.543
       0.764
       0.676
       0.221
      -0.408
      -0.878
      -0.963
      -0.721
      -0.422
      -0.300
      -0.343
      -0.326
      -0.037
       0.494
       0.998
       1.173
       0.926
       0.439
       0.004
      -0.200
      -0.230
      -0.275
      -0.451
      -0.679
      -0.755
      -0.555
      -0.155
       0.230
       0.429
       0.438
       0.381
       0.355
       0.337
       0.236
       0.033
      -0.152
      -0.171
      -0.017
       0.143
       0.120
      -0.098
      -0.313
      -0.314
      -0.091
       0.127
       0.096
      -0.191
      -0.467
      -0.443
      -0.091
       0.320
       0.482
       0.337
       0.122
       0.115
       0.349
       0.569
       0.463
      -0.033
      -0.650
      -0.995
      -0.855
      -0.340
       0.235
       0.586
       0.620
       0.427
       0.162
      -0.065
      -0.222
      -0.328
      -0.396
      -0.413
      -0.354
      -0.210
      -0.009
       0.195
       0.346
       0.409
       0.374
       0.241
       0.024
      -0.234
      -0.454
      -0.559
      -0.541
      -0.471
      -0.425
      -0.383
      -0.223
       0.159
       0.688
       1.106
       1.145
       0.761
       0.197
      -0.212
      -0.324
      -0.283
      -0.342
      -0.582
      -0.822
      -0.790
      -0.395
       0.177
       0.621
       0.777
       0.740
       0.722
       0.824
       0.932
       0.834
       0.422
      -0.202
      -0.786
      -1.093
      -1.027
      -0.661
      -0.164
       0.280
       0.534
       0.533
       0.300
      -0.054
      -0.369
      -0.518
      -0.477
      -0.339
      -0.241
      -0.251
      -0.312
      -0.271
      -0.004
       0.465
       0.939
       1.156
       0.962
       0.420
      -0.217
      -0.680
      -0.853
      -0.832
      -0.793
      -0.817
      -0.807
      -0.596
      -0.123
       0.462
       0.888
       0.937
       0.597
       0.053
      -0.436
      -0.681
      -0.641
      -0.407
      -0.125
       0.079
       0.155
       0.150
       0.189
       0.392
       0.758
       1.112
       1.170
       0.741
      -0.095
      -0.961
      -1.392
      -1.139
      -0.341
       0.563
       1.123
       1.145
       0.759
       0.267
      -0.094
      -0.297
      -0.471
      -0.718
      -0.987
      -1.106
      -0.937
      -0.504
       0.023
       0.452
       0.686
       0.755
       0.739
       0.672
       0.528
       0.295
       0.044
      -0.101
      -0.078
       0.040
       0.085
      -0.059
      -0.364
      -0.675
      -0.830
      -0.771
      -0.549
      -0.252
       0.055
       0.334
       0.537
       0.610
       0.526
       0.317
       0.058
      -0.189
      -0.386
      -0.500
      -0.484
      -0.312
      -0.040
       0.197
       0.284
       0.238
       0.213
       0.338
       0.548
       0.605
       0.318
      -0.238
      -0.734
      -0.848
      -0.541
      -0.080
       0.214
       0.259
       0.256
       0.434
       0.758
       0.930
       0.676
       0.049
      -0.574
      -0.799
      -0.547
      -0.106
       0.142
       0.049
      -0.209
      -0.356
      -0.304
      -0.218
      -0.303
      -0.561
      -0.778
      -0.746
      -0.460
      -0.093
       0.211
       0.468
       0.766
       1.065
       1.153
       0.845
       0.234
      -0.320
      -0.485
      -0.265
       0.005
      -0.025
      -0.371
      -0.697
      -0.631
      -0.135
       0.440
       0.665
       0.426
       0.019
      -0.135
       0.116
       0.527
       0.690
       0.404
      -0.169
      -0.668
      -0.855
      -0.790
      -0.711
      -0.762
      -0.830
      -0.663
      -0.129
       0.610
       1.207
       1.406
       1.236
       0.943
       0.727
       0.555
       0.236
      -0.313
      -0.895
      -1.158
      -0.893
      -0.248
       0.377
       0.643
       0.526
       0.270
       0.112
       0.048
      -0.122
      -0.534
      -1.048
      -1.321
      -1.091
      -0.408
       0.391
       0.936
       1.078
       0.934
       0.714
       0.513
       0.255
      -0.161
      -0.696
      -1.126
      -1.197
      -0.829
      -0.207
       0.324
       0.498
       0.309
      -0.003
      -0.159
      -0.059
       0.168
       0.298
       0.220
       0.016
      -0.120
      -0.060
       0.153
       0.341
       0.345
       0.152
      -0.115
      -0.305
      -0.356
      -0.311
      -0.256
      -0.237
      -0.228
      -0.160
       0.006
       0.229
       0.410
       0.463
       0.381
       0.238
       0.137
       0.135
       0.204
       0.258
       0.223
       0.110
       0.009
       0.032
       0.228
       0.536
       0.796
       0.806
       0.417
      -0.355
      -1.288
      -2.027
      -2.256
      -1.879
      -1.077
      -0.181
       0.534
       0.975
       1.191
       1.229
       1.071
       0.686
       0.136
      -0.412
      -0.777
      -0.879
      -0.758
      -0.499
      -0.145
       0.293
       0.755
       1.097
       1.165
       0.922
       0.473
      -0.028
      -0.489
      -0.879
      -1.142
      -1.141
      -0.762
      -0.068
       0.645
       1.030
       0.952
       0.592
       0.274
       0.161
       0.127
      -0.082
      -0.573
      -1.178
      -1.603
      -1.679
      -1.483
      -1.216
      -0.976
      -0.661
      -0.099
       0.726
       1.591
       2.180
       2.323
       2.094
       1.704
       1.302
       0.887
       0.400
      -0.127
      -0.526
      -0.628
      -0.448
      -0.213
      -0.190
      -0.458
      -0.827
      -0.994
      -0.814
      -0.430
      -0.156
      -0.179
      -0.385
      -0.453
      -0.157
       0.421
       0.943
       1.095
       0.819
       0.326
      -0.126
      -0.448
      -0.747
      -1.137
      -1.554
      -1.764
      -1.559
      -0.958
      -0.214
       0.375
       0.687
       0.825
       0.964
       1.153
       1.273
       1.175
       0.852
       0.459
       0.169
       0.018
      -0.093
      -0.250
      -0.418
      -0.475
      -0.371
      -0.207
      -0.147
      -0.238
      -0.336
      -0.241
       0.100
       0.510
       0.722
       0.606
       0.285
       0.024
       0.013
       0.212
       0.406
       0.398
       0.177
      -0.115
      -0.342
      -0.514
      -0.749
      -1.120
      -1.533
      -1.770
      -1.649
      -1.173
      -0.511
       0.138
       0.670
       1.085
       1.408
       1.619
       1.680
       1.579
       1.350
       1.034
       0.654
       0.246
      -0.094
      -0.240
      -0.160
      -0.026
      -0.142
      -0.697
      -1.521
      -2.131
      -2.086
      -1.376
      -0.466
       0.067
       0.010
      -0.333
      -0.443
      -0.076
       0.530
       0.887
       0.716
       0.193
      -0.240
      -0.274
       0.030
       0.362
       0.481
       0.419
       0.391
       0.550
       0.836
       1.042
       1.018
       0.781
       0.465
       0.186
      -0.021
      -0.172
      -0.288
      -0.361
      -0.381
      -0.350
      -0.289
      -0.223
      -0.162
      -0.104
      -0.044
       0.020
       0.102
       0.217
       0.351
       0.427
       0.328
      -0.037
      -0.665
      -1.425
      -2.083
      -2.390
      -2.194
      -1.536
      -0.628
       0.283
       1.062
       1.713
       2.257
       2.595
       2.511
       1.861
       0.773
      -0.367
      -1.178
      -1.556
      -1.681
      -1.755
      -1.743
      -1.412
      -0.629
       0.400
       1.201
       1.394
       1.002
       0.424
       0.089
       0.118
       0.284
       0.276
       0.003
      -0.323
      -0.373
       0.013
       0.666
       1.182
       1.201
       0.665
      -0.130
      -0.730
      -0.815
      -0.397
       0.210
       0.609
       0.587
       0.229
      -0.192
      -0.439
      -0.483
      -0.474
      -0.575
      -0.802
      -1.005
      -0.998
      -0.724
      -0.308
       0.040
       0.183
       0.145
       0.070
       0.095
       0.232
       0.364
       0.341
       0.117
      -0.185
      -0.351
      -0.234
       0.126
       0.535
       0.786
       0.799
       0.663
       0.550
       0.578
       0.711
       0.765
       0.535
      -0.043
      -0.806
      -1.427
      -1.611
      -1.311
      -0.779
      -0.387
      -0.321
      -0.414
      -0.302
       0.220
       0.959
       1.441
       1.302
       0.612
      -0.165
      -0.543
      -0.388
       0.040
       0.396
       0.566
       0.699
       0.942
       1.192
       1.126
       0.515
      -0.487
      -1.364
      -1.596
      -1.068
      -0.158
       0.552
       0.700
       0.342
      -0.197
      -0.635
      -0.919
      -1.169
      -1.460
      -1.693
      -1.656
      -1.215
      -0.450
       0.387
       1.029
       1.353
       1.420
       1.376
       1.312
       1.190
       0.887
       0.326
      -0.407
      -1.068
      -1.366
      -1.117
      -0.346
       0.710
       1.696
       2.286
       2.303
       1.757
       0.821
      -0.238
      -1.149
      -1.719
      -1.899
      -1.777
      -1.506
      -1.200
      -0.890
      -0.547
      -0.148
       0.272
       0.640
       0.890
       0.986
       0.903
       0.634
       0.226
      -0.190
      -0.462
      -0.534
      -0.502
      -0.528
      -0.664
      -0.775
      -0.634
      -0.159
       0.450
       0.831
       0.769
       0.424
       0.218
       0.461
       1.047
       1.509
       1.409
       0.711
      -0.177
      -0.741
      -0.773
      -0.496
      -0.316
      -0.453
      -0.778
      -0.977
      -0.846
      -0.452
      -0.044
       0.163
       0.147
       0.046
       0.007
       0.063
       0.128
       0.106
      -0.011
      -0.122
      -0.094
       0.122
       0.426
       0.607
       0.487
       0.088
      -0.342
      -0.483
      -0.191
       0.366
       0.809
       0.835
       0.448
      -0.050
      -0.307
      -0.208
       0.056
       0.170
      -0.045
      -0.506
      -0.964
      -1.205
      -1.185
      -1.001
      -0.760
      -0.481
      -0.122
       0.311
       0.703
       0.899
       0.837
       0.634
       0.514
       0.618
       0.863
       0.979
       0.723
       0.104
      -0.593
      -1.009
      -0.983
      -0.647
      -0.287
      -0.089
      -0.019
       0.086
       0.315
       0.579
       0.696
       0.570
       0.276
      -0.003
      -0.122
      -0.048
       0.145
       0.327
       0.360
       0.152
      -0.281
      -0.784
      -1.116
      -1.088
      -0.694
      -0.119
       0.379
       0.645
       0.689
       0.616
       0.482
       0.250
      -0.135
      -0.615
      -0.979
      -0.985
      -0.572
       0.030
       0.430
       0.371
      -0.055
      -0.464
      -0.495
      -0.100
       0.413
       0.634
       0.398
      -0.077
      -0.375
      -0.245
       0.201
       0.612
       0.721
       0.555
       0.355
       0.317
       0.404
       0.402
       0.151
      -0.293
      -0.687
      -0.813
      -0.638
      -0.306
      -0.008
       0.157
       0.204
       0.197
       0.184
       0.165
       0.110
      -0.014
      -0.233
      -0.541
      -0.874
      -1.107
      -1.095
      -0.758
      -0.140
       0.595
       1.216
       1.508
       1.351
       0.797
       0.073
      -0.507
      -0.716
      -0.544
      -0.189
       0.103
       0.222
       0.233
       0.265
       0.357
       0.429
       0.387
       0.225
       0.025
      -0.139
      -0.259
      -0.361
      -0.430
      -0.393
      -0.190
       0.125
       0.387
       0.429
       0.228
      -0.081
      -0.323
      -0.429
      -0.456
      -0.493
      -0.550
      -0.547
      -0.392
      -0.062
       0.389
       0.861
       1.249
       1.430
       1.273
       0.700
      -0.199
      -1.127
      -1.712
      -1.748
      -1.346
      -0.844
      -0.547
      -0.494
      -0.451
      -0.149
       0.457
       1.116
       1.473
       1.343
       0.825
       0.197
      -0.294
      -0.553
      -0.617
      -0.551
      -0.397
      -0.187
       0.021
       0.177
       0.285
       0.413
       0.608
       0.814
       0.896
       0.752
       0.421
       0.059
      -0.186
      -0.284
      -0.314
      -0.356
      -0.371
      -0.221
       0.189
       0.770
       1.252
       1.357
       1.004
       0.368
      -0.249
      -0.624
      -0.746
      -0.769
      -0.847
      -1.001
      -1.106
      -1.001
      -0.624
      -0.067
       0.469
       0.776
       0.741
       0.401
      -0.079
      -0.506
      -0.759
      -0.830
      -0.794
      -0.720
      -0.621
      -0.462
      -0.207
       0.125
       0.459
       0.688
       0.727
       0.563
       0.291
       0.092
       0.126
       0.385
       0.650
       0.640
       0.241
      -0.364
      -0.807
      -0.818
      -0.439
       0.019
       0.250
       0.199
       0.068
       0.066
       0.189
       0.247
       0.099
      -0.156
      -0.262
      -0.054
       0.371
