Origin Time       09/2/2011 19:17:29	 UTC
Lat.              30.9 N	
Long.             78.2 E	
Depth (Km)         10.0
Magnitude         5.0
 Region           UTTARKASHI-UTTARAKHAND                                           
 Above details taken from IMD 
    
Station Code      UTK
Station Lat.       30.730  N
Station Long.      78.445  E
Station Height(m) 1147.0
Site Class        A   Vs30 between 700 m/sec to 1400 m/sec * 
Record Time       08.03.2061 00:43:07.099 UTC
Sampling Rate     200. Hz
 Record Duration  104.450 Sec.
 Direction         N-S (N positive)
Max. Acceleration     -9.650 cm/sec**2
     
  * For reference see Site Classification link of website 
     
 Base Line Corrected and Low Pass Filtered (Cut Off at 35 Hz) Time History
 Acceleration data in cm/sec**2
    
[...]
      -0.335
      -0.314
      -0.283
      -0.249
      -0.215
      -0.181
      -0.145
      -0.099
      -0.040
       0.037
       0.134
       0.256
       0.402
       0.563
       0.719
       0.846
       0.924
       0.947
       0.921
       0.854
       0.751
       0.614
       0.455
       0.292
       0.148
       0.040
      -0.035
      -0.099
      -0.174
      -0.256
      -0.312
      -0.304
      -0.229
      -0.135
      -0.094
      -0.153
      -0.303
      -0.499
      -0.701
      -0.908
      -1.149
      -1.433
      -1.711
      -1.893
      -1.901
      -1.719
      -1.386
      -0.946
      -0.406
       0.236
       0.936
       1.582
       2.050
       2.278
       2.274
       2.078
       1.715
       1.198
       0.572
      -0.069
      -0.599
      -0.912
      -0.973
      -0.844
      -0.648
      -0.499
      -0.413
      -0.298
      -0.030
       0.431
       0.990
       1.460
       1.686
       1.624
       1.339
       0.926
       0.439
      -0.117
      -0.738
      -1.370
      -1.903
      -2.226
      -2.269
      -2.027
      -1.544
      -0.882
      -0.107
       0.717
       1.529
       2.262
       2.844
       3.187
       3.200
       2.807
       1.999
       0.876
      -0.351
      -1.408
      -2.068
      -2.240
      -1.991
      -1.480
      -0.868
      -0.258
       0.309
       0.831
       1.309
       1.728
       2.039
       2.167
       2.048
       1.667
       1.080
       0.402
      -0.223
      -0.660
      -0.829
      -0.756
      -0.596
      -0.565
      -0.818
      -1.333
      -1.915
      -2.306
      -2.338
      -2.020
      -1.510
      -1.004
      -0.616
      -0.345
      -0.123
       0.092
       0.281
       0.395
       0.393
       0.259
      -0.030
      -0.503
      -1.153
      -1.874
      -2.455
      -2.648
      -2.275
      -1.329
       0.007
       1.437
       2.673
       3.507
       3.816
       3.527
       2.646
       1.322
      -0.121
      -1.303
      -1.982
      -2.160
      -2.015
      -1.723
      -1.344
      -0.833
      -0.120
       0.812
       1.902
       2.989
       3.823
       4.135
       3.769
       2.792
       1.486
       0.214
      -0.751
      -1.317
      -1.551
      -1.604
      -1.626
      -1.703
      -1.806
      -1.803
      -1.559
      -1.055
      -0.421
       0.155
       0.569
       0.845
       1.058
       1.216
       1.231
       1.011
       0.558
      -0.020
      -0.586
      -1.065
      -1.475
      -1.871
      -2.252
      -2.513
      -2.498
      -2.128
      -1.471
      -0.696
       0.059
       0.743
       1.362
       1.900
       2.326
       2.632
       2.834
       2.890
       2.675
       2.067
       1.098
      -0.003
      -0.934
      -1.504
      -1.732
      -1.793
      -1.877
      -2.057
      -2.233
      -2.199
      -1.803
      -1.084
      -0.271
       0.366
       0.701
       0.807
       0.849
       0.921
       0.959
       0.781
       0.214
      -0.770
      -1.993
      -3.109
      -3.743
      -3.648
      -2.792
      -1.354
       0.356
       2.006
       3.313
       4.093
       4.285
       3.937
       3.178
       2.172
       1.088
       0.088
      -0.692
      -1.158
      -1.288
      -1.120
      -0.725
      -0.163
       0.519
       1.242
       1.849
       2.149
       2.047
       1.609
       0.993
       0.290
      -0.508
      -1.371
      -2.092
      -2.348
      -1.939
      -0.969
       0.194
       1.138
       1.595
       1.493
       0.910
       0.027
      -0.925
      -1.721
      -2.215
      -2.362
      -2.198
      -1.804
      -1.278
      -0.704
      -0.110
       0.549
       1.331
       2.216
       3.054
       3.621
       3.715
       3.241
       2.237
       0.877
      -0.568
      -1.822
      -2.707
      -3.192
      -3.338
      -3.214
      -2.848
      -2.248
      -1.452
      -0.544
       0.356
       1.112
       1.604
       1.777
       1.669
       1.383
       1.004
       0.537
      -0.069
      -0.809
      -1.547
      -2.039
      -2.063
      -1.558
      -0.677
       0.304
       1.143
       1.753
       2.192
       2.540
       2.773
       2.739
       2.278
       1.363
       0.150
      -1.108
      -2.216
      -3.108
      -3.788
      -4.226
      -4.310
      -3.900
      -2.933
      -1.492
       0.185
       1.749
       2.838
       3.222
       2.896
       2.063
       0.994
      -0.110
      -1.163
      -2.125
      -2.918
      -3.402
      -3.405
      -2.809
      -1.652
      -0.171
       1.265
       2.333
       2.921
       3.145
       3.182
       3.090
       2.774
       2.153
       1.314
       0.493
      -0.110
      -0.460
      -0.630
      -0.633
      -0.377
       0.197
       0.941
       1.529
       1.670
       1.318
       0.671
      -0.005
      -0.543
      -0.920
      -1.196
      -1.427
      -1.621
      -1.730
      -1.698
      -1.499
      -1.158
      -0.723
      -0.226
       0.323
       0.902
       1.445
       1.864
       2.112
       2.213
       2.233
       2.192
       2.013
       1.569
       0.811
      -0.132
      -1.001
      -1.566
      -1.760
      -1.668
      -1.409
      -1.056
      -0.661
      -0.311
      -0.112
      -0.093
      -0.163
      -0.193
      -0.145
      -0.117
      -0.249
      -0.589
      -1.054
      -1.486
      -1.734
      -1.702
      -1.363
      -0.772
      -0.059
       0.620
       1.151
       1.497
       1.667
       1.682
       1.572
       1.400
       1.259
       1.212
       1.255
       1.321
       1.326
       1.210
       0.944
       0.530
       0.002
      -0.595
      -1.220
      -1.823
      -2.310
      -2.545
      -2.420
      -1.925
      -1.137
      -0.165
       0.869
       1.783
       2.329
       2.309
       1.715
       0.757
      -0.286
      -1.226
      -2.008
      -2.627
      -3.044
      -3.193
      -3.021
      -2.516
      -1.696
      -0.609
       0.650
       1.941
       3.092
       3.919
       4.241
       3.924
       2.953
       1.506
      -0.081
      -1.439
      -2.317
      -2.672
      -2.640
      -2.433
      -2.215
      -2.026
      -1.786
      -1.393
      -0.834
      -0.218
       0.295
       0.609
       0.747
       0.803
       0.868
       0.968
       1.064
       1.096
       1.036
       0.930
       0.869
       0.912
       1.006
       1.001
       0.761
       0.294
      -0.231
      -0.608
      -0.746
      -0.722
      -0.686
      -0.708
      -0.713
      -0.542
      -0.090
       0.603
       1.375
       2.043
       2.477
       2.612
       2.412
       1.866
       1.032
       0.069
      -0.813
      -1.448
      -1.800
      -1.942
      -2.000
      -2.069
      -2.139
      -2.060
      -1.620
      -0.724
       0.461
       1.533
       2.095
       1.995
       1.387
       0.590
      -0.110
      -0.578
      -0.824
      -0.929
      -0.974
      -1.007
      -1.052
      -1.124
      -1.217
      -1.261
      -1.122
      -0.693
      -0.019
       0.676
       1.131
       1.244
       1.127
       0.972
       0.861
       0.732
       0.495
       0.146
      -0.247
      -0.624
      -0.938
      -1.091
      -0.899
      -0.191
       1.028
       2.513
       3.877
       4.766
       4.992
       4.540
       3.517
       2.091
       0.473
      -1.096
      -2.373
      -3.158
      -3.382
      -3.163
      -2.777
      -2.514
      -2.522
      -2.732
      -2.941
      -2.951
      -2.673
      -2.134
      -1.443
      -0.752
      -0.209
       0.138
       0.396
       0.761
       1.337
       2.008
       2.510
       2.651
       2.450
       2.078
       1.690
       1.334
       0.984
       0.595
       0.151
      -0.319
      -0.704
      -0.840
      -0.613
      -0.062
       0.641
       1.305
       1.801
       2.041
       1.926
       1.385
       0.453
      -0.719
      -1.958
      -3.138
      -4.151
      -4.828
      -4.953
      -4.398
      -3.241
      -1.748
      -0.237
       1.062
       2.053
       2.746
       3.180
       3.358
       3.236
       2.763
       1.963
       0.972
      -0.006
      -0.793
      -1.307
      -1.573
      -1.669
      -1.652
      -1.515
      -1.180
      -0.573
       0.285
       1.219
       1.959
       2.290
       2.204
       1.912
       1.681
       1.623
       1.615
       1.426
       0.953
       0.327
      -0.182
      -0.379
      -0.264
       0.024
       0.327
       0.535
       0.564
       0.374
       0.004
      -0.410
      -0.721
      -0.869
      -0.898
      -0.884
      -0.847
      -0.741
      -0.504
      -0.110
       0.395
       0.891
       1.226
       1.305
       1.142
       0.826
       0.419
      -0.087
      -0.708
      -1.379
      -1.948
      -2.272
      -2.302
      -2.075
      -1.677
      -1.222
      -0.872
      -0.780
      -0.965
      -1.224
      -1.229
      -0.754
       0.150
       1.204
       2.118
       2.765
       3.186
       3.447
       3.525
       3.315
       2.743
       1.855
       0.793
      -0.309
      -1.393
      -2.452
      -3.448
      -4.255
      -4.688
      -4.590
      -3.893
      -2.642
      -0.998
       0.786
       2.398
       3.556
       4.088
       3.971
       3.303
       2.248
       0.992
      -0.271
      -1.356
      -2.102
      -2.419
      -2.328
      -1.962
      -1.498
      -1.054
      -0.617
      -0.076
       0.662
       1.557
       2.413
       2.967
       3.026
       2.582
       1.827
       1.062
       0.546
       0.370
       0.449
       0.612
       0.701
       0.606
       0.225
      -0.531
      -1.650
      -2.929
      -3.990
      -4.445
      -4.094
      -3.029
      -1.580
      -0.151
       0.969
       1.723
       2.272
       2.846
       3.555
       4.285
       4.736
       4.552
       3.485
       1.531
      -1.013
      -3.604
      -5.653
      -6.754
      -6.813
      -5.973
      -4.440
      -2.395
      -0.063
       2.193
       3.903
       4.693
       4.461
       3.391
       1.798
      -0.034
      -1.905
      -3.681
      -5.278
      -6.667
      -7.832
      -8.708
      -9.145
      -8.957
      -8.016
      -6.337
      -4.106
      -1.658
       0.602
       2.333
       3.404
       3.943
       4.194
       4.317
       4.299
       4.083
       3.748
       3.496
       3.448
       3.477
       3.307
       2.786
       2.062
       1.475
       1.304
       1.617
       2.334
       3.346
       4.516
       5.604
       6.279
       6.278
       5.557
       4.269
       2.605
       0.712
      -1.250
      -3.012
      -4.270
      -4.868
      -4.887
      -4.518
      -3.866
      -2.895
      -1.550
       0.091
       1.786
       3.203
       4.026
       4.056
       3.292
       1.965
       0.443
      -0.951
      -2.047
      -2.788
      -3.110
      -2.917
      -2.193
      -1.105
       0.039
       0.954
       1.489
       1.611
       1.324
       0.650
      -0.311
      -1.343
      -2.166
      -2.558
      -2.457
      -1.964
      -1.264
      -0.525
       0.146
       0.684
       1.005
       0.994
       0.547
      -0.336
      -1.502
      -2.659
      -3.466
      -3.666
      -3.195
      -2.188
      -0.885
       0.507
       1.858
       3.075
       4.035
       4.619
       4.784
       4.604
       4.197
       3.657
       3.051
       2.478
       2.069
       1.907
       1.948
       2.065
       2.168
       2.262
       2.382
       2.442
       2.192
       1.351
      -0.166
      -2.141
      -4.148
      -5.770
      -6.749
      -6.979
      -6.440
      -5.162
      -3.259
      -0.957
       1.422
       3.509
       4.953
       5.512
       5.131
       3.949
       2.231
       0.273
      -1.630
      -3.205
      -4.256
      -4.747
      -4.784
      -4.455
      -3.694
      -2.359
      -0.470
       1.654
       3.538
       4.847
       5.549
       5.796
       5.683
       5.136
       3.983
       2.119
      -0.368
      -3.160
      -5.778
      -7.739
      -8.715
      -8.620
      -7.577
      -5.832
      -3.692
      -1.490
       0.480
       2.036
       3.109
       3.635
       3.489
       2.546
       0.857
      -1.273
      -3.388
      -5.055
      -5.971
      -5.954
      -4.930
      -2.995
      -0.462
       2.200
       4.535
       6.246
       7.212
       7.398
       6.794
       5.438
       3.492
       1.267
      -0.839
      -2.444
      -3.282
      -3.263
      -2.491
      -1.240
       0.141
       1.342
       2.189
       2.670
       2.855
       2.768
       2.308
       1.307
      -0.295
      -2.287
      -4.170
      -5.363
      -5.504
      -4.649
      -3.222
      -1.742
      -0.544
       0.320
       0.960
       1.458
       1.770
       1.781
       1.415
       0.699
      -0.252
      -1.296
      -2.302
      -3.169
      -3.807
      -4.123
      -4.012
      -3.366
      -2.142
      -0.415
       1.615
       3.696
       5.595
       7.099
       7.973
       7.979
       7.015
       5.260
       3.154
       1.198
      -0.302
      -1.298
      -1.878
      -2.080
      -1.840
      -1.067
       0.236
       1.925
       3.754
       5.432
       6.675
       7.251
       7.047
       6.112
       4.631
       2.831
       0.870
      -1.192
      -3.332
      -5.467
      -7.405
      -8.882
      -9.650
      -9.570
      -8.670
      -7.149
      -5.321
      -3.522
      -2.015
      -0.928
      -0.233
       0.238
       0.721
       1.375
       2.176
       2.921
       3.399
       3.560
       3.560
       3.618
       3.830
       4.078
       4.091
       3.606
       2.526
       0.977
      -0.754
      -2.340
      -3.520
      -4.147
      -4.194
      -3.742
      -2.952
      -2.016
      -1.115
      -0.397
       0.028
       0.099
      -0.167
      -0.676
      -1.311
      -2.006
      -2.747
      -3.501
      -4.125
      -4.392
      -4.102
      -3.208
      -1.828
      -0.162
       1.598
       3.294
       4.755
       5.776
       6.166
       5.826
       4.824
       3.380
       1.785
       0.301
      -0.902
      -1.751
      -2.251
      -2.470
      -2.520
      -2.504
      -2.457
      -2.321
      -1.991
      -1.408
      -0.624
       0.202
       0.870
       1.244
       1.286
       1.030
       0.533
      -0.148
      -0.935
      -1.709
      -2.325
      -2.621
      -2.455
      -1.744
      -0.526
       1.014
       2.604
       3.984
       4.987
       5.535
       5.594
       5.162
       4.296
       3.117
       1.763
       0.342
      -1.044
      -2.255
      -3.115
      -3.478
      -3.312
      -2.704
      -1.807
      -0.787
       0.204
       1.017
       1.513
       1.605
       1.319
       0.806
       0.286
      -0.063
      -0.175
      -0.060
       0.288
       0.913
       1.806
       2.802
       3.605
       3.957
       3.788
       3.208
       2.365
       1.313
      -0.002
      -1.626
      -3.482
      -5.315
      -6.744
      -7.394
      -7.050
      -5.736
      -3.679
      -1.197
       1.395
       3.802
       5.736
       6.926
       7.192
       6.500
       4.975
       2.853
       0.434
      -1.940
      -3.926
      -5.251
      -5.789
      -5.585
      -4.806
      -3.662
      -2.341
      -1.000
       0.239
       1.287
       2.098
       2.669
       3.033
       3.226
       3.240
       3.016
       2.476
       1.600
       0.469
      -0.756
      -1.909
      -2.867
      -3.532
      -3.789
      -3.533
      -2.760
      -1.628
      -0.403
       0.693
       1.575
       2.281
       2.868
       3.343
       3.641
       3.662
       3.299
       2.495
       1.290
      -0.170
      -1.682
      -3.059
      -4.161
      -4.844
      -4.939
      -4.316
      -3.013
      -1.288
       0.486
       2.002
       3.129
       3.863
       4.225
       4.202
       3.761
       2.885
       1.595
      -0.012
      -1.716
      -3.173
      -4.034
      -4.104
      -3.437
      -2.317
      -1.128
      -0.203
       0.282
       0.346
       0.151
      -0.119
      -0.363
      -0.583
      -0.807
      -1.017
      -1.145
      -1.137
      -1.019
      -0.876
      -0.793
      -0.767
      -0.681
      -0.350
       0.361
       1.426
       2.622
       3.607
       4.060
       3.825
       2.990
       1.850
       0.761
      -0.049
      -0.572
      -0.965
      -1.380
      -1.836
      -2.210
      -2.334
      -2.076
      -1.397
      -0.356
       0.895
       2.157
       3.244
       4.022
       4.394
       4.269
       3.584
       2.373
       0.809
      -0.853
      -2.380
      -3.634
      -4.554
      -5.107
      -5.264
      -5.020
      -4.417
      -3.557
      -2.594
      -1.687
      -0.938
      -0.331
       0.251
       0.930
       1.733
       2.564
       3.281
       3.800
       4.134
       4.345
       4.450
       4.396
       4.117
       3.612
       2.935
       2.139
       1.228
       0.193
      -0.927
      -2.049
      -3.098
      -4.030
      -4.770
      -5.155
      -4.998
      -4.241
      -3.036
      -1.654
      -0.323
       0.831
       1.726
       2.258
       2.341
       1.990
       1.326
       0.510
      -0.332
      -1.097
      -1.661
      -1.895
      -1.725
      -1.165
      -0.298
       0.764
       1.888
       2.911
       3.655
       3.982
       3.843
       3.285
       2.412
       1.349
       0.216
      -0.886
      -1.888
      -2.762
      -3.499
      -4.092
      -4.513
      -4.716
      -4.633
      -4.207
      -3.436
      -2.412
      -1.312
      -0.336
       0.375
       0.773
       0.886
       0.774
       0.525
       0.267
       0.130
       0.164
       0.295
       0.391
       0.389
       0.359
       0.447
       0.771
       1.358
       2.153
       3.051
       3.916
       4.589
       4.922
       4.813
       4.220
       3.164
       1.751
       0.183
      -1.298
      -2.518
      -3.450
      -4.152
      -4.608
      -4.655
      -4.085
      -2.853
      -1.181
       0.547
       1.978
       2.910
       3.258
       2.990
       2.141
       0.882
      -0.479
      -1.614
      -2.344
      -2.695
      -2.815
      -2.827
      -2.736
      -2.451
      -1.874
      -0.988
       0.102
       1.207
       2.139
       2.776
       3.067
       3.003
       2.602
       1.927
       1.102
       0.299
      -0.309
      -0.595
      -0.504
      -0.074
       0.567
       1.223
       1.701
       1.888
       1.805
       1.571
       1.307
       1.052
       0.761
       0.370
      -0.139
      -0.710
      -1.229
      -1.552
      -1.546
      -1.157
      -0.478
       0.259
       0.790
       0.966
       0.822
       0.509
       0.160
      -0.178
      -0.508
      -0.803
      -0.990
      -1.011
      -0.880
      -0.667
      -0.398
      -0.004
       0.604
       1.390
       2.125
       2.489
       2.272
       1.498
       0.412
      -0.659
      -1.452
      -1.842
      -1.846
      -1.583
      -1.221
      -0.925
      -0.821
      -0.961
      -1.311
      -1.751
      -2.124
