Origin Time       25/12/2013 02:56:52 UTC
Lat.              31.2 N 
Long.             78.3 E 
Depth (Km)         10.0
Magnitude         4.0
 Region           Uttarkashi-Uttarakhand                                           
 Above details taken from IMD 
    
Station Code      UTK
Station Lat.       30.730  N
Station Long.      78.445  E
Station Height(m) 1152.0
Site Class        A   Vs30 between 700 m/sec to 1400 m/sec * 
Record Time       25.12.2013 02:56:43.869 UTC
Sampling Rate     200. Hz
 Record Duration   81.470 Sec.
 Direction         N-S (N positive)
Max. Acceleration      4.160 cm/sec**2
     
  * For reference see Site Classification link of website 
     
 Base Line Corrected and Low Pass Filtered (Cut Off at 35 Hz) Time History
 Acceleration data in cm/sec**2
    
[...]
      -0.426
      -0.248
      -0.125
      -0.023
       0.123
       0.325
       0.524
       0.633
       0.598
       0.423
       0.158
      -0.118
      -0.320
      -0.396
      -0.356
      -0.262
      -0.182
      -0.129
      -0.067
       0.033
       0.147
       0.210
       0.187
       0.115
       0.062
       0.063
       0.097
       0.121
       0.127
       0.141
       0.184
       0.234
       0.244
       0.190
       0.096
       0.007
      -0.054
      -0.099
      -0.149
      -0.202
      -0.230
      -0.208
      -0.134
      -0.032
       0.065
       0.132
       0.154
       0.123
       0.035
      -0.098
      -0.239
      -0.340
      -0.372
      -0.333
      -0.244
      -0.122
       0.017
       0.146
       0.225
       0.219
       0.134
       0.018
      -0.064
      -0.084
      -0.062
      -0.031
       0.005
       0.075
       0.195
       0.336
       0.427
       0.411
       0.288
       0.114
      -0.044
      -0.139
      -0.164
      -0.130
      -0.069
      -0.022
      -0.020
      -0.057
      -0.091
      -0.088
      -0.063
      -0.082
      -0.192
      -0.358
      -0.480
      -0.461
      -0.294
      -0.050
       0.174
       0.326
       0.404
       0.423
       0.382
       0.275
       0.123
      -0.028
      -0.132
      -0.167
      -0.148
      -0.097
      -0.029
       0.051
       0.139
       0.221
       0.267
       0.251
       0.165
       0.040
      -0.075
      -0.144
      -0.167
      -0.160
      -0.133
      -0.081
      -0.003
       0.080
       0.133
       0.135
       0.090
       0.023
      -0.045
      -0.100
      -0.135
      -0.142
      -0.118
      -0.071
      -0.014
       0.039
       0.073
       0.074
       0.038
      -0.014
      -0.041
      -0.023
       0.013
       0.014
      -0.053
      -0.169
      -0.285
      -0.363
      -0.397
      -0.388
      -0.319
      -0.166
       0.061
       0.304
       0.491
       0.581
       0.578
       0.509
       0.389
       0.217
       0.003
      -0.210
      -0.358
      -0.385
      -0.282
      -0.096
       0.095
       0.232
       0.308
       0.346
       0.361
       0.328
       0.210
       0.000
      -0.243
      -0.423
      -0.468
      -0.387
      -0.260
      -0.171
      -0.143
      -0.137
      -0.101
      -0.014
       0.100
       0.202
       0.258
       0.247
       0.163
       0.025
      -0.120
      -0.219
      -0.241
      -0.202
      -0.142
      -0.094
      -0.060
      -0.020
       0.048
       0.144
       0.246
       0.319
       0.338
       0.307
       0.251
       0.196
       0.153
       0.112
       0.062
       0.005
      -0.051
      -0.095
      -0.131
      -0.167
      -0.207
      -0.240
      -0.252
      -0.237
      -0.199
      -0.142
      -0.071
       0.005
       0.068
       0.101
       0.110
       0.113
       0.126
       0.150
       0.171
       0.184
       0.190
       0.184
       0.139
       0.033
      -0.124
      -0.276
      -0.348
      -0.300
      -0.167
      -0.034
       0.031
       0.024
      -0.001
       0.010
       0.063
       0.117
       0.131
       0.100
       0.052
       0.017
      -0.003
      -0.021
      -0.047
      -0.086
      -0.145
      -0.221
      -0.286
      -0.293
      -0.211
      -0.060
       0.099
       0.209
       0.260
       0.282
       0.305
       0.322
       0.301
       0.220
       0.095
      -0.031
      -0.120
      -0.161
      -0.164
      -0.138
      -0.087
      -0.021
       0.046
       0.095
       0.109
       0.082
       0.021
      -0.048
      -0.096
      -0.103
      -0.085
      -0.081
      -0.121
      -0.192
      -0.244
      -0.238
      -0.185
      -0.128
      -0.083
      -0.020
       0.100
       0.259
       0.375
       0.368
       0.231
       0.038
      -0.117
      -0.197
      -0.228
      -0.252
      -0.276
      -0.268
      -0.187
      -0.022
       0.193
       0.393
       0.513
       0.521
       0.430
       0.291
       0.154
       0.040
      -0.066
      -0.190
      -0.337
      -0.468
      -0.524
      -0.461
      -0.300
      -0.112
       0.026
       0.087
       0.098
       0.110
       0.149
       0.205
       0.244
       0.242
       0.199
       0.133
       0.063
      -0.005
      -0.067
      -0.115
      -0.130
      -0.099
      -0.031
       0.047
       0.109
       0.148
       0.172
       0.187
       0.184
       0.154
       0.098
       0.031
      -0.028
      -0.078
      -0.128
      -0.189
      -0.262
      -0.327
      -0.351
      -0.305
      -0.188
      -0.037
       0.091
       0.159
       0.170
       0.159
       0.154
       0.148
       0.112
       0.026
      -0.084
      -0.161
      -0.154
      -0.061
       0.073
       0.193
       0.269
       0.301
       0.294
       0.235
       0.110
      -0.071
      -0.258
      -0.392
      -0.437
      -0.397
      -0.292
      -0.144
       0.017
       0.150
       0.210
       0.183
       0.105
       0.041
       0.033
       0.071
       0.097
       0.058
      -0.043
      -0.144
      -0.170
      -0.096
       0.033
       0.134
       0.150
       0.084
      -0.003
      -0.041
      -0.002
       0.073
       0.104
       0.037
      -0.101
      -0.220
      -0.233
      -0.127
       0.027
       0.137
       0.164
       0.139
       0.124
       0.151
       0.199
       0.216
       0.159
       0.022
      -0.150
      -0.283
      -0.316
      -0.240
      -0.096
       0.054
       0.170
       0.239
       0.266
       0.258
       0.211
       0.110
      -0.049
      -0.243
      -0.404
      -0.462
      -0.392
      -0.241
      -0.094
      -0.006
       0.035
       0.082
       0.172
       0.293
       0.396
       0.442
       0.427
       0.370
       0.293
       0.201
       0.093
      -0.019
      -0.116
      -0.187
      -0.242
      -0.296
      -0.349
      -0.370
      -0.333
      -0.239
      -0.124
      -0.023
       0.050
       0.096
       0.119
       0.121
       0.112
       0.103
       0.091
       0.058
      -0.001
      -0.072
      -0.125
      -0.149
      -0.162
      -0.188
      -0.227
      -0.248
      -0.216
      -0.116
       0.036
       0.199
       0.317
       0.347
       0.280
       0.154
       0.028
      -0.057
      -0.097
      -0.115
      -0.122
      -0.103
      -0.036
       0.080
       0.212
       0.313
       0.344
       0.304
       0.221
       0.142
       0.100
       0.095
       0.098
       0.075
       0.022
      -0.030
      -0.042
      -0.001
       0.060
       0.085
       0.025
      -0.119
      -0.301
      -0.455
      -0.532
      -0.519
      -0.432
      -0.289
      -0.110
       0.076
       0.218
       0.263
       0.190
       0.035
      -0.124
      -0.206
      -0.181
      -0.080
       0.037
       0.136
       0.223
       0.319
       0.422
       0.499
       0.514
       0.455
       0.336
       0.194
       0.077
       0.019
       0.013
       0.011
      -0.042
      -0.155
      -0.287
      -0.383
      -0.427
      -0.441
      -0.449
      -0.435
      -0.358
      -0.204
      -0.008
       0.171
       0.293
       0.348
       0.349
       0.306
       0.230
       0.131
       0.013
      -0.115
      -0.226
      -0.271
      -0.214
      -0.063
       0.126
       0.282
       0.360
       0.360
       0.304
       0.221
       0.132
       0.045
      -0.039
      -0.121
      -0.190
      -0.222
      -0.199
      -0.132
      -0.066
      -0.053
      -0.100
      -0.158
      -0.155
      -0.058
       0.094
       0.219
       0.262
       0.235
       0.184
       0.133
       0.060
      -0.059
      -0.207
      -0.319
      -0.342
      -0.284
      -0.207
      -0.161
      -0.148
      -0.130
      -0.081
      -0.011
       0.056
       0.113
       0.176
       0.253
       0.323
       0.349
       0.319
       0.254
       0.196
       0.156
       0.109
       0.009
      -0.162
      -0.365
      -0.512
      -0.522
      -0.375
      -0.134
       0.104
       0.259
       0.320
       0.330
       0.340
       0.368
       0.376
       0.306
       0.128
      -0.126
      -0.368
      -0.509
      -0.515
      -0.417
      -0.276
      -0.138
      -0.021
       0.079
       0.155
       0.193
       0.188
       0.160
       0.137
       0.131
       0.128
       0.121
       0.129
       0.183
       0.282
       0.364
       0.347
       0.204
      -0.007
      -0.189
      -0.289
      -0.330
      -0.371
      -0.433
      -0.474
      -0.433
      -0.289
      -0.089
       0.091
       0.197
       0.221
       0.191
       0.136
       0.078
       0.031
       0.001
      -0.008
       0.003
       0.039
       0.105
       0.190
       0.253
       0.235
       0.106
      -0.103
      -0.303
      -0.403
      -0.371
      -0.242
      -0.075
       0.092
       0.248
       0.382
       0.461
       0.452
       0.354
       0.194
       0.004
      -0.198
      -0.392
      -0.535
      -0.573
      -0.483
      -0.302
      -0.103
       0.064
       0.211
       0.375
       0.552
       0.671
       0.652
       0.487
       0.258
       0.071
      -0.026
      -0.069
      -0.121
      -0.209
      -0.310
      -0.384
      -0.413
      -0.415
      -0.416
      -0.426
      -0.432
      -0.409
      -0.334
      -0.197
      -0.021
       0.148
       0.258
       0.289
       0.264
       0.230
       0.228
       0.269
       0.329
       0.362
       0.328
       0.217
       0.062
      -0.078
      -0.146
      -0.130
      -0.067
      -0.016
      -0.017
      -0.064
      -0.113
      -0.114
      -0.034
       0.113
       0.257
       0.298
       0.174
      -0.078
      -0.328
      -0.439
      -0.362
      -0.153
       0.071
       0.218
       0.252
       0.193
       0.097
       0.027
       0.024
       0.079
       0.140
       0.162
       0.150
       0.156
       0.225
       0.337
       0.418
       0.387
       0.216
      -0.050
      -0.311
      -0.467
      -0.485
      -0.423
      -0.380
      -0.413
      -0.476
      -0.457
      -0.273
       0.052
       0.388
       0.578
       0.533
       0.285
      -0.036
      -0.274
      -0.341
      -0.256
      -0.106
       0.016
       0.068
       0.061
       0.031
       0.005
      -0.019
      -0.055
      -0.105
      -0.141
      -0.124
      -0.037
       0.103
       0.270
       0.438
       0.570
       0.608
       0.503
       0.274
       0.023
      -0.138
      -0.178
      -0.170
      -0.208
      -0.314
      -0.430
      -0.477
      -0.422
      -0.292
      -0.127
       0.036
       0.165
       0.219
       0.175
       0.071
       0.011
       0.087
       0.279
       0.450
       0.453
       0.251
      -0.047
      -0.286
      -0.381
      -0.364
      -0.321
      -0.303
      -0.287
      -0.214
      -0.059
       0.129
       0.252
       0.245
       0.120
      -0.048
      -0.187
      -0.273
      -0.312
      -0.304
      -0.230
      -0.076
       0.134
       0.335
       0.460
       0.480
       0.429
       0.367
       0.318
       0.260
       0.164
       0.051
      -0.015
       0.002
       0.061
       0.081
       0.030
      -0.044
      -0.080
      -0.080
      -0.099
      -0.170
      -0.254
      -0.285
      -0.234
      -0.136
      -0.049
      -0.004
       0.007
       0.011
       0.035
       0.092
       0.172
       0.227
       0.201
       0.075
      -0.103
      -0.243
      -0.277
      -0.205
      -0.091
      -0.013
      -0.011
      -0.055
      -0.068
       0.012
       0.181
       0.373
       0.503
       0.515
       0.395
       0.168
      -0.111
      -0.363
      -0.508
      -0.511
      -0.391
      -0.206
      -0.011
       0.166
       0.322
       0.461
       0.563
       0.580
       0.466
       0.212
      -0.127
      -0.461
      -0.707
      -0.829
      -0.836
      -0.758
      -0.614
      -0.409
      -0.152
       0.125
       0.364
       0.497
       0.481
       0.335
       0.137
      -0.019
      -0.086
      -0.081
      -0.063
      -0.072
      -0.103
      -0.134
      -0.165
      -0.233
      -0.366
      -0.552
      -0.724
      -0.804
      -0.744
      -0.555
      -0.290
      -0.013
       0.251
       0.519
       0.807
       1.078
       1.238
       1.207
       0.996
       0.714
       0.496
       0.414
       0.444
       0.507
       0.534
       0.520
       0.511
       0.557
       0.662
       0.774
       0.815
       0.733
       0.538
       0.307
       0.126
       0.031
      -0.022
      -0.113
      -0.295
      -0.552
      -0.823
      -1.055
      -1.222
      -1.324
      -1.372
      -1.381
      -1.351
      -1.258
      -1.060
      -0.744
      -0.353
       0.035
       0.360
       0.603
       0.754
       0.786
       0.663
       0.395
       0.061
      -0.233
      -0.417
      -0.482
      -0.443
      -0.293
      -0.002
       0.415
       0.845
       1.123
       1.140
       0.946
       0.713
       0.609
       0.667
       0.783
       0.828
       0.744
       0.552
       0.273
      -0.118
      -0.656
      -1.318
      -1.996
      -2.556
      -2.910
      -3.036
      -2.945
      -2.656
      -2.193
      -1.594
      -0.899
      -0.126
       0.724
       1.632
       2.531
       3.317
       3.885
       4.160
       4.112
       3.759
       3.152
       2.366
       1.475
       0.563
      -0.265
      -0.894
      -1.242
      -1.308
      -1.183
      -1.007
      -0.914
      -0.970
      -1.148
      -1.349
      -1.475
      -1.500
      -1.465
      -1.406
      -1.287
      -1.014
      -0.526
       0.123
       0.766
       1.210
       1.345
       1.186
       0.842
       0.437
       0.050
      -0.286
      -0.555
      -0.719
      -0.730
      -0.564
      -0.264
       0.068
       0.324
       0.442
       0.427
       0.320
       0.148
      -0.073
      -0.312
      -0.498
      -0.554
      -0.462
      -0.286
      -0.119
      -0.004
       0.085
       0.194
       0.325
       0.430
       0.459
       0.392
       0.242
       0.034
      -0.197
      -0.409
      -0.562
      -0.633
      -0.608
      -0.471
      -0.218
       0.108
       0.410
       0.588
       0.607
       0.515
       0.385
       0.239
       0.040
      -0.258
      -0.653
      -1.083
      -1.457
      -1.672
      -1.637
      -1.295
      -0.676
       0.098
       0.873
       1.546
       2.092
       2.508
       2.730
       2.633
       2.137
       1.326
       0.457
      -0.187
      -0.476
      -0.510
      -0.485
      -0.504
      -0.489
      -0.284
       0.158
       0.693
       1.091
       1.208
       1.067
       0.791
       0.462
       0.066
      -0.460
      -1.136
      -1.891
      -2.579
      -3.045
      -3.191
      -3.004
      -2.544
      -1.907
      -1.179
      -0.421
       0.346
       1.117
       1.873
       2.539
       3.001
       3.154
       2.972
       2.515
       1.879
       1.147
       0.370
      -0.411
      -1.140
      -1.745
      -2.144
      -2.280
      -2.140
      -1.786
      -1.341
      -0.946
      -0.703
      -0.631
      -0.677
      -0.756
      -0.799
      -0.765
      -0.624
      -0.339
       0.106
       0.669
       1.234
       1.668
       1.905
       1.980
       1.966
       1.881
       1.668
       1.268
       0.714
       0.143
      -0.298
      -0.561
      -0.703
      -0.811
      -0.902
      -0.923
      -0.823
      -0.633
      -0.463
      -0.410
      -0.474
      -0.542
      -0.462
      -0.142
       0.392
       1.001
       1.491
       1.708
       1.610
       1.279
       0.852
       0.424
       0.002
      -0.446
      -0.894
      -1.221
      -1.268
      -0.966
      -0.406
       0.185
       0.557
       0.568
       0.241
      -0.263
      -0.750
      -1.103
      -1.315
      -1.436
      -1.483
      -1.415
      -1.179
      -0.785
      -0.331
       0.052
       0.275
       0.353
       0.381
       0.452
       0.577
       0.681
       0.675
       0.554
       0.420
       0.415
       0.626
       1.012
       1.425
       1.682
       1.666
       1.390
       0.979
       0.578
       0.256
      -0.026
      -0.360
      -0.787
      -1.237
      -1.554
      -1.605
      -1.386
      -1.052
      -0.821
      -0.825
      -1.014
      -1.205
      -1.230
      -1.042
      -0.703
      -0.294
       0.166
       0.699
       1.302
       1.908
       2.400
       2.674
       2.686
       2.463
       2.066
       1.539
       0.891
       0.129
      -0.680
      -1.401
      -1.897
      -2.119
      -2.130
      -2.050
      -1.954
      -1.827
      -1.597
      -1.209
      -0.691
      -0.150
       0.282
       0.532
       0.639
       0.725
       0.892
       1.128
       1.302
       1.281
       1.043
       0.701
       0.400
       0.211
       0.106
       0.033
      -0.005
       0.054
       0.264
       0.588
       0.887
       1.004
       0.873
       0.560
       0.202
      -0.098
      -0.317
      -0.476
      -0.571
      -0.575
      -0.486
      -0.373
      -0.332
      -0.407
      -0.567
      -0.755
      -0.935
      -1.103
      -1.251
      -1.367
      -1.451
      -1.517
      -1.546
      -1.460
      -1.172
      -0.667
      -0.041
       0.561
       1.042
       1.401
       1.690
       1.932
       2.066
       1.978
       1.598
       0.992
       0.366
      -0.053
      -0.160
      -0.036
       0.122
       0.142
      -0.015
      -0.264
      -0.497
      -0.674
      -0.834
      -1.028
      -1.240
      -1.370
      -1.294
      -0.955
      -0.401
       0.234
       0.796
       1.183
       1.373
       1.411
       1.358
       1.233
       0.996
       0.592
       0.033
      -0.559
      -0.998
      -1.151
      -1.023
      -0.732
      -0.401
      -0.081
       0.239
       0.558
       0.822
       0.953
       0.907
       0.713
       0.445
       0.182
      -0.038
      -0.231
      -0.435
      -0.653
      -0.824
      -0.858
      -0.711
      -0.439
      -0.160
       0.029
       0.110
       0.119
       0.082
      -0.005
      -0.134
      -0.241
      -0.225
      -0.028
       0.300
       0.619
       0.792
       0.765
       0.588
       0.376
       0.234
       0.205
       0.259
       0.315
       0.285
       0.109
      -0.214
      -0.621
      -1.001
      -1.249
      -1.322
      -1.260
      -1.135
      -0.984
      -0.786
      -0.505
      -0.150
       0.210
       0.503
       0.707
       0.851
       0.956
       0.992
       0.891
       0.614
       0.190
      -0.284
      -0.681
      -0.889
      -0.873
      -0.688
      -0.443
      -0.214
       0.022
       0.340
       0.753
       1.151
       1.365
       1.307
       1.035
       0.693
       0.383
       0.091
      -0.258
      -0.673
      -1.032
      -1.143
      -0.886
      -0.326
       0.317
       0.799
       0.990
       0.911
       0.682
       0.424
       0.195
      -0.013
      -0.233
      -0.477
      -0.709
      -0.861
      -0.885
