Origin Time       27/11/2012 12:15:15 UTC
Lat.              30.9 N	
Long.             78.4 E	
Depth (Km)         12.0
Magnitude         4.8
 Region           Uttarkashi-Uttarakhand                                           
 Above details taken from IMD 
    
Station Code      UTK
Station Lat.       30.730  N
Station Long.      78.445  E
Station Height(m) 1152.0
Site Class        A   Vs30 between 700 m/sec to 1400 m/sec * 
Record Time       27.11.2012 12:14:49.809 UTC
Sampling Rate     200. Hz
 Record Duration  100.880 Sec.
 Direction         N-S (N positive)
Max. Acceleration    -53.247 cm/sec**2
     
  * For reference see Site Classification link of website 
     
 Base Line Corrected and Low Pass Filtered (Cut Off at 35 Hz) Time History
 Acceleration data in cm/sec**2
    
[...]
       0.010
       0.017
       0.026
       0.035
       0.035
       0.023
       0.010
       0.004
       0.003
      -0.003
      -0.021
      -0.047
      -0.069
      -0.073
      -0.051
      -0.012
       0.028
       0.051
       0.051
       0.034
       0.010
      -0.011
      -0.025
      -0.029
      -0.027
      -0.024
      -0.022
      -0.020
      -0.017
      -0.009
       0.005
       0.022
       0.033
       0.032
       0.016
      -0.008
      -0.033
      -0.048
      -0.049
      -0.033
      -0.011
       0.007
       0.010
      -0.001
      -0.017
      -0.026
      -0.021
      -0.009
       0.000
      -0.002
      -0.006
      -0.002
       0.009
       0.014
       0.002
      -0.019
      -0.031
      -0.024
      -0.002
       0.018
       0.022
       0.012
      -0.001
      -0.007
      -0.006
      -0.002
       0.000
       0.002
       0.001
      -0.004
      -0.013
      -0.021
      -0.024
      -0.023
      -0.018
      -0.011
      -0.003
       0.004
       0.007
       0.004
      -0.002
      -0.009
      -0.009
       0.002
       0.022
       0.042
       0.050
       0.040
       0.014
      -0.017
      -0.035
      -0.033
      -0.015
       0.000
       0.002
      -0.006
      -0.012
      -0.009
       0.002
       0.011
       0.016
       0.016
       0.015
       0.011
       0.004
      -0.003
      -0.003
       0.005
       0.013
       0.010
      -0.006
      -0.020
      -0.019
      -0.001
       0.020
       0.030
       0.024
       0.010
      -0.003
      -0.007
      -0.003
       0.002
       0.001
      -0.007
      -0.017
      -0.021
      -0.015
       0.001
       0.016
       0.018
       0.005
      -0.014
      -0.030
      -0.033
      -0.022
      -0.002
       0.018
       0.024
       0.011
      -0.010
      -0.021
      -0.011
       0.015
       0.034
       0.030
       0.004
      -0.024
      -0.038
      -0.032
      -0.016
       0.001
       0.013
       0.020
       0.023
       0.019
       0.009
      -0.008
      -0.029
      -0.045
      -0.047
      -0.037
      -0.023
      -0.012
       0.000
       0.018
       0.036
       0.041
       0.030
       0.011
      -0.003
      -0.008
      -0.006
      -0.007
      -0.011
      -0.015
      -0.015
      -0.013
      -0.010
      -0.005
       0.008
       0.030
       0.051
       0.057
       0.044
       0.020
      -0.001
      -0.014
      -0.023
      -0.032
      -0.041
      -0.041
      -0.028
      -0.007
       0.012
       0.022
       0.026
       0.028
       0.025
       0.017
       0.006
       0.000
       0.004
       0.012
       0.018
       0.015
       0.007
       0.000
       0.005
       0.017
       0.027
       0.020
      -0.004
      -0.032
      -0.049
      -0.050
      -0.040
      -0.030
      -0.024
      -0.016
      -0.001
       0.019
       0.034
       0.037
       0.029
       0.020
       0.014
       0.009
       0.002
      -0.006
      -0.013
      -0.018
      -0.020
      -0.018
      -0.012
      -0.005
       0.000
       0.005
       0.011
       0.019
       0.025
       0.027
       0.022
       0.010
      -0.010
      -0.033
      -0.047
      -0.041
      -0.014
       0.021
       0.043
       0.041
       0.024
       0.008
       0.005
       0.014
       0.028
       0.037
       0.033
       0.013
      -0.018
      -0.046
      -0.057
      -0.047
      -0.019
       0.013
       0.036
       0.044
       0.039
       0.028
       0.015
       0.002
      -0.008
      -0.014
      -0.015
      -0.015
      -0.015
      -0.015
      -0.012
      -0.003
       0.007
       0.013
       0.013
       0.011
       0.014
       0.022
       0.028
       0.023
       0.007
      -0.011
      -0.022
      -0.024
      -0.018
      -0.007
       0.007
       0.015
       0.015
       0.007
      -0.003
      -0.011
      -0.020
      -0.031
      -0.040
      -0.040
      -0.024
       0.007
       0.040
       0.056
       0.049
       0.030
       0.012
       0.004
       0.003
      -0.003
      -0.017
      -0.031
      -0.034
      -0.019
       0.002
       0.013
       0.009
      -0.001
      -0.004
      -0.002
      -0.001
      -0.003
      -0.003
       0.004
       0.010
       0.005
      -0.016
      -0.039
      -0.043
      -0.020
       0.014
       0.037
       0.036
       0.020
       0.008
       0.005
       0.007
       0.002
      -0.010
      -0.023
      -0.027
      -0.016
       0.002
       0.014
       0.011
       0.001
      -0.005
       0.001
       0.013
       0.023
       0.026
       0.023
       0.017
       0.009
      -0.001
      -0.014
      -0.030
      -0.044
      -0.053
      -0.053
      -0.048
      -0.044
      -0.050
      -0.075
      -0.118
      -0.162
      -0.185
      -0.176
      -0.147
      -0.119
      -0.102
      -0.079
      -0.026
       0.056
       0.123
       0.113
       0.000
      -0.172
      -0.321
      -0.377
      -0.343
      -0.289
      -0.303
      -0.424
      -0.601
      -0.727
      -0.713
      -0.567
      -0.378
      -0.244
      -0.202
      -0.217
      -0.229
      -0.196
      -0.093
       0.094
       0.358
       0.632
       0.789
       0.702
       0.353
      -0.116
      -0.464
      -0.512
      -0.278
       0.042
       0.214
       0.148
      -0.060
      -0.225
      -0.249
      -0.175
      -0.085
       0.023
       0.219
       0.488
       0.648
       0.485
      -0.016
      -0.582
      -0.829
      -0.560
       0.073
       0.707
       1.061
       1.137
       1.139
       1.225
       1.357
       1.397
       1.331
       1.323
       1.471
       1.532
       1.018
      -0.285
      -1.881
      -2.758
      -2.169
      -0.333
       1.617
       2.430
       1.637
      -0.145
      -1.704
      -2.108
      -1.319
      -0.150
       0.393
      -0.148
      -1.367
      -2.333
      -2.273
      -1.092
       0.618
       1.999
       2.449
       1.894
       0.721
      -0.515
      -1.393
      -1.778
      -1.795
      -1.676
      -1.563
      -1.349
      -0.703
       0.628
       2.398
       3.732
       3.637
       1.890
      -0.511
      -1.970
      -1.621
      -0.158
       0.751
       0.021
      -1.811
      -3.113
      -2.739
      -1.098
       0.330
       0.461
      -0.437
      -1.179
      -0.907
       0.161
       1.113
       1.329
       0.995
       0.755
       0.964
       1.356
       1.384
       0.827
       0.010
      -0.549
      -0.672
      -0.636
      -0.727
      -0.808
      -0.464
       0.392
       1.212
       1.264
       0.412
      -0.627
      -0.898
      -0.138
       0.899
       1.091
       0.037
      -1.480
      -2.149
      -1.367
       0.164
       1.083
       0.656
      -0.573
      -1.404
      -1.205
      -0.459
      -0.116
      -0.519
      -1.117
      -1.176
      -0.595
       0.104
       0.457
       0.527
       0.666
       0.952
       1.045
       0.610
      -0.215
      -0.849
      -0.758
       0.106
       1.284
       2.171
       2.460
       2.350
       2.341
       2.743
       3.308
       3.425
       2.725
       1.484
       0.361
      -0.282
      -0.696
      -1.317
      -2.075
      -2.280
      -1.310
       0.591
       2.317
       2.794
       1.895
       0.478
      -0.496
      -0.874
      -1.332
      -2.507
      -4.156
      -5.261
      -5.006
      -3.604
      -2.067
      -1.146
      -0.627
       0.200
       1.475
       2.427
       2.208
       0.964
      -0.151
      -0.096
       1.010
       2.046
       2.053
       1.130
       0.154
      -0.226
      -0.178
      -0.310
      -0.906
      -1.623
      -1.903
      -1.561
      -0.893
      -0.254
       0.310
       0.902
       1.317
       0.972
      -0.498
      -2.610
      -4.165
      -4.149
      -2.543
      -0.231
       1.849
       3.404
       4.685
       5.823
       6.454
       6.029
       4.449
       2.293
       0.389
      -0.805
      -1.419
      -1.865
      -2.386
      -2.897
      -3.138
      -2.911
      -2.199
      -1.190
      -0.237
       0.284
       0.232
      -0.143
      -0.367
      -0.153
       0.334
       0.666
       0.591
       0.263
      -0.005
      -0.194
      -0.687
      -1.839
      -3.416
      -4.572
      -4.510
      -3.187
      -1.309
       0.392
       1.780
       3.138
       4.463
       5.130
       4.423
       2.376
      -0.054
      -1.754
      -2.391
      -2.547
      -2.928
      -3.540
      -3.676
      -2.691
      -0.687
       1.532
       3.119
       3.774
       3.810
       3.744
       3.821
       3.872
       3.585
       2.908
       2.168
       1.783
       1.823
       1.892
       1.493
       0.560
      -0.365
      -0.578
       0.106
       1.109
       1.601
       1.272
       0.572
       0.166
       0.225
       0.269
      -0.334
      -1.746
      -3.470
      -4.701
      -4.923
      -4.274
      -3.400
      -2.931
      -3.055
      -3.523
      -3.971
      -4.169
      -4.044
      -3.618
      -2.998
      -2.379
      -1.939
      -1.668
      -1.327
      -0.644
       0.388
       1.465
       2.320
       3.082
       4.096
       5.261
       5.721
       4.530
       1.750
      -1.251
      -2.846
      -2.582
      -1.554
      -1.287
      -2.265
      -3.566
      -3.865
      -2.683
      -0.626
       1.429
       3.198
       5.025
       7.209
       9.386
      10.575
       9.837
       7.004
       2.912
      -1.092
      -3.959
      -5.354
      -5.402
      -4.224
      -1.904
       1.129
       3.909
       5.350
       4.936
       3.009
       0.401
      -2.160
      -4.341
      -6.021
      -6.974
      -6.815
      -5.350
      -2.941
      -0.455
       1.253
       1.829
       1.455
       0.486
      -0.868
      -2.536
      -4.354
      -5.906
      -6.630
      -6.138
      -4.461
      -1.969
       0.955
       4.107
       7.271
       9.916
      11.263
      10.771
       8.559
       5.312
       1.785
      -1.544
      -4.359
      -6.255
      -6.813
      -6.027
      -4.493
      -2.991
      -1.796
      -0.506
       1.359
       3.633
       5.481
       6.131
       5.531
       4.232
       2.721
       1.021
      -0.982
      -2.989
      -4.252
      -4.187
      -2.987
      -1.552
      -0.746
      -0.705
      -0.861
      -0.626
      -0.007
       0.477
       0.444
       0.133
       0.206
       1.056
       2.333
       3.152
       2.822
       1.414
      -0.351
      -1.804
      -2.886
      -3.937
      -4.950
      -5.220
      -3.970
      -1.380
       1.194
       2.249
       1.496
       0.119
      -0.401
       0.283
       1.162
       1.055
      -0.063
      -0.955
      -0.343
       1.818
       4.315
       5.882
       6.344
       6.469
       6.763
       6.580
       4.629
       0.456
      -4.610
      -8.134
      -8.408
      -5.803
      -2.338
       0.127
       1.304
       2.198
       3.635
       5.281
       6.098
       5.542
       4.111
       2.735
       1.800
       0.888
      -0.568
      -2.494
      -4.125
      -4.711
      -4.199
      -3.156
      -2.099
      -1.044
       0.222
       1.570
       2.436
       2.339
       1.398
       0.232
      -0.607
      -1.109
      -1.770
      -3.128
      -5.253
      -7.603
      -9.360
      -9.959
      -9.330
      -7.706
      -5.344
      -2.501
       0.397
       2.746
       4.090
       4.508
       4.649
       5.276
       6.609
       8.025
       8.437
       7.124
       4.285
       0.787
      -2.653
      -5.975
      -9.416
     -12.689
     -14.687
     -14.162
     -10.799
      -5.639
      -0.383
       3.810
       6.988
       9.970
      13.254
      16.320
      17.966
      17.291
      14.359
       9.980
       5.055
       0.226
      -3.956
      -6.872
      -8.099
      -7.843
      -6.914
      -6.119
      -5.660
      -5.140
      -4.165
      -2.883
      -1.909
      -1.692
      -2.008
      -2.115
      -1.459
      -0.211
       0.905
       1.351
       1.331
       1.580
       2.552
       3.807
       4.293
       3.311
       1.232
      -0.784
      -1.786
      -1.776
      -1.487
      -1.547
      -1.925
      -2.161
      -1.959
      -1.433
      -0.855
      -0.378
      -0.119
      -0.373
      -1.477
      -3.357
      -5.313
      -6.435
      -6.284
      -5.172
      -3.788
      -2.604
      -1.585
      -0.306
       1.774
       5.011
       9.305
      13.951
      17.789
      19.665
      18.938
      15.727
      10.773
       5.075
      -0.402
      -4.781
      -7.233
      -7.138
      -4.488
      -0.183
       4.233
       7.401
       8.932
       9.495
      10.048
      10.880
      11.282
      10.169
       7.102
       2.797
      -1.343
      -4.286
      -6.039
      -7.375
      -8.998
     -11.006
     -13.065
     -14.898
     -16.503
     -17.942
     -19.052
     -19.521
     -19.291
     -18.820
     -18.768
     -19.247
     -19.413
     -18.010
     -14.449
      -9.352
      -3.971
       0.860
       5.070
       8.664
      10.913
      10.510
       6.731
       0.508
      -5.663
      -8.978
      -7.743
      -1.901
       7.427
      18.709
      30.334
      40.451
      46.875
      47.615
      41.919
      30.955
      17.291
       3.353
      -9.846
     -22.526
     -34.765
     -45.368
     -52.145
     -53.247
     -48.322
     -38.640
     -26.252
     -12.976
       0.029
      11.960
      21.937
      29.068
      32.913
      33.730
      32.158
      28.701
      23.626
      17.402
      11.011
       5.576
       1.602
      -1.249
      -3.559
      -5.384
      -6.109
      -5.056
      -2.271
       1.214
       3.834
       4.332
       2.439
      -1.000
      -4.546
      -7.021
      -8.118
      -8.321
      -8.250
      -8.092
      -7.654
      -6.926
      -6.460
      -7.062
      -9.053
     -11.805
     -13.994
     -14.362
     -12.433
      -8.692
      -4.149
       0.375
       4.646
       8.806
      12.777
      15.936
      17.475
      17.202
      15.936
      14.951
      14.899
      15.251
      14.787
      12.666
       9.064
       4.904
       1.003
      -2.538
      -6.173
     -10.164
     -13.963
     -16.345
     -16.307
     -13.960
     -10.582
      -7.655
      -5.689
      -3.912
      -1.157
       2.877
       7.168
      10.091
      10.579
       8.720
       5.488
       2.091
      -0.479
      -1.525
      -0.671
       1.934
       5.388
       8.245
       9.301
       8.411
       6.566
       4.988
       4.019
       2.840
       0.326
      -3.758
      -8.333
     -11.758
     -13.112
     -12.861
     -12.298
     -12.250
     -12.269
     -11.030
      -7.582
      -2.283
       3.409
       8.009
      10.949
      12.608
      13.533
      13.699
      12.476
       9.285
       4.261
      -1.657
      -7.247
     -11.548
     -13.996
     -14.223
     -12.004
      -7.576
      -1.970
       3.169
       6.355
       7.065
       5.910
       4.038
       2.301
       0.841
      -0.696
      -2.647
      -5.003
      -7.469
      -9.698
     -11.342
     -11.932
     -10.873
      -7.774
      -2.848
       3.005
       8.581
      12.886
      15.355
      15.700
      13.704
       9.333
       3.088
      -3.810
      -9.787
     -13.649
     -15.113
     -14.719
     -13.275
     -11.359
      -9.229
      -6.999
      -4.752
      -2.471
       0.008
       2.827
       5.834
       8.498
      10.166
      10.472
       9.584
       8.081
       6.552
       5.231
       3.949
       2.469
       0.878
      -0.300
      -0.394
       0.967
       3.570
       6.706
       9.498
      11.195
      11.264
       9.395
       5.607
       0.435
      -5.067
      -9.680
     -12.518
     -13.283
     -12.111
      -9.275
      -5.067
       0.026
       5.140
       9.170
      11.237
      11.150
       9.492
       7.225
       5.124
       3.451
       2.065
       0.771
      -0.459
      -1.552
      -2.511
      -3.414
      -4.200
      -4.480
      -3.674
      -1.454
       1.825
       5.158
       7.408
       7.928
       6.777
       4.450
       1.471
      -1.718
      -4.593
      -6.535
      -7.206
      -6.960
      -6.707
      -7.158
      -8.135
      -8.699
      -8.060
      -6.365
      -4.585
      -3.631
      -3.634
      -4.058
      -4.396
      -4.622
      -4.980
      -5.453
      -5.592
      -4.874
      -3.166
      -0.770
       1.892
       4.549
       7.046
       9.202
      10.838
      11.905
      12.510
      12.751
      12.524
      11.524
       9.428
       6.150
       1.970
      -2.503
      -6.508
      -9.336
     -10.467
      -9.631
      -6.890
      -2.724
       1.970
       6.081
       8.642
       9.168
       7.779
       5.046
       1.675
      -1.743
      -4.786
      -7.115
      -8.469
      -8.793
      -8.332
      -7.510
      -6.637
      -5.699
      -4.445
      -2.686
      -0.577
       1.348
       2.471
       2.527
       1.852
       1.194
       1.202
       1.981
       3.040
       3.633
       3.206
       1.659
      -0.662
      -3.174
      -5.308
      -6.700
      -7.247
      -7.013
      -6.068
      -4.407
      -2.046
       0.734
       3.262
       4.684
       4.478
       2.874
       0.785
      -0.767
      -1.236
      -0.697
       0.489
       2.039
       3.823
       5.687
       7.298
       8.207
       8.070
       6.905
       5.165
       3.547
       2.596
       2.378
       2.471
       2.300
       1.532
       0.218
      -1.390
      -3.084
      -4.747
      -6.223
      -7.240
      -7.574
      -7.274
      -6.666
      -6.071
      -5.530
      -4.821
      -3.754
      -2.409
      -1.115
      -0.205
       0.214
       0.310
       0.423
       0.885
       1.851
       3.190
       4.548
       5.578
       6.203
       6.670
       7.316
       8.192
       8.914
       8.871
       7.656
       5.350
       2.470
      -0.324
      -2.528
      -3.929
      -4.555
      -4.544
      -4.046
      -3.227
      -2.315
      -1.570
      -1.170
      -1.084
      -1.108
      -1.031
      -0.811
      -0.590
      -0.558
      -0.769
      -1.078
      -1.243
      -1.109
      -0.752
      -0.456
      -0.539
      -1.120
      -2.038
      -2.965
      -3.646
      -4.045
      -4.281
      -4.407
      -4.283
      -3.679
      -2.562
      -1.251
      -0.261
       0.073
      -0.147
      -0.512
      -0.698
      -0.732
      -0.858
      -1.177
      -1.422
      -1.136
      -0.054
       1.654
       3.498
       4.996
       5.926
       6.321
       6.289
       5.901
       5.225
       4.426
       3.760
       3.437
       3.476
       3.686
       3.789
       3.560
       2.917
       1.933
       0.816
      -0.153
      -0.704
      -0.701
      -0.248
       0.306
       0.538
       0.249
      -0.335
      -0.705
      -0.523
       0.005
       0.245
      -0.311
      -1.564
      -2.876
      -3.619
      -3.654
      -3.294
      -2.888
      -2.503
      -1.989
      -1.261
      -0.433
       0.320
       0.945
       1.510
       2.023
