Origin Time       11/2/2013 10:48:55	
Lat.              31.0 N	
Long.             78.4 E	
Depth (Km)          5.0
Magnitude         4.3
 Region           UTTARKASHI-UTTARAKHAND                                           
 Above details taken from IMD 
   
Station Code      UTK
Station Lat.       30.730
Station Long.      78.445
Station Height(m) 1147.0
Site Class        A   Vs30 between 700 m/sec to 1400 m/sec * 
Record Time       11.02.2013 10:48:28.844
Sampling Rate     200. Hz
 Record Duration   96.240 Sec.
 Direction         Vert. (Up positive)
Max. Acceleration      8.341 cm/sec**2
     
  * For reference see Site Classification link of website 
     
 Base Line Corrected and Low Pass Filtered (Cut Off at 35 Hz) Time History
 Acceleration data in cm/sec**2
    
[...]
      -0.038
       0.144
       0.378
       0.606
       0.752
       0.753
       0.570
       0.222
      -0.216
      -0.658
      -1.034
      -1.259
      -1.216
      -0.838
      -0.195
       0.529
       1.146
       1.539
       1.679
       1.612
       1.407
       1.099
       0.687
       0.186
      -0.349
      -0.880
      -1.418
      -1.954
      -2.381
      -2.541
      -2.347
      -1.845
      -1.174
      -0.475
       0.166
       0.733
       1.210
       1.504
       1.491
       1.163
       0.694
       0.293
       0.011
      -0.266
      -0.633
      -0.998
      -1.109
      -0.771
      -0.083
       0.541
       0.680
       0.288
      -0.249
      -0.496
      -0.403
      -0.324
      -0.591
      -1.096
      -1.329
      -0.849
       0.249
       1.330
       1.769
       1.522
       1.140
       1.167
       1.557
       1.737
       1.232
       0.187
      -0.733
      -0.954
      -0.531
      -0.101
      -0.265
      -1.012
      -1.736
      -1.837
      -1.232
      -0.307
       0.554
       1.288
       2.026
       2.755
       3.175
       2.919
       1.918
       0.532
      -0.725
      -1.594
      -2.173
      -2.631
      -2.914
      -2.771
      -2.054
      -0.938
       0.125
       0.688
       0.611
       0.184
      -0.075
       0.190
       0.898
       1.609
       1.835
       1.355
       0.318
      -0.867
      -1.785
      -2.241
      -2.260
      -1.920
      -1.254
      -0.316
       0.698
       1.502
       1.878
       1.809
       1.448
       0.994
       0.543
       0.060
      -0.486
      -0.953
      -1.057
      -0.609
       0.272
       1.198
       1.762
       1.770
       1.300
       0.579
      -0.214
      -1.031
      -1.823
      -2.358
      -2.279
      -1.424
      -0.075
       1.167
       1.799
       1.740
       1.313
       0.914
       0.660
       0.338
      -0.282
      -1.065
      -1.524
      -1.252
      -0.358
       0.562
       0.882
       0.431
      -0.395
      -0.957
      -0.863
      -0.234
       0.489
       0.992
       1.297
       1.574
       1.807
       1.727
       1.052
      -0.213
      -1.691
      -2.824
      -3.203
      -2.777
      -1.795
      -0.573
       0.614
       1.492
       1.785
       1.391
       0.555
      -0.209
      -0.452
      -0.100
       0.526
       1.031
       1.312
       1.616
       2.147
       2.624
       2.339
       0.780
      -1.748
      -4.155
      -5.291
      -4.747
      -3.076
      -1.265
       0.055
       0.951
       1.797
       2.628
       2.978
       2.379
       0.962
      -0.515
      -1.258
      -1.089
      -0.561
      -0.446
      -1.036
      -1.867
      -2.136
      -1.413
      -0.007
       1.333
       2.037
       2.081
       1.838
       1.606
       1.282
       0.511
      -0.829
      -2.312
      -3.217
      -3.142
      -2.339
      -1.380
      -0.534
       0.471
       2.025
       3.964
       5.378
       5.227
       3.276
       0.470
      -1.740
      -2.533
      -2.246
      -1.823
      -1.780
      -1.741
      -0.972
       0.679
       2.373
       2.904
       1.809
      -0.117
      -1.496
      -1.605
      -0.926
      -0.484
      -0.715
      -1.042
      -0.575
       0.826
       2.201
       2.318
       0.893
      -1.003
      -1.867
      -1.144
       0.310
       1.120
       0.707
      -0.301
      -0.858
      -0.635
      -0.314
      -0.777
      -2.035
      -3.042
      -2.676
      -0.897
       1.138
       2.139
       1.850
       1.133
       0.970
       1.426
       1.659
       0.925
      -0.476
      -1.377
      -0.936
       0.422
       1.405
       1.197
       0.284
      -0.158
       0.390
       1.207
       1.125
      -0.148
      -1.615
      -1.979
      -1.040
      -0.003
      -0.254
      -1.853
      -3.329
      -3.059
      -0.851
       1.844
       3.263
       2.872
       1.683
       1.084
       1.403
       1.630
       0.585
      -1.691
      -3.778
      -4.110
      -2.385
       0.222
       2.151
       2.755
       2.593
       2.532
       2.673
       2.248
       0.586
      -1.902
      -3.855
      -4.110
      -2.717
      -0.832
       0.347
       0.554
       0.468
       0.838
       1.622
       2.008
       1.304
      -0.242
      -1.580
      -1.843
      -1.148
      -0.412
      -0.404
      -0.966
      -1.182
      -0.318
       1.360
       2.741
       2.910
       2.014
       1.044
       0.739
       0.782
       0.178
      -1.587
      -3.773
      -4.868
      -3.923
      -1.493
       0.756
       1.490
       0.816
       0.008
       0.191
       1.307
       2.338
       2.407
       1.609
       0.781
       0.545
       0.653
       0.328
      -0.779
      -2.094
      -2.653
      -2.128
      -1.194
      -0.823
      -1.259
      -1.731
      -1.238
       0.373
       2.129
       2.822
       2.206
       1.272
       1.219
       2.153
       2.913
       2.254
       0.190
      -1.918
      -2.642
      -1.888
      -0.955
      -1.134
      -2.266
      -2.827
      -1.547
       1.109
       3.234
       3.287
       1.562
      -0.188
      -0.521
       0.359
       1.035
       0.532
      -0.586
      -0.873
       0.288
       1.829
       2.006
       0.243
      -2.177
      -3.320
      -2.459
      -0.693
       0.250
      -0.229
      -1.075
      -0.787
       0.883
       2.565
       2.651
       0.999
      -0.853
      -1.217
       0.045
       1.401
       1.224
      -0.526
      -2.246
      -2.343
      -0.923
       0.294
      -0.194
      -1.977
      -3.035
      -1.777
       1.263
       3.832
       4.066
       2.182
       0.114
      -0.483
       0.222
       0.693
      -0.104
      -1.496
      -1.877
      -0.538
       1.457
       2.296
       1.191
      -0.931
      -2.437
      -2.552
      -1.886
      -1.485
      -1.556
      -1.289
       0.063
       2.142
       3.672
       3.688
       2.445
       1.102
       0.556
       0.660
       0.557
      -0.284
      -1.425
      -1.870
      -1.093
       0.400
       1.509
       1.450
       0.250
      -1.493
      -3.129
      -4.224
      -4.495
      -3.705
      -1.790
       0.880
       3.451
       4.990
       5.089
       4.110
       2.793
       1.597
       0.400
      -1.173
      -3.159
      -4.944
      -5.552
      -4.351
      -1.627
       1.476
       3.661
       4.261
       3.505
       2.163
       0.923
      -0.006
      -0.811
      -1.659
      -2.330
      -2.313
      -1.300
       0.410
       2.028
       2.843
       2.714
       2.061
       1.396
       0.810
      -0.112
      -1.791
      -3.986
      -5.655
      -5.627
      -3.585
      -0.464
       2.138
       3.098
       2.540
       1.617
       1.470
       2.251
       3.046
       2.760
       1.115
      -1.120
      -2.780
      -3.150
      -2.331
      -0.958
       0.339
       1.265
       1.788
       1.882
       1.450
       0.477
      -0.803
      -1.994
      -2.765
      -2.988
      -2.716
      -2.063
      -1.088
       0.227
       1.826
       3.346
       4.103
       3.477
       1.497
      -0.933
      -2.491
      -2.353
      -0.860
       0.736
       1.347
       1.014
       0.760
       1.383
       2.439
       2.540
       0.787
      -2.099
      -4.161
      -3.881
      -1.585
       0.801
       1.526
       0.616
      -0.308
       0.173
       1.707
       2.488
       1.135
      -1.768
      -4.053
      -3.914
      -1.576
       0.918
       1.585
       0.262
      -1.401
      -1.608
      -0.058
       1.981
       3.021
       2.668
       1.713
       1.113
       1.028
       0.840
      -0.007
      -1.342
      -2.496
      -3.085
      -3.360
      -3.714
      -3.957
      -3.292
      -1.125
       2.089
       4.885
       5.803
       4.530
       2.143
       0.185
      -0.585
      -0.628
      -0.915
      -1.846
      -2.845
      -2.940
      -1.726
       0.197
       1.676
       1.931
       1.156
       0.248
      -0.004
       0.485
       1.232
       1.759
       1.983
       2.073
       2.055
       1.620
       0.397
      -1.545
      -3.500
      -4.518
      -4.096
      -2.532
      -0.627
       0.889
       1.717
       1.927
       1.717
       1.244
       0.648
       0.156
       0.039
       0.392
       0.970
       1.364
       1.396
       1.282
       1.318
       1.414
       1.023
      -0.346
      -2.471
      -4.297
      -4.623
      -3.120
      -0.736
       1.012
       1.287
       0.568
       0.065
       0.522
       1.575
       2.238
       1.959
       1.198
       0.944
       1.636
       2.609
       2.659
       1.207
      -1.101
      -2.948
      -3.471
      -2.877
      -2.014
      -1.417
      -0.802
       0.467
       2.412
       4.047
       4.130
       2.398
      -0.028
      -1.576
      -1.632
      -0.979
      -0.872
      -1.685
      -2.526
      -2.207
      -0.584
       1.155
       1.611
       0.571
      -0.805
      -1.183
      -0.325
       0.878
       1.522
       1.654
       2.022
       2.968
       3.750
       3.147
       0.807
      -2.114
      -3.842
      -3.595
      -2.275
      -1.516
      -2.077
      -3.195
      -3.492
      -2.420
      -0.780
       0.201
       0.243
       0.337
       1.601
       3.867
       5.593
       5.292
       3.036
       0.466
      -0.739
      -0.412
       0.046
      -0.842
      -3.071
      -5.107
      -5.400
      -3.895
      -1.989
      -1.046
      -1.080
      -0.939
       0.327
       2.369
       3.795
       3.486
       1.646
      -0.407
      -1.440
      -1.302
      -0.786
      -0.679
      -1.063
      -1.455
      -1.459
      -1.137
      -0.822
      -0.687
      -0.563
      -0.171
       0.492
       1.066
       1.139
       0.640
      -0.129
      -0.825
      -1.329
      -1.649
      -1.612
      -0.802
       1.076
       3.666
       5.860
       6.398
       4.794
       1.776
      -1.246
      -3.236
      -4.117
      -4.412
      -4.444
      -3.991
      -2.674
      -0.571
       1.667
       3.312
       4.122
       4.343
       4.191
       3.505
       2.058
       0.187
      -1.124
      -0.993
       0.472
       2.102
       2.599
       1.641
       0.104
      -0.864
      -1.010
      -1.186
      -2.370
      -4.493
      -6.288
      -6.323
      -4.191
      -0.792
       2.453
       4.643
       5.764
       6.155
       5.764
       4.051
       0.720
      -3.506
      -6.983
      -8.185
      -6.767
      -3.670
      -0.247
       2.700
       5.110
       7.024
       7.943
       6.987
       3.779
      -0.843
      -5.107
      -7.417
      -7.279
      -5.344
      -2.728
      -0.345
       1.305
       2.019
       1.787
       0.857
      -0.212
      -0.758
      -0.468
       0.370
       1.119
       1.332
       1.062
       0.699
       0.606
       0.891
       1.427
       1.986
       2.326
       2.164
       1.152
      -0.927
      -3.775
      -6.383
      -7.396
      -5.930
      -2.235
       2.350
       6.135
       7.990
       7.792
       6.142
       3.712
       0.866
      -2.143
      -4.805
      -6.383
      -6.423
      -5.173
      -3.436
      -1.946
      -0.855
       0.168
       1.347
       2.342
       2.472
       1.446
      -0.160
      -1.233
      -0.997
       0.406
       2.098
       3.175
       3.318
       2.869
       2.403
       2.184
       1.933
       1.085
      -0.699
      -3.154
      -5.426
      -6.468
      -5.615
      -3.023
       0.333
       3.168
       4.556
       4.311
       2.891
       1.037
      -0.558
      -1.460
      -1.582
      -1.147
      -0.511
       0.065
       0.555
       1.089
       1.683
       2.022
       1.637
       0.400
      -1.167
      -2.213
      -2.268
      -1.642
      -1.089
      -1.057
      -1.267
      -1.013
       0.095
       1.688
       2.943
       3.331
       3.039
       2.670
       2.602
       2.716
       2.651
       2.191
       1.360
       0.222
      -1.247
      -3.030
      -4.814
      -5.978
      -6.000
      -4.927
      -3.403
      -2.121
      -1.241
      -0.371
       0.882
       2.354
       3.349
       3.228
       2.065
       0.748
       0.350
       1.239
       2.723
       3.593
       3.123
       1.630
       0.113
      -0.694
      -0.982
      -1.641
      -3.301
      -5.504
      -6.859
      -6.133
      -3.339
       0.219
       2.980
       4.285
       4.644
       4.944
       5.431
       5.410
       3.979
       1.055
      -2.348
      -4.903
      -6.041
      -6.243
      -6.315
      -6.459
      -6.078
      -4.458
      -1.608
       1.607
       4.169
       5.726
       6.659
       7.330
       7.423
       6.178
       3.298
      -0.483
      -3.803
      -5.654
      -5.972
      -5.327
      -4.108
      -2.151
       0.755
       4.071
       6.448
       6.679
       4.765
       1.953
      -0.335
      -1.610
      -2.405
      -3.339
      -4.230
      -4.192
      -2.631
      -0.057
       2.199
       3.088
       2.643
       1.692
       0.931
       0.363
      -0.395
      -1.425
      -2.196
      -1.949
      -0.366
       2.077
       4.362
       5.527
       5.115
       3.245
       0.430
      -2.659
      -5.390
      -7.276
      -7.956
      -7.116
      -4.593
      -0.686
       3.643
       7.022
       8.341
       7.346
       4.703
       1.479
      -1.527
      -4.046
      -6.024
      -7.160
      -6.880
      -4.855
      -1.484
       2.216
       5.218
       7.010
       7.606
       7.197
       5.869
       3.672
       0.897
      -1.814
      -3.733
      -4.475
      -4.158
      -3.179
      -1.898
      -0.534
       0.762
       1.844
       2.592
       2.934
       2.831
       2.284
       1.333
       0.046
      -1.492
      -3.139
      -4.657
      -5.704
      -5.908
      -5.033
      -3.184
      -0.889
       1.129
       2.376
       2.858
       2.949
       2.971
       2.877
       2.309
       1.026
      -0.661
      -1.904
      -1.898
      -0.605
       1.092
       2.047
       1.782
       0.830
       0.192
       0.402
       1.067
       1.281
       0.528
      -0.817
      -1.875
      -2.123
      -1.815
      -1.564
      -1.626
      -1.698
      -1.405
      -0.879
      -0.743
      -1.460
      -2.705
      -3.464
      -2.898
      -1.153
       0.722
       1.738
       1.830
       1.789
       2.356
       3.416
       4.060
       3.472
       1.797
       0.129
      -0.451
       0.112
       0.800
       0.517
      -0.856
      -2.381
      -2.960
      -2.329
      -1.198
      -0.468
      -0.333
      -0.187
       0.555
       1.626
       2.041
       1.102
      -0.793
      -2.448
      -2.998
      -2.694
      -2.521
      -3.054
      -3.726
      -3.303
      -1.151
       1.986
       4.523
       5.377
       4.770
       3.745
       3.016
       2.383
       1.225
      -0.576
      -2.305
      -3.012
      -2.415
      -1.177
      -0.268
      -0.068
      -0.135
       0.189
       1.031
       1.882
       2.145
       1.728
       1.073
       0.662
       0.509
       0.198
      -0.559
      -1.441
      -1.704
      -0.927
       0.473
       1.543
       1.661
       1.140
       0.944
       1.748
       3.189
       4.073
       3.438
       1.492
      -0.538
      -1.540
      -1.521
      -1.478
      -2.292
      -3.743
      -4.638
      -3.943
      -1.843
       0.318
       1.215
       0.709
      -0.145
      -0.239
       0.513
       1.220
       1.066
       0.210
      -0.357
       0.136
       1.381
       2.195
       1.635
      -0.104
      -1.920
      -2.875
      -2.944
      -2.723
      -2.557
      -2.105
      -0.807
       1.328
       3.470
       4.600
       4.393
       3.436
       2.531
       1.835
       0.782
      -1.123
      -3.545
      -5.412
      -5.790
      -4.663
      -2.900
      -1.484
      -0.764
      -0.381
       0.131
       0.753
       1.025
       0.604
      -0.294
      -1.018
      -0.999
      -0.167
       1.022
       1.927
       2.156
       1.789
       1.259
       1.005
       1.169
       1.529
       1.669
       1.275
       0.387
      -0.601
      -1.216
      -1.227
      -0.720
       0.074
       0.939
       1.670
       2.051
       1.915
       1.257
       0.272
      -0.722
      -1.417
      -1.640
      -1.385
      -0.784
      -0.075
       0.420
       0.412
      -0.122
      -0.842
      -1.287
      -1.276
      -1.060
      -1.027
      -1.271
      -1.463
      -1.153
      -0.202
       1.063
       2.128
       2.728
       2.978
       3.084
       2.982
       2.373
       1.106
      -0.519
      -1.892
      -2.511
      -2.313
      -1.660
      -1.025
      -0.646
      -0.427
      -0.161
       0.193
       0.481
       0.552
       0.440
       0.327
       0.364
       0.503
       0.519
       0.218
      -0.325
      -0.770
      -0.830
      -0.576
      -0.371
      -0.486
      -0.815
      -0.987
      -0.737
      -0.172
       0.342
       0.554
       0.602
       0.880
       1.584
       2.417
       2.800
       2.382
       1.312
       0.039
      -1.079
      -1.948
      -2.595
      -2.945
      -2.804
      -2.077
      -0.982
       0.041
       0.704
       1.131
       1.647
       2.313
       2.729
       2.378
       1.167
      -0.380
      -1.475
      -1.668
      -1.152
      -0.521
      -0.225
      -0.251
      -0.340
      -0.396
      -0.610
      -1.161
      -1.876
      -2.235
      -1.749
      -0.388
       1.300
       2.529
       2.827
       2.327
       1.528
       0.793
       0.100
      -0.747
      -1.709
      -2.362
      -2.186
      -1.087
       0.376
       1.354
       1.425
       0.941
       0.622
       0.811
       1.182
       1.172
       0.626
      -0.051
      -0.359
      -0.281
      -0.324
      -0.958
      -2.015
      -2.755
      -2.566
      -1.575
      -0.508
      -0.005
      -0.102
      -0.371
      -0.447
      -0.378
      -0.473
      -0.845
      -1.134
      -0.753
       0.533
       2.242
       3.428
       3.349
       1.989
       0.015
      -1.708
      -2.651
      -2.807
      -2.447
      -1.731
      -0.601
       0.937
       2.509
       3.453
       3.277
       2.032
       0.268
      -1.351
      -2.429
      -2.913
      -2.864
      -2.212
      -0.814
       1.214
       3.287
       4.591
       4.589
       3.346
       1.399
      -0.652
      -2.458
      -3.914
      -4.892
      -5.062
      -4.069
      -1.948
       0.699
       3.028
       4.497
       5.094
       5.076
       4.585
       3.552
       1.950
       0.069
      -1.541
      -2.443
      -2.667
      -2.612
      -2.598
      -2.529
      -2.058
      -1.052
       0.181
       1.097
       1.330
       0.928
       0.284
      -0.155
      -0.159
       0.213
       0.734
       1.168
       1.361
       1.280
       1.025
       0.739
       0.441
      -0.024
      -0.781
      -1.675
      -2.274
      -2.195
      -1.441
      -0.441
       0.265
       0.463
       0.409
       0.504
