Origin Time       17/2/2013 16:27:07	
Lat.              30.9 N	
Long.             78.4 E	
Depth (Km)         10.0
Magnitude         3.2
 Region           UTTARKASHI-UTTARAKHAND                                           
 Above details taken from IMD 
   
Station Code      UTK
Station Lat.       30.730
Station Long.      78.445
Station Height(m) 1147.0
Site Class        A   Vs30 between 700 m/sec to 1400 m/sec * 
Record Time       17.02.2013 16:26:44.209
Sampling Rate     200. Hz
 Record Duration   80.320 Sec.
 Direction         Vert. (Up positive)
Max. Acceleration      3.343 cm/sec**2
     
  * For reference see Site Classification link of website 
     
 Base Line Corrected and Low Pass Filtered (Cut Off at 35 Hz) Time History
 Acceleration data in cm/sec**2
    
[...]
       0.014
       0.004
      -0.003
       0.009
       0.016
       0.004
      -0.004
       0.005
       0.007
      -0.008
      -0.013
       0.002
       0.009
      -0.003
      -0.007
       0.009
       0.016
       0.000
      -0.015
      -0.011
      -0.010
      -0.022
      -0.022
      -0.003
       0.004
      -0.011
      -0.020
      -0.006
       0.005
       0.001
       0.002
       0.015
       0.017
       0.000
      -0.006
       0.008
       0.013
      -0.001
      -0.008
       0.003
       0.007
      -0.006
      -0.010
       0.001
       0.000
      -0.018
      -0.025
      -0.011
      -0.003
      -0.010
      -0.007
       0.012
       0.019
       0.004
      -0.003
       0.009
       0.016
       0.010
       0.016
       0.034
       0.034
       0.010
      -0.003
       0.008
       0.016
       0.007
       0.003
       0.008
       0.001
      -0.016
      -0.015
       0.003
       0.006
      -0.009
      -0.011
       0.007
       0.015
       0.004
       0.001
       0.013
       0.016
       0.004
       0.004
       0.017
       0.017
       0.000
      -0.004
       0.008
       0.011
      -0.002
      -0.006
       0.004
       0.003
      -0.007
       0.000
       0.020
       0.020
      -0.001
      -0.010
       0.002
       0.007
      -0.002
      -0.001
       0.008
       0.003
      -0.014
      -0.016
      -0.005
      -0.008
      -0.023
      -0.018
       0.008
       0.022
       0.016
       0.016
       0.024
       0.017
      -0.001
      -0.001
       0.011
       0.004
      -0.017
      -0.020
      -0.004
      -0.001
      -0.014
      -0.018
      -0.009
      -0.012
      -0.020
      -0.011
       0.007
       0.005
      -0.011
      -0.007
       0.014
       0.020
       0.006
       0.002
       0.012
       0.014
       0.010
       0.016
       0.021
       0.004
      -0.019
      -0.012
       0.017
       0.027
       0.014
       0.008
       0.011
       0.003
      -0.012
      -0.012
      -0.002
      -0.007
      -0.019
      -0.012
       0.006
       0.004
      -0.012
      -0.011
       0.004
       0.008
       0.002
       0.010
       0.022
       0.016
       0.003
       0.010
       0.026
       0.021
       0.004
       0.005
       0.017
       0.010
      -0.009
      -0.012
      -0.004
      -0.007
      -0.014
      -0.002
       0.013
       0.003
      -0.018
      -0.017
      -0.001
       0.000
      -0.013
      -0.013
      -0.006
      -0.012
      -0.020
      -0.008
       0.011
       0.009
      -0.002
       0.003
       0.014
       0.006
      -0.010
      -0.006
       0.008
       0.006
      -0.003
       0.001
       0.006
      -0.009
      -0.027
      -0.019
      -0.003
      -0.008
      -0.023
      -0.019
      -0.001
       0.004
      -0.001
       0.003
       0.005
      -0.010
      -0.021
      -0.006
       0.013
       0.005
      -0.016
      -0.018
      -0.008
      -0.010
      -0.017
      -0.010
      -0.003
      -0.013
      -0.022
      -0.006
       0.011
      -0.001
      -0.023
      -0.020
      -0.003
       0.000
      -0.007
      -0.005
      -0.003
      -0.017
      -0.026
      -0.010
       0.008
       0.003
      -0.008
       0.000
       0.012
       0.006
      -0.004
       0.003
       0.011
       0.000
      -0.012
      -0.005
       0.002
      -0.012
      -0.026
      -0.016
      -0.002
      -0.007
      -0.016
      -0.005
       0.008
       0.002
      -0.006
       0.003
       0.010
      -0.004
      -0.019
      -0.012
      -0.002
      -0.008
      -0.014
      -0.003
       0.007
      -0.003
      -0.012
       0.002
       0.017
       0.012
       0.001
       0.006
       0.008
      -0.008
      -0.017
      -0.005
       0.003
      -0.013
      -0.029
      -0.018
       0.000
       0.000
      -0.004
       0.005
       0.009
      -0.005
      -0.013
       0.000
       0.009
      -0.007
      -0.023
      -0.017
      -0.005
      -0.008
      -0.008
       0.007
       0.015
       0.000
      -0.009
       0.004
       0.016
       0.006
      -0.005
       0.002
       0.004
      -0.014
      -0.028
      -0.019
      -0.011
      -0.021
      -0.028
      -0.016
      -0.005
      -0.010
      -0.009
       0.009
       0.018
       0.003
      -0.008
       0.001
       0.008
      -0.003
      -0.010
       0.003
       0.013
       0.005
       0.000
       0.009
       0.010
      -0.009
      -0.019
      -0.004
       0.007
      -0.003
      -0.012
      -0.003
       0.000
      -0.013
      -0.020
      -0.008
      -0.004
      -0.018
      -0.023
      -0.006
       0.005
      -0.005
      -0.010
       0.002
       0.010
       0.004
       0.003
       0.015
       0.013
      -0.009
      -0.019
      -0.002
       0.010
       0.000
      -0.009
      -0.003
      -0.002
      -0.016
      -0.021
      -0.009
      -0.005
      -0.017
      -0.015
       0.003
       0.009
      -0.010
      -0.022
      -0.009
       0.004
       0.002
       0.003
       0.013
       0.011
      -0.004
      -0.002
       0.020
       0.029
       0.011
      -0.002
       0.003
       0.004
      -0.009
      -0.011
       0.002
       0.000
      -0.019
      -0.025
      -0.010
      -0.001
      -0.009
      -0.010
       0.003
       0.003
      -0.012
      -0.012
       0.006
       0.013
      -0.001
      -0.009
      -0.002
      -0.002
      -0.011
      -0.005
       0.014
       0.016
       0.000
      -0.001
       0.016
       0.018
      -0.003
      -0.017
      -0.012
      -0.010
      -0.016
      -0.010
       0.003
      -0.006
      -0.031
      -0.034
      -0.011
       0.004
      -0.003
      -0.007
       0.000
      -0.002
      -0.011
      -0.005
       0.012
       0.010
      -0.009
      -0.012
       0.003
       0.006
      -0.007
      -0.006
       0.011
       0.015
       0.002
      -0.001
       0.006
       0.001
      -0.014
      -0.012
       0.002
      -0.003
      -0.024
      -0.028
      -0.013
      -0.009
      -0.018
      -0.012
       0.006
       0.009
      -0.004
      -0.005
       0.005
       0.001
      -0.012
      -0.008
       0.007
       0.005
      -0.013
      -0.014
      -0.001
      -0.002
      -0.013
      -0.009
       0.004
      -0.004
      -0.029
      -0.035
      -0.020
      -0.011
      -0.012
      -0.003
       0.007
      -0.005
      -0.025
      -0.018
       0.005
       0.010
      -0.006
      -0.011
      -0.003
      -0.001
      -0.003
       0.011
       0.027
       0.018
      -0.005
      -0.009
       0.000
      -0.009
      -0.029
      -0.028
      -0.009
      -0.002
      -0.009
      -0.006
       0.001
      -0.009
      -0.025
      -0.021
      -0.010
      -0.019
      -0.037
      -0.028
      -0.002
       0.011
       0.009
       0.014
       0.021
       0.010
      -0.006
       0.000
       0.015
       0.011
      -0.002
       0.002
       0.014
       0.008
      -0.003
       0.005
       0.021
       0.015
      -0.006
      -0.013
      -0.008
      -0.015
      -0.023
      -0.010
       0.008
       0.008
       0.001
       0.012
       0.029
       0.022
       0.003
       0.000
       0.003
      -0.011
      -0.026
      -0.013
       0.011
       0.014
       0.007
       0.013
       0.021
       0.010
      -0.009
      -0.009
      -0.001
      -0.009
      -0.019
      -0.012
      -0.001
      -0.010
      -0.020
      -0.008
       0.007
      -0.004
      -0.022
      -0.019
      -0.004
      -0.002
      -0.004
       0.008
       0.018
       0.007
      -0.004
       0.008
       0.022
       0.009
      -0.015
      -0.021
      -0.017
      -0.023
      -0.025
      -0.007
       0.010
       0.003
      -0.011
      -0.004
       0.007
       0.002
      -0.007
       0.002
       0.010
      -0.001
      -0.013
      -0.004
       0.006
      -0.001
      -0.004
       0.019
       0.052
       0.080
       0.139
       0.277
       0.473
       0.642
       0.671
       0.440
      -0.111
      -0.846
      -1.417
      -1.487
      -1.007
      -0.274
       0.270
       0.347
       0.049
      -0.202
       0.004
       0.646
       1.222
       1.172
       0.411
      -0.575
      -1.109
      -0.838
       0.000
       0.747
       0.824
       0.212
      -0.522
      -0.727
      -0.229
       0.546
       0.945
       0.603
      -0.288
      -1.120
      -1.334
      -0.850
      -0.080
       0.482
       0.648
       0.554
       0.420
       0.344
       0.292
       0.191
       0.042
      -0.055
      -0.015
       0.082
       0.038
      -0.218
      -0.497
      -0.515
      -0.200
       0.217
       0.397
       0.202
      -0.142
      -0.215
       0.180
       0.741
       0.907
       0.429
      -0.353
      -0.858
      -0.848
      -0.593
      -0.498
      -0.622
      -0.617
      -0.126
       0.741
       1.390
       1.294
       0.559
      -0.164
      -0.378
      -0.237
      -0.286
      -0.751
      -1.239
      -1.138
      -0.298
       0.732
       1.192
       0.865
       0.318
       0.287
       0.808
       1.085
       0.329
      -1.323
      -2.777
      -2.884
      -1.430
       0.665
       2.080
       2.122
       1.185
       0.259
       0.008
       0.291
       0.500
       0.213
      -0.452
      -0.991
      -0.941
      -0.264
       0.583
       0.976
       0.613
      -0.266
      -1.092
      -1.377
      -0.990
      -0.194
       0.560
       0.950
       1.000
       0.958
       0.953
       0.830
       0.336
      -0.555
      -1.530
      -2.086
      -1.855
      -0.892
       0.302
       1.120
       1.319
       1.124
       0.887
       0.704
       0.395
      -0.194
      -0.919
      -1.373
      -1.217
      -0.536
       0.169
       0.434
       0.302
       0.253
       0.618
       1.142
       1.203
       0.463
      -0.737
      -1.598
      -1.512
      -0.574
       0.486
       0.940
       0.661
       0.117
      -0.181
      -0.133
      -0.006
      -0.046
      -0.230
      -0.326
      -0.168
       0.144
       0.332
       0.268
       0.169
       0.362
       0.830
       1.089
       0.606
      -0.622
      -1.922
      -2.403
      -1.672
      -0.205
       1.003
       1.279
       0.834
       0.473
       0.734
       1.359
       1.596
       0.966
      -0.274
      -1.369
      -1.728
      -1.415
      -1.003
      -0.940
      -1.067
      -0.826
       0.078
       1.302
       2.134
       2.088
       1.264
       0.214
      -0.505
      -0.723
      -0.679
      -0.683
      -0.805
      -0.889
      -0.791
      -0.490
      -0.003
       0.659
       1.383
       1.887
       1.864
       1.237
       0.261
      -0.622
      -1.112
      -1.287
      -1.479
      -1.833
      -2.024
      -1.531
      -0.226
       1.373
       2.478
       2.629
       1.974
       1.035
       0.232
      -0.415
      -1.115
      -1.846
      -2.165
      -1.607
      -0.288
       1.013
       1.463
       0.885
      -0.102
      -0.634
      -0.322
       0.456
       0.945
       0.718
       0.019
      -0.570
      -0.703
      -0.481
      -0.173
       0.112
       0.432
       0.792
       1.005
       0.812
       0.176
      -0.564
      -0.910
      -0.682
      -0.236
      -0.100
      -0.409
      -0.753
      -0.628
       0.035
       0.778
       1.033
       0.653
       0.056
      -0.185
       0.061
       0.350
       0.177
      -0.419
      -0.854
      -0.606
       0.228
       0.972
       0.949
       0.078
      -1.020
      -1.503
      -1.022
      -0.019
       0.689
       0.654
       0.159
      -0.087
       0.374
       1.290
       1.845
       1.354
      -0.067
      -1.501
      -2.010
      -1.467
      -0.596
      -0.196
      -0.358
      -0.446
       0.159
       1.309
       2.082
       1.646
       0.176
      -1.164
      -1.286
      -0.241
       0.843
       0.869
      -0.180
      -1.280
      -1.367
      -0.346
       0.843
       1.158
       0.467
      -0.374
      -0.465
       0.197
       0.776
       0.509
      -0.500
      -1.380
      -1.315
      -0.292
       0.882
       1.307
       0.785
      -0.074
      -0.512
      -0.340
       0.001
      -0.023
      -0.501
      -1.026
      -1.073
      -0.456
       0.502
       1.217
       1.307
       0.859
       0.267
      -0.115
      -0.190
      -0.101
      -0.086
      -0.289
      -0.616
      -0.785
      -0.604
      -0.177
       0.208
       0.385
       0.459
       0.633
       0.936
       1.106
       0.793
      -0.068
      -1.066
      -1.578
      -1.323
      -0.617
      -0.048
       0.087
       0.002
       0.129
       0.641
       1.238
       1.370
       0.742
      -0.337
      -1.155
      -1.201
      -0.573
       0.182
       0.581
       0.543
       0.334
       0.261
       0.389
       0.502
       0.350
      -0.057
      -0.459
      -0.653
      -0.709
      -0.818
      -0.968
      -0.887
      -0.300
       0.741
       1.771
       2.177
       1.677
       0.607
      -0.331
      -0.707
      -0.745
      -1.002
      -1.685
      -2.323
      -2.131
      -0.759
       1.252
       2.764
       2.903
       1.762
       0.250
      -0.760
      -1.117
      -1.274
      -1.623
      -2.033
      -1.990
      -1.100
       0.506
       2.196
       3.254
       3.343
       2.607
       1.401
       0.006
      -1.368
      -2.445
      -2.872
      -2.433
      -1.261
       0.129
       1.088
       1.253
       0.819
       0.321
       0.107
       0.033
      -0.264
      -0.840
      -1.246
      -0.895
       0.359
       1.956
       2.955
       2.744
       1.517
       0.047
      -1.017
      -1.626
      -2.131
      -2.731
      -3.160
      -2.892
      -1.639
       0.292
       2.098
       3.025
       2.900
       2.184
       1.498
       1.124
       0.911
       0.540
      -0.139
      -0.961
      -1.559
      -1.666
      -1.359
      -0.969
      -0.754
      -0.678
      -0.520
      -0.132
       0.420
       0.913
       1.150
       1.123
       1.024
       1.030
       1.063
       0.835
       0.155
      -0.837
      -1.745
      -2.193
      -2.060
      -1.550
      -1.029
      -0.718
      -0.488
      -0.026
       0.777
       1.639
       2.119
       2.017
       1.523
       1.010
       0.679
       0.398
      -0.094
      -0.783
      -1.245
      -1.035
      -0.228
       0.540
       0.650
       0.095
      -0.534
      -0.645
      -0.200
       0.269
       0.222
      -0.297
      -0.653
      -0.298
       0.580
       1.168
       0.836
      -0.230
      -1.232
      -1.509
      -1.083
      -0.503
      -0.207
      -0.072
       0.377
       1.275
       2.049
       1.889
       0.625
      -0.976
      -1.876
      -1.688
      -0.937
      -0.459
      -0.550
      -0.714
      -0.248
       0.899
       1.919
       1.917
       0.866
      -0.304
      -0.617
       0.012
       0.766
       0.787
       0.024
      -0.741
      -0.710
       0.074
       0.712
       0.354
      -0.873
      -1.925
      -1.826
      -0.587
       0.829
       1.378
       0.814
      -0.173
      -0.644
      -0.276
       0.399
       0.604
       0.134
      -0.497
      -0.653
      -0.220
       0.354
       0.560
       0.314
      -0.014
      -0.009
       0.339
       0.634
       0.537
       0.158
      -0.089
       0.002
       0.194
       0.113
      -0.295
      -0.672
      -0.607
      -0.080
       0.454
       0.460
      -0.115
      -0.721
      -0.720
      -0.029
       0.782
       1.035
       0.526
      -0.355
      -1.000
      -1.059
      -0.670
      -0.258
      -0.117
      -0.155
      -0.071
       0.282
       0.761
       1.106
       1.147
       0.863
       0.342
      -0.270
      -0.806
      -1.111
      -1.060
      -0.604
       0.133
       0.847
       1.221
       1.138
       0.704
       0.127
      -0.380
      -0.648
      -0.612
      -0.379
      -0.146
      -0.041
      -0.030
       0.020
       0.212
       0.514
       0.735
       0.652
       0.221
      -0.351
      -0.798
      -1.017
      -1.054
      -0.930
      -0.587
      -0.026
       0.581
       0.940
       0.828
       0.271
      -0.428
      -0.885
      -0.924
      -0.665
      -0.318
       0.052
       0.505
       1.025
       1.431
       1.499
       1.142
       0.484
      -0.198
      -0.661
      -0.868
      -0.968
      -1.056
      -0.996
      -0.574
       0.200
       0.998
       1.394
       1.186
       0.541
      -0.113
      -0.407
      -0.313
      -0.118
      -0.089
      -0.203
      -0.251
      -0.152
      -0.055
      -0.152
      -0.452
      -0.743
      -0.760
      -0.422
       0.083
       0.467
       0.620
       0.684
       0.794
       0.846
       0.595
      -0.023
      -0.742
      -1.146
      -1.000
      -0.439
       0.131
       0.388
       0.374
       0.401
       0.621
       0.793
       0.547
      -0.155
      -0.902
      -1.181
      -0.821
      -0.127
       0.385
       0.430
       0.196
       0.106
       0.326
       0.571
       0.451
      -0.048
      -0.505
      -0.479
       0.052
       0.646
       0.766
       0.271
      -0.432
      -0.747
      -0.466
       0.037
       0.221
      -0.062
      -0.456
      -0.501
      -0.100
       0.389
       0.488
       0.071
      -0.486
      -0.650
      -0.263
       0.309
       0.593
       0.479
       0.248
       0.184
       0.265
       0.222
      -0.124
      -0.602
      -0.784
      -0.393
       0.360
       0.916
       0.887
       0.393
      -0.132
      -0.389
      -0.418
      -0.440
      -0.571
      -0.704
      -0.627
      -0.265
       0.199
       0.476
       0.465
       0.339
       0.324
       0.458
       0.586
       0.533
       0.236
      -0.220
      -0.641
      -0.827
      -0.712
      -0.392
      -0.023
       0.274
       0.426
       0.417
       0.319
       0.246
       0.234
       0.206
       0.094
      -0.070
      -0.202
      -0.258
      -0.240
      -0.151
      -0.009
       0.139
       0.228
       0.183
      -0.046
      -0.409
      -0.695
      -0.662
      -0.281
       0.197
       0.470
       0.437
       0.222
       0.007
      -0.110
      -0.130
      -0.094
      -0.002
       0.184
       0.437
       0.597
       0.492
       0.147
      -0.210
      -0.384
      -0.397
      -0.395
      -0.442
      -0.450
      -0.281
       0.100
       0.548
       0.807
       0.711
       0.343
      -0.052
      -0.308
      -0.447
      -0.543
      -0.585
      -0.494
      -0.243
       0.091
       0.369
       0.472
       0.405
       0.319
       0.359
       0.474
       0.453
       0.171
      -0.251
      -0.556
      -0.580
      -0.367
      -0.108
       0.006
      -0.059
      -0.159
      -0.135
      -0.007
       0.064
      -0.013
      -0.141
      -0.148
       0.032
       0.309
       0.509
       0.488
       0.251
      -0.017
      -0.113
      -0.021
       0.070
      -0.011
      -0.235
      -0.410
      -0.372
      -0.122
