Origin Time       11/2/2013 10:48:55	 UTC
Lat.              31.0 N	
Long.             78.4 E	
Depth (Km)          5.0
Magnitude         4.3
 Region           UTTARKASHI-UTTARAKHAND                                           
 Above details taken from IMD 
    
Station Code      UTK
Station Lat.       30.730  N
Station Long.      78.445  E
Station Height(m) 1147.0
Site Class        A   Vs30 between 700 m/sec to 1400 m/sec * 
Record Time       11.02.2013 10:48:28.844 UTC
Sampling Rate     200. Hz
 Record Duration   96.240 Sec.
 Direction         N-S (N positive)
Max. Acceleration     18.089 cm/sec**2
     
  * For reference see Site Classification link of website 
     
 Base Line Corrected and Low Pass Filtered (Cut Off at 35 Hz) Time History
 Acceleration data in cm/sec**2
    
[...]
      -0.024
       0.000
       0.027
       0.047
       0.059
       0.062
       0.055
       0.040
       0.017
      -0.010
      -0.035
      -0.054
      -0.070
      -0.080
      -0.079
      -0.058
      -0.020
       0.022
       0.055
       0.075
       0.086
       0.088
       0.080
       0.059
       0.024
      -0.018
      -0.059
      -0.089
      -0.101
      -0.092
      -0.067
      -0.035
       0.001
       0.041
       0.082
       0.118
       0.131
       0.113
       0.070
       0.021
      -0.020
      -0.048
      -0.068
      -0.082
      -0.084
      -0.067
      -0.035
       0.001
       0.028
       0.043
       0.051
       0.059
       0.065
       0.060
       0.037
      -0.002
      -0.040
      -0.060
      -0.053
      -0.031
      -0.009
       0.003
       0.008
       0.015
       0.025
       0.028
       0.017
      -0.001
      -0.014
      -0.014
      -0.002
       0.013
       0.023
       0.027
       0.028
       0.025
       0.018
       0.007
      -0.005
      -0.013
      -0.019
      -0.025
      -0.030
      -0.028
      -0.018
      -0.002
       0.007
       0.004
      -0.003
      -0.001
       0.013
       0.034
       0.047
       0.045
       0.030
       0.011
      -0.007
      -0.014
      -0.011
      -0.001
       0.004
      -0.003
      -0.018
      -0.029
      -0.027
      -0.016
      -0.006
      -0.003
      -0.007
      -0.008
      -0.002
       0.009
       0.016
       0.013
       0.002
      -0.009
      -0.011
      -0.006
       0.001
       0.005
       0.006
       0.006
       0.007
       0.007
       0.004
       0.000
      -0.003
      -0.006
      -0.012
      -0.022
      -0.031
      -0.028
      -0.008
       0.020
       0.035
       0.026
       0.004
      -0.014
      -0.015
      -0.005
       0.004
       0.005
      -0.003
      -0.011
      -0.015
      -0.010
       0.004
       0.022
       0.038
       0.050
       0.056
       0.057
       0.049
       0.031
       0.005
      -0.021
      -0.035
      -0.033
      -0.023
      -0.015
      -0.011
      -0.007
       0.002
       0.012
       0.017
       0.015
       0.009
       0.008
       0.013
       0.020
       0.025
       0.026
       0.022
       0.012
      -0.004
      -0.022
      -0.032
      -0.028
      -0.009
       0.015
       0.032
       0.033
       0.018
      -0.003
      -0.017
      -0.019
      -0.015
      -0.014
      -0.019
      -0.025
      -0.024
      -0.017
      -0.008
      -0.005
      -0.005
       0.002
       0.018
       0.038
       0.051
       0.051
       0.039
       0.021
       0.000
      -0.017
      -0.026
      -0.025
      -0.017
      -0.004
       0.011
       0.026
       0.038
       0.042
       0.032
       0.012
      -0.005
      -0.013
      -0.014
      -0.016
      -0.021
      -0.023
      -0.017
      -0.006
       0.004
       0.007
       0.004
      -0.001
      -0.008
      -0.021
      -0.039
      -0.060
      -0.077
      -0.084
      -0.079
      -0.063
      -0.038
      -0.010
       0.013
       0.025
       0.020
       0.000
      -0.032
      -0.070
      -0.109
      -0.142
      -0.161
      -0.163
      -0.145
      -0.106
      -0.052
       0.007
       0.052
       0.069
       0.060
       0.039
       0.021
       0.008
      -0.011
      -0.048
      -0.101
      -0.167
      -0.241
      -0.326
      -0.410
      -0.464
      -0.447
      -0.338
      -0.144
       0.099
       0.348
       0.568
       0.737
       0.843
       0.871
       0.812
       0.665
       0.450
       0.195
      -0.072
      -0.332
      -0.563
      -0.729
      -0.775
      -0.656
      -0.372
       0.020
       0.432
       0.801
       1.106
       1.348
       1.502
       1.507
       1.315
       0.940
       0.460
      -0.050
      -0.567
      -1.103
      -1.632
      -2.039
      -2.165
      -1.920
      -1.358
      -0.650
       0.030
       0.602
       1.086
       1.514
       1.846
       1.979
       1.833
       1.435
       0.908
       0.373
      -0.134
      -0.646
      -1.181
      -1.669
      -1.980
      -2.010
      -1.756
      -1.310
      -0.789
      -0.269
       0.202
       0.573
       0.779
       0.787
       0.637
       0.434
       0.281
       0.213
       0.200
       0.191
       0.166
       0.147
       0.162
       0.202
       0.207
       0.097
      -0.170
      -0.544
      -0.910
      -1.159
      -1.252
      -1.219
      -1.084
      -0.826
      -0.399
       0.207
       0.932
       1.663
       2.278
       2.666
       2.747
       2.479
       1.871
       0.989
      -0.064
      -1.166
      -2.189
      -3.004
      -3.493
      -3.574
      -3.231
      -2.523
      -1.551
      -0.414
       0.803
       2.012
       3.096
       3.912
       4.328
       4.270
       3.730
       2.774
       1.521
       0.128
      -1.244
      -2.460
      -3.417
      -4.026
      -4.192
      -3.834
      -2.936
      -1.601
      -0.048
       1.451
       2.661
       3.460
       3.820
       3.758
       3.276
       2.375
       1.128
      -0.290
      -1.632
      -2.683
      -3.334
      -3.575
      -3.439
      -2.948
      -2.123
      -1.040
       0.138
       1.197
       1.947
       2.300
       2.264
       1.907
       1.301
       0.524
      -0.320
      -1.102
      -1.700
      -2.053
      -2.167
      -2.086
      -1.823
      -1.342
      -0.609
       0.323
       1.281
       2.045
       2.479
       2.589
       2.476
       2.211
       1.780
       1.136
       0.298
      -0.617
      -1.469
      -2.172
      -2.700
      -3.015
      -3.023
      -2.621
      -1.800
      -0.692
       0.491
       1.572
       2.473
       3.170
       3.607
       3.655
       3.188
       2.209
       0.915
      -0.377
      -1.387
      -2.003
      -2.284
      -2.350
      -2.269
      -2.019
      -1.570
      -0.981
      -0.405
       0.016
       0.270
       0.467
       0.725
       1.029
       1.232
       1.188
       0.911
       0.591
       0.453
       0.572
       0.824
       0.996
       0.960
       0.749
       0.471
       0.168
      -0.236
      -0.828
      -1.549
      -2.150
      -2.325
      -1.926
      -1.069
      -0.048
       0.859
       1.508
       1.883
       1.984
       1.784
       1.280
       0.569
      -0.153
      -0.697
      -1.003
      -1.155
      -1.283
      -1.431
      -1.510
      -1.375
      -0.953
      -0.303
       0.426
       1.098
       1.642
       2.024
       2.186
       2.060
       1.642
       1.041
       0.416
      -0.141
      -0.667
      -1.246
      -1.871
      -2.383
      -2.564
      -2.306
      -1.700
      -0.970
      -0.291
       0.314
       0.919
       1.540
       2.047
       2.246
       2.042
       1.515
       0.820
       0.063
      -0.716
      -1.450
      -1.975
      -2.111
      -1.816
      -1.254
      -0.701
      -0.353
      -0.211
      -0.124
       0.061
       0.355
       0.629
       0.723
       0.578
       0.272
      -0.055
      -0.301
      -0.448
      -0.510
      -0.461
      -0.228
       0.219
       0.781
       1.235
       1.374
       1.147
       0.684
       0.181
      -0.231
      -0.515
      -0.669
      -0.667
      -0.483
      -0.169
       0.127
       0.236
       0.113
      -0.097
      -0.142
       0.139
       0.646
       1.058
       1.058
       0.567
      -0.207
      -0.935
      -1.396
      -1.574
      -1.570
      -1.442
      -1.153
      -0.641
       0.053
       0.774
       1.365
       1.787
       2.109
       2.371
       2.476
       2.249
       1.613
       0.714
      -0.180
      -0.890
      -1.453
      -2.015
      -2.594
      -2.976
      -2.851
      -2.084
      -0.852
       0.467
       1.534
       2.196
       2.453
       2.334
       1.846
       1.042
       0.117
      -0.628
      -0.941
      -0.797
      -0.414
      -0.083
       0.056
       0.080
       0.156
       0.337
       0.495
       0.459
       0.188
      -0.182
      -0.489
      -0.702
      -0.914
      -1.180
      -1.379
      -1.288
      -0.799
      -0.063
       0.609
       0.994
       1.106
       1.114
       1.122
       1.060
       0.775
       0.237
      -0.391
      -0.875
      -1.112
      -1.192
      -1.253
      -1.289
      -1.125
      -0.609
       0.177
       0.911
       1.280
       1.250
       1.096
       1.138
       1.446
       1.769
       1.748
       1.196
       0.197
      -1.017
      -2.232
      -3.295
      -4.015
      -4.132
      -3.442
      -2.026
      -0.315
       1.133
       1.997
       2.379
       2.621
       2.931
       3.155
       2.941
       2.112
       0.891
      -0.255
      -1.010
      -1.441
      -1.851
      -2.411
      -2.933
      -3.021
      -2.429
      -1.286
       0.012
       1.088
       1.798
       2.193
       2.349
       2.272
       1.956
       1.489
       1.054
       0.793
       0.684
       0.552
       0.205
      -0.425
      -1.243
      -2.051
      -2.644
      -2.873
      -2.660
      -2.012
      -1.039
       0.061
       1.072
       1.850
       2.371
       2.667
       2.735
       2.482
       1.805
       0.712
      -0.598
      -1.805
      -2.631
      -2.968
      -2.892
      -2.550
      -2.039
      -1.368
      -0.514
       0.484
       1.500
       2.361
       2.927
       3.128
       2.948
       2.389
       1.478
       0.306
      -0.937
      -1.998
      -2.649
      -2.774
      -2.408
      -1.715
      -0.926
      -0.256
       0.167
       0.334
       0.320
       0.225
       0.122
       0.040
      -0.019
      -0.067
      -0.115
      -0.164
      -0.184
      -0.111
       0.123
       0.524
       0.981
       1.292
       1.281
       0.938
       0.458
       0.109
       0.034
       0.132
       0.160
      -0.042
      -0.406
      -0.704
      -0.746
      -0.523
      -0.168
       0.175
       0.447
       0.665
       0.847
       0.973
       1.008
       0.934
       0.769
       0.547
       0.303
       0.055
      -0.200
      -0.477
      -0.767
      -1.019
      -1.158
      -1.140
      -0.977
      -0.706
      -0.334
       0.174
       0.815
       1.449
       1.805
       1.646
       0.985
       0.144
      -0.439
      -0.536
      -0.297
      -0.103
      -0.225
      -0.598
      -0.918
      -0.959
      -0.777
      -0.615
      -0.617
      -0.667
      -0.534
      -0.164
       0.201
       0.240
      -0.114
      -0.549
      -0.636
      -0.225
       0.398
       0.765
       0.643
       0.231
      -0.038
       0.096
       0.488
       0.725
       0.487
      -0.182
      -0.914
      -1.335
      -1.342
      -1.134
      -0.973
      -0.944
      -0.900
      -0.631
      -0.056
       0.719
       1.500
       2.126
       2.500
       2.554
       2.243
       1.598
       0.771
      -0.022
      -0.628
      -1.048
      -1.411
      -1.833
      -2.294
      -2.631
      -2.655
      -2.281
      -1.570
      -0.662
       0.341
       1.395
       2.455
       3.387
       3.971
       4.015
       3.481
       2.509
       1.316
       0.069
      -1.162
      -2.345
      -3.384
      -4.088
      -4.248
      -3.760
      -2.696
      -1.275
       0.233
       1.610
       2.727
       3.513
       3.883
       3.711
       2.893
       1.458
      -0.358
      -2.149
      -3.505
      -4.187
      -4.205
      -3.751
      -3.050
      -2.241
      -1.347
      -0.338
       0.768
       1.837
       2.631
       2.935
       2.703
       2.121
       1.490
       1.024
       0.718
       0.402
      -0.073
      -0.682
      -1.237
      -1.521
      -1.442
      -1.056
      -0.485
       0.185
       0.927
       1.711
       2.442
       2.965
       3.163
       3.044
       2.750
       2.447
       2.184
       1.836
       1.199
       0.180
      -1.074
      -2.234
      -2.978
      -3.162
      -2.829
      -2.093
      -1.038
       0.254
       1.632
       2.863
       3.743
       4.209
       4.326
       4.181
       3.776
       3.062
       2.035
       0.804
      -0.469
      -1.681
      -2.855
      -4.046
      -5.192
      -6.060
      -6.364
      -5.973
      -5.003
      -3.717
      -2.341
      -0.966
       0.380
       1.607
       2.529
       2.974
       2.901
       2.414
       1.645
       0.651
      -0.555
      -1.882
      -3.114
      -4.019
      -4.508
      -4.689
      -4.709
      -4.554
      -4.008
      -2.860
      -1.176
       0.628
       2.018
       2.709
       2.841
       2.815
       2.937
       3.194
       3.330
       3.118
       2.559
       1.834
       1.118
       0.438
      -0.291
      -1.138
      -2.063
      -2.939
      -3.642
      -4.119
      -4.352
      -4.302
      -3.887
      -3.037
      -1.781
      -0.274
       1.271
       2.686
       3.914
       4.983
       5.899
       6.548
       6.693
       6.073
       4.549
       2.205
      -0.651
      -3.553
      -5.999
      -7.559
      -7.980
      -7.229
      -5.465
      -2.942
       0.089
       3.390
       6.657
       9.463
      11.306
      11.787
      10.764
       8.371
       4.901
       0.687
      -3.910
      -8.452
     -12.411
     -15.249
     -16.548
     -16.069
     -13.716
      -9.539
      -3.843
       2.668
       8.947
      13.943
      17.017
      18.089
      17.413
      15.231
      11.625
       6.699
       0.854
      -5.138
     -10.367
     -14.100
     -15.933
     -15.705
     -13.385
      -9.109
      -3.356
       2.985
       8.794
      13.107
      15.407
      15.669
      14.167
      11.277
       7.386
       2.918
      -1.657
      -5.864
      -9.305
     -11.712
     -12.934
     -12.881
     -11.511
      -8.900
      -5.337
      -1.337
       2.479
       5.583
       7.686
       8.748
       8.864
       8.168
       6.839
       5.145
       3.403
       1.846
       0.484
      -0.897
      -2.572
      -4.629
      -6.815
      -8.577
      -9.308
      -8.657
      -6.698
      -3.876
      -0.780
       2.078
       4.354
       5.840
       6.449
       6.231
       5.373
       4.107
       2.590
       0.879
      -0.966
      -2.781
      -4.285
      -5.195
      -5.337
      -4.672
      -3.258
      -1.219
       1.213
       3.647
       5.550
       6.395
       5.849
       3.903
       0.873
      -2.703
      -6.183
      -8.933
     -10.449
     -10.499
      -9.198
      -6.941
      -4.201
      -1.343
       1.428
       3.987
       6.199
       7.888
       8.858
       8.924
       7.965
       6.013
       3.336
       0.419
      -2.183
      -4.042
      -4.952
      -4.877
      -3.849
      -1.933
       0.695
       3.640
       6.281
       7.922
       8.036
       6.466
       3.479
      -0.345
      -4.315
      -7.816
     -10.437
     -11.994
     -12.468
     -11.883
     -10.216
      -7.426
      -3.608
       0.847
       5.265
       8.914
      11.296
      12.259
      11.890
      10.329
       7.722
       4.337
       0.682
      -2.565
      -4.830
      -5.892
      -5.913
      -5.241
      -4.165
      -2.804
      -1.168
       0.719
       2.731
       4.619
       6.042
       6.635
       6.128
       4.490
       2.013
      -0.748
      -3.184
      -4.884
      -5.767
      -6.006
      -5.820
      -5.269
      -4.236
      -2.560
      -0.237
       2.493
       5.227
       7.565
       9.218
      10.008
       9.789
       8.435
       5.957
       2.639
      -0.959
      -4.220
      -6.754
      -8.537
      -9.759
     -10.501
     -10.527
      -9.397
      -6.837
      -3.046
       1.284
       5.272
       8.212
       9.770
       9.927
       8.784
       6.452
       3.122
      -0.792
      -4.640
      -7.697
      -9.420
      -9.607
      -8.382
      -6.089
      -3.169
      -0.084
       2.734
       4.937
       6.309
       6.769
       6.325
       5.041
       3.068
       0.696
      -1.652
      -3.543
      -4.695
      -5.059
      -4.734
      -3.832
      -2.401
      -0.509
       1.624
       3.581
       4.885
       5.231
       4.626
       3.332
       1.694
       0.005
      -1.524
      -2.742
      -3.550
      -3.931
      -3.951
      -3.705
      -3.256
      -2.608
      -1.734
      -0.638
       0.590
       1.773
       2.696
       3.199
       3.233
       2.864
       2.200
       1.303
       0.147
      -1.313
      -2.987
      -4.544
      -5.483
      -5.371
      -4.097
      -1.945
       0.562
       2.911
       4.764
       5.967
       6.454
       6.190
       5.201
       3.641
       1.784
      -0.083
      -1.768
      -3.198
      -4.320
      -5.002
      -5.030
      -4.234
      -2.631
      -0.484
       1.764
       3.626
       4.721
       4.877
       4.154
       2.777
       1.042
      -0.759
      -2.338
      -3.402
      -3.707
      -3.167
      -1.951
      -0.463
       0.804
       1.486
       1.511
       1.114
       0.676
       0.497
       0.619
       0.839
       0.869
       0.554
       0.000
      -0.469
      -0.498
       0.056
       0.990
       1.837
       2.134
       1.686
       0.654
      -0.596
      -1.730
      -2.605
      -3.229
      -3.604
      -3.614
      -3.071
      -1.896
      -0.273
       1.380
       2.611
       3.161
       3.057
       2.531
       1.839
       1.126
       0.416
      -0.292
      -0.934
      -1.384
      -1.523
      -1.322
      -0.851
      -0.228
       0.425
       1.001
       1.398
       1.534
       1.392
       1.054
       0.672
       0.387
       0.260
       0.256
       0.307
       0.369
       0.423
       0.414
       0.216
      -0.306
      -1.165
      -2.186
      -3.085
      -3.635
      -3.784
      -3.614
      -3.196
      -2.487
      -1.388
       0.094
       1.733
       3.174
       4.150
       4.640
       4.805
       4.783
       4.541
       3.937
       2.922
       1.656
       0.425
      -0.557
      -1.269
      -1.819
      -2.297
      -2.686
      -2.908
      -2.939
      -2.842
      -2.713
      -2.600
      -2.501
      -2.413
      -2.349
      -2.301
      -2.192
      -1.895
      -1.304
      -0.408
       0.687
       1.820
       2.858
       3.731
       4.397
       4.770
       4.694
       4.027
       2.763
       1.115
      -0.549
      -1.876
      -2.702
      -3.074
      -3.138
      -2.990
      -2.628
      -2.020
      -1.183
      -0.178
       0.950
       2.193
       3.490
       4.613
       5.168
       4.779
       3.362
       1.241
      -0.987
      -2.786
      -3.935
      -4.546
      -4.854
      -4.984
      -4.870
      -4.363
      -3.398
      -2.065
      -0.552
       0.947
       2.267
       3.254
       3.772
       3.759
       3.296
       2.576
       1.767
       0.903
      -0.089
      -1.216
      -2.278
      -2.923
      -2.877
      -2.171
      -1.131
      -0.154
       0.552
       1.022
       1.396
       1.725
       1.932
       1.930
       1.738
       1.475
       1.251
       1.077
       0.899
       0.683
       0.463
       0.284
       0.119
      -0.154
