Origin Time       05/09/2013 18:35:42
Lat.              30.9 N	
Long.             78.5 E	
Depth (Km)         11.0
Magnitude         3.5
 Region           UTTARKASHI-UTTARAKHAND                                           
 Above details taken from IMD 
   
Station Code      UTK
Station Lat.       30.730
Station Long.      78.445
Station Height(m) 1147.0
Site Class        A   Vs30 between 700 m/sec to 1400 m/sec * 
Record Time       05.09.2013 18:35:17.134
Sampling Rate     200. Hz
 Record Duration   82.230 Sec.
 Direction         Vert. (Up positive)
Max. Acceleration     -7.883 cm/sec**2
     
  * For reference see Site Classification link of website 
     
 Base Line Corrected and Low Pass Filtered (Cut Off at 35 Hz) Time History
 Acceleration data in cm/sec**2
    
[...]
      -0.008
      -0.006
      -0.002
      -0.002
      -0.009
      -0.017
      -0.022
      -0.022
      -0.017
      -0.009
      -0.004
      -0.007
      -0.011
      -0.010
      -0.004
      -0.001
      -0.005
      -0.010
      -0.013
      -0.015
      -0.016
      -0.013
      -0.008
      -0.004
      -0.001
       0.004
       0.009
       0.007
      -0.001
      -0.008
      -0.010
      -0.007
       0.000
       0.009
       0.014
       0.008
      -0.007
      -0.020
      -0.025
      -0.021
      -0.012
      -0.001
       0.006
       0.006
       0.000
      -0.004
      -0.004
      -0.004
      -0.005
      -0.004
       0.000
       0.004
       0.005
       0.007
       0.008
       0.006
       0.002
       0.003
       0.007
       0.010
       0.010
       0.010
       0.010
       0.009
       0.006
       0.004
       0.003
      -0.001
      -0.008
      -0.013
      -0.013
      -0.012
      -0.011
      -0.006
       0.003
       0.008
       0.006
       0.002
       0.001
       0.002
       0.004
       0.006
       0.007
       0.003
      -0.006
      -0.009
      -0.003
       0.008
       0.015
       0.015
       0.009
       0.000
      -0.007
      -0.007
      -0.004
      -0.004
      -0.011
      -0.017
      -0.017
      -0.015
      -0.013
      -0.010
      -0.002
       0.004
       0.005
       0.004
       0.001
       0.000
      -0.002
      -0.001
       0.001
       0.000
      -0.003
       0.001
       0.010
       0.018
       0.015
       0.006
      -0.001
      -0.005
      -0.006
      -0.004
       0.001
       0.001
      -0.005
      -0.013
      -0.016
      -0.013
      -0.007
       0.001
       0.006
       0.003
      -0.004
      -0.003
       0.006
       0.016
       0.016
       0.011
       0.005
       0.001
       0.001
       0.005
       0.011
       0.009
      -0.001
      -0.010
      -0.010
      -0.002
       0.004
       0.008
       0.009
       0.004
      -0.005
      -0.013
      -0.016
      -0.014
      -0.012
      -0.009
      -0.003
       0.000
       0.000
       0.001
       0.008
       0.014
       0.013
       0.006
      -0.001
      -0.007
      -0.010
      -0.007
       0.001
       0.005
       0.000
      -0.006
      -0.005
      -0.002
      -0.001
      -0.004
      -0.007
      -0.011
      -0.017
      -0.020
      -0.015
      -0.005
       0.002
       0.006
       0.008
       0.009
       0.007
       0.006
       0.004
       0.002
       0.000
       0.000
       0.005
       0.007
       0.004
       0.004
       0.010
       0.015
       0.010
       0.000
      -0.003
       0.000
       0.003
       0.000
      -0.006
      -0.010
      -0.008
       0.000
       0.010
       0.010
      -0.003
      -0.016
      -0.016
      -0.003
       0.010
       0.016
       0.016
       0.012
       0.008
       0.006
       0.005
       0.001
      -0.006
      -0.007
       0.004
       0.017
       0.019
       0.011
       0.001
      -0.004
      -0.005
      -0.005
      -0.003
      -0.004
      -0.011
      -0.018
      -0.018
      -0.014
      -0.008
      -0.002
       0.004
       0.008
       0.007
       0.004
       0.007
       0.012
       0.013
       0.007
      -0.001
      -0.006
      -0.007
      -0.001
       0.011
       0.018
       0.012
      -0.001
      -0.006
       0.000
       0.009
       0.012
       0.005
      -0.008
      -0.019
      -0.018
      -0.005
       0.005
      -0.001
      -0.015
      -0.024
      -0.021
      -0.013
      -0.006
       0.000
       0.001
      -0.004
      -0.010
      -0.011
      -0.009
      -0.008
      -0.006
      -0.001
       0.004
       0.006
       0.007
       0.011
       0.017
       0.016
       0.006
      -0.007
      -0.016
      -0.019
      -0.014
      -0.005
       0.001
      -0.005
      -0.012
      -0.010
       0.002
       0.013
       0.012
       0.005
      -0.004
      -0.009
      -0.007
      -0.001
       0.000
      -0.008
      -0.017
      -0.013
       0.002
       0.014
       0.012
       0.001
      -0.010
      -0.014
      -0.011
      -0.007
      -0.007
      -0.015
      -0.020
      -0.016
      -0.006
      -0.002
      -0.004
      -0.007
      -0.005
      -0.002
       0.000
       0.001
       0.002
       0.003
       0.006
       0.012
       0.014
       0.006
      -0.004
      -0.004
       0.005
       0.013
       0.013
       0.007
       0.001
      -0.002
      -0.004
      -0.003
      -0.003
      -0.008
      -0.015
      -0.016
      -0.014
      -0.015
      -0.019
      -0.019
      -0.010
       0.001
       0.009
       0.012
       0.009
       0.004
       0.000
       0.005
       0.015
       0.018
       0.010
      -0.002
      -0.008
      -0.008
      -0.004
       0.003
       0.006
       0.000
      -0.009
      -0.013
      -0.010
      -0.007
      -0.007
      -0.006
      -0.001
       0.000
      -0.007
      -0.018
      -0.025
      -0.025
      -0.016
       0.000
       0.013
       0.013
       0.004
      -0.003
       0.000
       0.007
       0.007
       0.002
      -0.006
      -0.009
      -0.006
       0.003
       0.009
       0.003
      -0.010
      -0.017
      -0.013
      -0.006
      -0.005
      -0.007
      -0.008
      -0.006
      -0.001
       0.005
       0.007
       0.001
      -0.008
      -0.010
      -0.003
       0.004
       0.002
      -0.005
      -0.007
      -0.003
       0.001
       0.004
       0.002
      -0.004
      -0.010
      -0.007
       0.001
       0.004
      -0.001
      -0.007
      -0.008
      -0.007
      -0.008
      -0.012
      -0.014
      -0.015
      -0.013
      -0.007
       0.000
       0.000
      -0.002
       0.001
       0.012
       0.020
       0.018
       0.007
      -0.002
      -0.007
      -0.008
      -0.003
       0.003
       0.003
      -0.002
      -0.008
      -0.010
      -0.009
      -0.010
      -0.011
      -0.012
      -0.013
      -0.015
      -0.012
      -0.003
       0.003
       0.003
       0.000
      -0.001
      -0.003
      -0.007
      -0.010
      -0.007
      -0.002
       0.002
       0.007
       0.010
       0.009
       0.004
       0.003
       0.010
       0.016
       0.014
       0.005
      -0.004
      -0.009
      -0.006
       0.004
       0.013
       0.009
      -0.007
      -0.020
      -0.019
      -0.008
      -0.001
      -0.001
      -0.003
      -0.005
      -0.005
      -0.002
       0.004
       0.006
       0.002
      -0.005
      -0.010
      -0.014
      -0.018
      -0.014
      -0.003
       0.006
       0.003
      -0.006
      -0.011
      -0.011
      -0.009
      -0.009
      -0.009
      -0.013
      -0.016
      -0.014
      -0.005
       0.002
       0.002
      -0.001
       0.000
       0.004
       0.005
       0.003
       0.002
       0.003
       0.005
       0.010
       0.014
       0.014
       0.009
       0.006
       0.008
       0.008
       0.000
      -0.012
      -0.017
      -0.013
      -0.005
       0.001
       0.005
       0.005
       0.003
       0.001
       0.000
      -0.003
      -0.010
      -0.013
      -0.008
       0.000
       0.002
      -0.001
       0.000
       0.004
       0.007
       0.007
       0.005
       0.001
      -0.002
      -0.002
       0.003
       0.008
       0.006
       0.000
       0.001
       0.008
       0.015
       0.013
       0.002
      -0.012
      -0.023
      -0.020
      -0.006
       0.005
       0.002
      -0.012
      -0.028
      -0.043
      -0.067
      -0.101
      -0.146
      -0.204
      -0.278
      -0.370
      -0.468
      -0.538
      -0.518
      -0.346
      -0.019
       0.358
       0.635
       0.755
       0.835
       1.067
       1.472
       1.753
       1.449
       0.356
      -1.152
      -2.281
      -2.412
      -1.618
      -0.590
      -0.010
       0.054
       0.136
       0.765
       1.835
       2.594
       2.290
       0.884
      -0.853
      -1.963
      -2.053
      -1.499
      -0.982
      -0.857
      -0.923
      -0.741
      -0.124
       0.693
       1.303
       1.481
       1.277
       0.816
       0.137
      -0.712
      -1.456
      -1.604
      -0.816
       0.680
       2.069
       2.461
       1.587
       0.049
      -1.153
      -1.451
      -1.143
      -1.003
      -1.425
      -1.942
      -1.622
      -0.020
       2.229
       3.779
       3.618
       1.892
      -0.221
      -1.485
      -1.573
      -1.173
      -1.192
      -1.812
      -2.304
      -1.722
       0.140
       2.426
       3.818
       3.529
       1.856
      -0.148
      -1.533
      -2.058
      -2.103
      -2.088
      -1.998
      -1.449
      -0.185
       1.498
       2.848
       3.208
       2.524
       1.340
       0.277
      -0.472
      -1.153
      -1.973
      -2.690
      -2.742
      -1.822
      -0.307
       0.965
       1.362
       0.937
       0.308
       0.116
       0.531
       1.186
       1.505
       1.146
       0.240
      -0.739
      -1.349
      -1.459
      -1.222
      -0.839
      -0.415
      -0.017
       0.265
       0.391
       0.490
       0.750
       1.099
       1.107
       0.388
      -0.796
      -1.491
      -0.886
       0.727
       1.991
       1.720
       0.141
      -1.234
      -1.117
       0.187
       1.037
       0.135
      -2.051
      -3.586
      -2.830
       0.009
       2.977
       4.051
       2.795
       0.532
      -1.020
      -1.228
      -0.763
      -0.575
      -0.856
      -1.040
      -0.665
       0.030
       0.459
       0.481
       0.558
       1.016
       1.336
       0.553
      -1.508
      -3.578
      -3.841
      -1.661
       1.615
       3.710
       3.380
       1.426
      -0.209
      -0.315
       0.566
       0.940
       0.024
      -1.452
      -2.080
      -1.220
       0.426
       1.594
       1.610
       0.784
      -0.125
      -0.635
      -0.762
      -0.738
      -0.686
      -0.553
      -0.214
       0.420
       1.287
       2.044
       2.097
       0.999
      -1.004
      -2.876
      -3.469
      -2.481
      -0.749
       0.499
       0.764
       0.640
       1.042
       2.070
       2.747
       1.998
      -0.100
      -2.146
      -2.638
      -1.403
       0.210
       0.638
      -0.381
      -1.597
      -1.572
      -0.178
       1.312
       1.605
       0.753
       0.025
       0.436
       1.590
       2.105
       1.116
      -0.798
      -2.231
      -2.375
      -1.687
      -1.163
      -1.151
      -1.025
      -0.051
       1.603
       2.863
       2.782
       1.525
       0.227
      -0.114
       0.397
       0.717
      -0.026
      -1.545
      -2.545
      -1.924
       0.094
       2.027
       2.388
       0.986
      -0.944
      -1.870
      -1.308
      -0.141
       0.330
      -0.314
      -1.257
      -1.380
      -0.512
       0.364
       0.220
      -0.777
      -1.317
      -0.334
       1.752
       3.331
       3.198
       1.752
       0.508
       0.440
       0.981
       0.764
      -0.745
      -2.572
      -3.259
      -2.450
      -1.219
      -0.794
      -1.145
      -1.065
       0.324
       2.375
       3.426
       2.524
       0.474
      -0.988
      -0.998
      -0.379
      -0.552
      -1.780
      -2.702
      -1.744
       1.075
       3.886
       4.593
       2.785
       0.010
      -1.799
      -2.110
      -1.984
      -2.578
      -3.646
      -3.705
      -1.683
       1.742
       4.566
       5.238
       3.977
       2.340
       1.568
       1.440
       0.759
      -1.131
      -3.451
      -4.645
      -3.918
      -2.030
      -0.551
      -0.336
      -0.774
      -0.544
       0.914
       2.717
       3.350
       2.169
       0.103
      -1.151
      -0.698
       0.750
       1.582
       0.841
      -0.904
      -2.189
      -2.115
      -1.155
      -0.544
      -0.935
      -1.715
      -1.659
      -0.224
       1.811
       3.035
       2.745
       1.621
       1.017
       1.581
       2.573
       2.592
       0.984
      -1.455
      -3.161
      -3.178
      -1.942
      -0.771
      -0.629
      -1.324
      -1.843
      -1.404
      -0.175
       0.989
       1.438
       1.281
       1.068
       1.041
       0.870
       0.165
      -0.854
      -1.413
      -0.998
      -0.011
       0.554
       0.175
      -0.555
      -0.516
       0.689
       2.180
       2.612
       1.520
      -0.213
      -1.255
      -1.126
      -0.592
      -0.761
      -1.835
      -2.799
      -2.400
      -0.446
       1.901
       3.150
       2.781
       1.520
       0.427
      -0.143
      -0.624
      -1.446
      -2.351
      -2.595
      -1.772
      -0.298
       0.950
       1.447
       1.403
       1.394
       1.700
       2.037
       1.912
       1.188
       0.279
      -0.240
      -0.229
      -0.159
      -0.630
      -1.686
      -2.681
      -2.893
      -2.261
      -1.429
      -1.046
      -1.064
      -0.802
       0.307
       2.042
       3.465
       3.670
       2.538
       0.830
      -0.437
      -0.802
      -0.652
      -0.771
      -1.537
      -2.506
      -2.762
      -1.759
       0.124
       1.870
       2.699
       2.650
       2.276
       1.832
       0.928
      -0.866
      -3.129
      -4.497
      -3.698
      -0.798
       2.618
       4.618
       4.424
       2.867
       1.391
       0.641
      -0.021
      -1.623
      -4.294
      -6.889
      -7.883
      -6.624
      -3.791
      -0.725
       1.627
       3.169
       4.295
       5.267
       5.981
       6.176
       5.703
       4.582
       2.965
       1.149
      -0.422
      -1.352
      -1.605
      -1.623
      -2.027
      -3.101
      -4.495
      -5.441
      -5.331
      -4.161
      -2.470
      -0.847
       0.486
       1.640
       2.684
       3.379
       3.365
       2.593
       1.488
       0.639
       0.326
       0.382
       0.510
       0.667
       1.061
       1.730
       2.234
       1.912
       0.536
      -1.306
      -2.612
      -2.829
      -2.314
      -1.888
      -1.909
      -1.888
      -1.084
       0.548
       2.108
       2.556
       1.755
       0.637
       0.271
       0.764
       1.130
       0.275
      -1.864
      -4.144
      -5.163
      -4.393
      -2.451
      -0.403
       1.106
       2.064
       2.676
       2.941
       2.698
       1.967
       1.119
       0.603
       0.531
       0.579
       0.360
      -0.126
      -0.453
      -0.211
       0.507
       1.090
       0.906
      -0.138
      -1.497
      -2.445
      -2.655
      -2.374
      -2.056
      -1.821
      -1.308
      -0.089
       1.761
       3.500
       4.187
       3.398
       1.572
      -0.324
      -1.501
      -1.808
      -1.581
      -1.130
      -0.449
       0.593
       1.886
       3.012
       3.570
       3.483
       2.973
       2.231
       1.188
      -0.343
      -2.322
      -4.303
      -5.685
      -6.136
      -5.782
      -4.976
      -3.912
      -2.490
      -0.559
       1.713
       3.748
       4.873
       4.778
       3.714
       2.242
       0.807
      -0.463
      -1.596
      -2.498
      -2.885
      -2.491
      -1.336
       0.209
       1.607
       2.445
       2.577
       2.073
       1.090
      -0.150
      -1.282
      -1.827
      -1.440
      -0.203
       1.348
       2.555
       3.032
       2.790
       2.044
       0.934
      -0.515
      -2.207
      -3.775
      -4.630
      -4.275
      -2.642
      -0.214
       2.164
       3.682
       3.930
       3.060
       1.627
       0.222
      -0.835
      -1.540
      -1.987
      -2.141
      -1.852
      -1.050
       0.064
       1.086
       1.657
       1.696
       1.389
       1.000
       0.667
       0.361
      -0.025
      -0.576
      -1.286
      -2.027
      -2.570
      -2.695
      -2.341
      -1.672
      -0.947
      -0.288
       0.409
       1.313
       2.379
       3.258
       3.535
       3.076
       2.138
       1.115
       0.203
      -0.688
      -1.685
      -2.696
      -3.403
      -3.488
      -2.866
      -1.701
      -0.279
       1.112
       2.194
       2.696
       2.464
       1.624
       0.590
      -0.175
      -0.469
      -0.425
      -0.307
      -0.224
      -0.066
       0.303
       0.785
       1.034
       0.726
      -0.096
      -0.961
      -1.310
      -0.960
      -0.246
       0.271
       0.288
      -0.013
      -0.192
      -0.012
       0.295
       0.255
      -0.316
      -1.014
      -1.135
      -0.356
       0.853
       1.535
       1.062
      -0.291
      -1.551
      -1.896
      -1.339
      -0.602
      -0.335
      -0.480
      -0.429
       0.245
       1.282
       1.978
       1.871
       1.160
       0.453
       0.158
       0.154
       0.065
      -0.228
      -0.431
      -0.207
       0.351
       0.747
       0.612
       0.135
      -0.107
       0.190
       0.641
       0.476
      -0.668
      -2.255
      -3.204
      -2.812
      -1.373
       0.111
       0.836
       0.854
       0.875
       1.464
       2.427
       2.972
       2.434
       0.878
      -0.954
      -2.239
      -2.646
      -2.403
      -1.933
      -1.467
      -0.961
      -0.300
       0.485
       1.185
       1.563
       1.534
       1.212
       0.833
       0.615
       0.653
       0.880
       1.087
       1.009
       0.483
      -0.406
      -1.324
      -1.872
      -1.830
      -1.299
      -0.615
      -0.093
       0.196
       0.426
       0.781
       1.188
       1.298
       0.761
      -0.416
      -1.762
      -2.584
      -2.397
      -1.244
       0.331
       1.625
       2.164
       1.919
       1.213
       0.470
      -0.023
      -0.228
      -0.279
      -0.316
      -0.353
      -0.295
      -0.075
       0.240
       0.465
       0.419
       0.047
      -0.540
      -1.123
      -1.482
      -1.470
      -1.059
      -0.355
       0.417
       0.988
       1.182
       1.022
       0.692
       0.394
       0.219
       0.140
       0.093
       0.053
       0.038
       0.052
       0.060
       0.031
       0.000
       0.068
       0.277
       0.500
       0.489
       0.108
      -0.499
      -0.983
      -1.073
      -0.792
      -0.392
      -0.091
       0.127
       0.419
       0.803
       1.020
       0.747
      -0.016
      -0.828
      -1.141
      -0.799
      -0.206
       0.027
      -0.357
      -1.015
      -1.292
      -0.785
       0.330
       1.479
       2.152
       2.225
       1.894
       1.398
       0.836
       0.213
      -0.406
      -0.842
      -0.911
      -0.598
      -0.111
       0.248
       0.293
       0.064
      -0.261
      -0.539
      -0.775
      -1.051
      -1.357
      -1.496
      -1.191
      -0.332
       0.824
       1.733
       1.904
       1.245
       0.130
      -0.896
      -1.487
      -1.651
      -1.583
      -1.372
      -0.888
       0.040
       1.321
       2.514
       3.056
       2.641
       1.423
      -0.108
      -1.433
      -2.241
      -2.452
      -2.106
      -1.277
      -0.122
       1.056
       1.874
       2.062
       1.627
       0.836
       0.023
      -0.604
      -1.027
      -1.312
      -1.460
      -1.350
      -0.878
