Origin Time       6/4/2005 22:29:31   UTC
Lat.              30.5 N 
Long.             79.1 E 
Depth (Km)         10.0
Magnitude         4.3
 Region           Rudraprayag-Uttarakhand                                          
 Above details taken from IMD 
    
Station Code      UTK
Station Lat.       30.730  N
Station Long.      78.445  E
Station Height(m) 1152.0
Site Class        A   Vs30 between 700 m/sec to 1400 m/sec * 
Record Time       06.04.2013 22:29:17.734 UTC
Sampling Rate     200. Hz
 Record Duration   81.365 Sec.
 Direction         N-S (N positive)
Max. Acceleration     -2.717 cm/sec**2
     
  * For reference see Site Classification link of website 
     
 Base Line Corrected and Low Pass Filtered (Cut Off at 35 Hz) Time History
 Acceleration data in cm/sec**2
    
[...]
       0.122
       0.179
       0.185
       0.130
       0.043
      -0.025
      -0.045
      -0.042
      -0.078
      -0.190
      -0.349
      -0.470
      -0.478
      -0.367
      -0.194
      -0.022
       0.118
       0.237
       0.351
       0.456
       0.532
       0.558
       0.518
       0.416
       0.271
       0.111
      -0.030
      -0.134
      -0.199
      -0.235
      -0.253
      -0.256
      -0.248
      -0.233
      -0.223
      -0.225
      -0.228
      -0.213
      -0.169
      -0.095
      -0.001
       0.097
       0.182
       0.231
       0.221
       0.154
       0.059
      -0.016
      -0.044
      -0.033
      -0.017
      -0.015
      -0.018
       0.006
       0.073
       0.170
       0.261
       0.311
       0.301
       0.231
       0.112
      -0.035
      -0.177
      -0.274
      -0.290
      -0.218
      -0.092
       0.034
       0.119
       0.172
       0.221
       0.275
       0.292
       0.212
       0.024
      -0.206
      -0.375
      -0.415
      -0.342
      -0.221
      -0.116
      -0.049
      -0.012
       0.008
       0.014
       0.011
       0.006
       0.009
       0.025
       0.044
       0.054
       0.044
       0.022
       0.006
       0.012
       0.038
       0.064
       0.065
       0.037
       0.005
       0.013
       0.082
       0.189
       0.281
       0.311
       0.266
       0.160
       0.020
      -0.127
      -0.251
      -0.321
      -0.323
      -0.279
      -0.227
      -0.197
      -0.180
      -0.143
      -0.061
       0.058
       0.177
       0.257
       0.275
       0.229
       0.145
       0.065
       0.032
       0.056
       0.103
       0.119
       0.071
      -0.021
      -0.102
      -0.130
      -0.105
      -0.058
      -0.027
      -0.035
      -0.086
      -0.164
      -0.229
      -0.232
      -0.148
      -0.011
       0.107
       0.143
       0.094
       0.011
      -0.046
      -0.059
      -0.051
      -0.048
      -0.041
       0.007
       0.120
       0.279
       0.425
       0.501
       0.482
       0.384
       0.243
       0.086
      -0.081
      -0.249
      -0.387
      -0.450
      -0.408
      -0.288
      -0.162
      -0.101
      -0.120
      -0.163
      -0.149
      -0.036
       0.143
       0.301
       0.355
       0.291
       0.167
       0.070
       0.052
       0.084
       0.082
      -0.022
      -0.216
      -0.404
      -0.476
      -0.379
      -0.154
       0.103
       0.303
       0.407
       0.424
       0.381
       0.302
       0.202
       0.099
       0.004
      -0.087
      -0.184
      -0.286
      -0.360
      -0.361
      -0.268
      -0.110
       0.039
       0.108
       0.067
      -0.060
      -0.216
      -0.333
      -0.354
      -0.253
      -0.056
       0.172
       0.354
       0.450
       0.473
       0.457
       0.426
       0.367
       0.257
       0.091
      -0.100
      -0.262
      -0.350
      -0.343
      -0.251
      -0.110
       0.029
       0.114
       0.118
       0.052
      -0.037
      -0.101
      -0.125
      -0.123
      -0.126
      -0.138
      -0.131
      -0.058
       0.097
       0.295
       0.449
       0.480
       0.370
       0.171
      -0.033
      -0.180
      -0.256
      -0.282
      -0.283
      -0.267
      -0.232
      -0.172
      -0.086
       0.020
       0.133
       0.228
       0.279
       0.273
       0.221
       0.145
       0.067
       0.006
      -0.028
      -0.035
      -0.036
      -0.063
      -0.127
      -0.204
      -0.248
      -0.234
      -0.180
      -0.128
      -0.111
      -0.130
      -0.164
      -0.187
      -0.180
      -0.133
      -0.050
       0.053
       0.158
       0.260
       0.357
       0.441
       0.489
       0.472
       0.384
       0.247
       0.101
      -0.018
      -0.093
      -0.124
      -0.127
      -0.121
      -0.120
      -0.125
      -0.119
      -0.096
      -0.069
      -0.072
      -0.131
      -0.237
      -0.340
      -0.379
      -0.323
      -0.190
      -0.033
       0.099
       0.184
       0.232
       0.263
       0.289
       0.295
       0.255
       0.143
      -0.039
      -0.244
      -0.394
      -0.421
      -0.319
      -0.149
       0.008
       0.114
       0.187
       0.265
       0.354
       0.425
       0.442
       0.397
       0.307
       0.195
       0.077
      -0.030
      -0.110
      -0.152
      -0.166
      -0.175
      -0.192
      -0.205
      -0.188
      -0.136
      -0.070
      -0.020
       0.000
      -0.005
      -0.029
      -0.075
      -0.151
      -0.252
      -0.343
      -0.377
      -0.327
      -0.210
      -0.076
       0.028
       0.095
       0.149
       0.206
       0.250
       0.245
       0.181
       0.100
       0.064
       0.101
       0.182
       0.249
       0.264
       0.220
       0.124
      -0.014
      -0.166
      -0.277
      -0.283
      -0.170
      -0.001
       0.115
       0.113
       0.022
      -0.061
      -0.070
      -0.029
      -0.028
      -0.117
      -0.258
      -0.351
      -0.335
      -0.234
      -0.123
      -0.048
       0.012
       0.107
       0.240
       0.353
       0.375
       0.286
       0.134
      -0.011
      -0.110
      -0.158
      -0.161
      -0.118
      -0.034
       0.063
       0.128
       0.140
       0.121
       0.107
       0.108
       0.095
       0.036
      -0.068
      -0.183
      -0.271
      -0.312
      -0.297
      -0.218
      -0.086
       0.066
       0.189
       0.263
       0.302
       0.327
       0.334
       0.295
       0.204
       0.100
       0.042
       0.047
       0.072
       0.062
       0.005
      -0.053
      -0.062
      -0.023
       0.014
      -0.002
      -0.066
      -0.124
      -0.123
      -0.061
       0.013
       0.034
      -0.028
      -0.156
      -0.298
      -0.397
      -0.419
      -0.367
      -0.274
      -0.176
      -0.087
       0.002
       0.103
       0.202
       0.268
       0.274
       0.214
       0.100
      -0.051
      -0.204
      -0.313
      -0.331
      -0.259
      -0.156
      -0.099
      -0.111
      -0.142
      -0.126
      -0.042
       0.063
       0.135
       0.159
       0.166
       0.193
       0.250
       0.322
       0.392
       0.456
       0.512
       0.546
       0.526
       0.420
       0.228
       0.002
      -0.163
      -0.196
      -0.101
       0.042
       0.141
       0.165
       0.144
       0.121
       0.104
       0.069
       0.001
      -0.100
      -0.238
      -0.427
      -0.660
      -0.873
      -0.974
      -0.904
      -0.695
      -0.433
      -0.186
       0.046
       0.295
       0.557
       0.761
       0.814
       0.681
       0.412
       0.100
      -0.179
      -0.398
      -0.553
      -0.634
      -0.626
      -0.540
      -0.426
      -0.338
      -0.301
      -0.298
      -0.294
      -0.257
      -0.169
      -0.023
       0.169
       0.379
       0.571
       0.723
       0.839
       0.920
       0.945
       0.873
       0.681
       0.403
       0.120
      -0.084
      -0.163
      -0.126
      -0.018
       0.099
       0.162
       0.131
       0.020
      -0.109
      -0.185
      -0.191
      -0.175
      -0.208
      -0.313
      -0.450
      -0.554
      -0.596
      -0.594
      -0.583
      -0.582
      -0.576
      -0.542
      -0.458
      -0.309
      -0.089
       0.185
       0.467
       0.694
       0.808
       0.795
       0.675
       0.492
       0.284
       0.080
      -0.096
      -0.219
      -0.270
      -0.251
      -0.173
      -0.045
       0.123
       0.304
       0.437
       0.462
       0.374
       0.246
       0.176
       0.202
       0.264
       0.260
       0.141
      -0.049
      -0.216
      -0.307
      -0.350
      -0.410
      -0.519
      -0.648
      -0.752
      -0.817
      -0.859
      -0.889
      -0.884
      -0.814
      -0.687
      -0.555
      -0.475
      -0.458
      -0.458
      -0.401
      -0.242
       0.007
       0.283
       0.508
       0.630
       0.653
       0.630
       0.613
       0.603
       0.552
       0.427
       0.267
       0.174
       0.231
       0.414
       0.594
       0.639
       0.515
       0.311
       0.161
       0.154
       0.303
       0.563
       0.869
       1.142
       1.294
       1.262
       1.046
       0.725
       0.403
       0.137
      -0.099
      -0.362
      -0.670
      -0.977
      -1.205
      -1.315
      -1.320
      -1.258
      -1.148
      -0.999
      -0.824
      -0.653
      -0.509
      -0.390
      -0.275
      -0.143
       0.007
       0.164
       0.325
       0.497
       0.684
       0.864
       0.998
       1.057
       1.037
       0.946
       0.789
       0.578
       0.342
       0.109
      -0.131
      -0.427
      -0.820
      -1.265
      -1.647
      -1.862
      -1.901
      -1.834
      -1.719
      -1.532
      -1.192
      -0.666
      -0.028
       0.581
       1.046
       1.330
       1.458
       1.471
       1.404
       1.290
       1.162
       1.040
       0.914
       0.754
       0.536
       0.275
       0.023
      -0.157
      -0.241
      -0.254
      -0.262
      -0.330
      -0.489
      -0.710
      -0.916
      -1.006
      -0.902
      -0.580
      -0.092
       0.455
       0.947
       1.313
       1.539
       1.640
       1.622
       1.465
       1.140
       0.644
       0.025
      -0.622
      -1.186
      -1.585
      -1.789
      -1.815
      -1.700
      -1.469
      -1.131
      -0.693
      -0.194
       0.283
       0.634
       0.772
       0.661
       0.329
      -0.136
      -0.617
      -1.004
      -1.228
      -1.271
      -1.143
      -0.854
      -0.413
       0.134
       0.690
       1.147
       1.454
       1.654
       1.831
       2.013
       2.120
       2.023
       1.654
       1.064
       0.387
      -0.247
      -0.775
      -1.197
      -1.523
      -1.735
      -1.792
      -1.669
      -1.387
      -1.010
      -0.611
      -0.247
       0.056
       0.274
       0.381
       0.358
       0.214
      -0.017
      -0.289
      -0.571
      -0.839
      -1.076
      -1.258
      -1.371
      -1.402
      -1.332
      -1.132
      -0.774
      -0.263
       0.351
       0.977
       1.525
       1.936
       2.205
       2.371
       2.482
       2.549
       2.529
       2.352
       1.973
       1.405
       0.718
       0.011
      -0.613
      -1.072
      -1.328
      -1.382
      -1.257
      -0.976
      -0.557
      -0.046
       0.471
       0.875
       1.072
       1.028
       0.779
       0.383
      -0.112
      -0.671
      -1.246
      -1.752
      -2.087
      -2.182
      -2.040
      -1.720
      -1.293
      -0.820
      -0.352
       0.037
       0.266
       0.290
       0.140
      -0.088
      -0.289
      -0.403
      -0.417
      -0.338
      -0.170
       0.071
       0.331
       0.534
       0.627
       0.625
       0.597
       0.598
       0.621
       0.602
       0.481
       0.253
      -0.027
      -0.275
      -0.411
      -0.383
      -0.179
       0.154
       0.512
       0.773
       0.861
       0.777
       0.582
       0.348
       0.122
      -0.069
      -0.204
      -0.269
      -0.263
      -0.188
      -0.032
       0.217
       0.532
       0.833
       1.011
       1.000
       0.817
       0.531
       0.209
      -0.109
      -0.392
      -0.602
      -0.720
      -0.768
      -0.799
      -0.830
      -0.810
      -0.667
      -0.402
      -0.135
      -0.041
      -0.221
      -0.615
      -1.049
      -1.357
      -1.483
      -1.463
      -1.337
      -1.082
      -0.639
      -0.010
       0.690
       1.274
       1.595
       1.636
       1.491
       1.277
       1.059
       0.849
       0.655
       0.501
       0.413
       0.385
       0.388
       0.398
       0.413
       0.433
       0.425
       0.330
       0.113
      -0.194
      -0.490
      -0.673
      -0.713
      -0.666
      -0.632
      -0.690
      -0.844
      -1.022
      -1.112
      -1.035
      -0.793
      -0.475
      -0.191
      -0.012
       0.072
       0.135
       0.264
       0.511
       0.870
       1.272
       1.617
       1.811
       1.801
       1.591
       1.228
       0.767
       0.242
      -0.326
      -0.898
      -1.388
      -1.681
      -1.701
      -1.460
      -1.065
      -0.662
      -0.371
      -0.252
      -0.296
      -0.446
      -0.618
      -0.743
      -0.804
      -0.845
      -0.930
      -1.079
      -1.218
      -1.209
      -0.939
      -0.403
       0.274
       0.908
       1.372
       1.654
       1.823
       1.934
       1.987
       1.951
       1.831
       1.673
       1.517
       1.332
       1.035
       0.573
      -0.008
      -0.580
      -1.017
      -1.266
      -1.341
      -1.255
      -0.991
      -0.534
       0.062
       0.654
       1.067
       1.182
       0.991
       0.582
       0.080
      -0.418
      -0.866
      -1.251
      -1.571
      -1.805
      -1.907
      -1.828
      -1.543
      -1.084
      -0.539
      -0.025
       0.369
       0.613
       0.744
       0.825
       0.899
       0.956
       0.944
       0.821
       0.598
       0.347
       0.149
       0.046
       0.023
       0.039
       0.074
       0.135
       0.230
       0.340
       0.420
       0.437
       0.405
       0.379
       0.400
       0.448
       0.446
       0.305
      -0.009
      -0.467
      -1.006
      -1.569
      -2.104
      -2.527
      -2.717
      -2.569
      -2.066
      -1.298
      -0.415
       0.445
       1.185
       1.747
       2.101
       2.252
       2.246
       2.135
       1.939
       1.630
       1.180
       0.628
       0.082
      -0.338
      -0.579
      -0.672
      -0.686
      -0.668
      -0.620
      -0.536
      -0.426
      -0.324
      -0.263
      -0.257
      -0.303
      -0.385
      -0.486
      -0.595
      -0.711
      -0.830
      -0.936
      -0.997
      -0.982
      -0.878
      -0.697
      -0.465
      -0.198
       0.102
       0.442
       0.809
       1.162
       1.432
       1.550
       1.489
       1.285
       1.030
       0.827
       0.739
       0.761
       0.834
       0.876
       0.830
       0.681
       0.454
       0.200
      -0.034
      -0.216
      -0.330
      -0.373
      -0.353
      -0.299
      -0.281
      -0.394
      -0.701
      -1.174
      -1.678
      -2.038
      -2.135
      -1.969
      -1.636
      -1.260
      -0.922
      -0.632
      -0.357
      -0.081
       0.171
       0.343
       0.412
       0.420
       0.456
       0.591
       0.816
       1.052
       1.225
       1.323
       1.369
       1.360
       1.231
       0.915
       0.430
      -0.096
      -0.492
      -0.654
      -0.588
      -0.381
      -0.122
       0.128
       0.333
       0.467
       0.511
       0.460
       0.317
       0.077
      -0.259
      -0.660
      -1.043
      -1.296
      -1.343
      -1.190
      -0.920
      -0.624
      -0.341
      -0.049
       0.277
       0.605
       0.848
       0.930
       0.852
       0.698
       0.584
       0.572
       0.631
       0.671
       0.616
       0.461
       0.273
       0.140
       0.104
       0.135
       0.150
       0.077
      -0.088
      -0.267
      -0.348
      -0.271
      -0.071
       0.133
       0.220
       0.138
      -0.072
      -0.326
      -0.559
      -0.752
      -0.904
      -0.997
      -1.010
      -0.956
      -0.899
      -0.908
      -0.989
      -1.049
      -0.962
      -0.676
      -0.264
       0.131
       0.399
       0.533
       0.601
       0.674
       0.759
       0.819
       0.820
       0.776
       0.741
       0.766
       0.849
       0.936
       0.958
       0.886
       0.743
       0.568
       0.372
       0.130
      -0.165
      -0.470
      -0.705
      -0.818
      -0.818
      -0.752
      -0.655
      -0.525
      -0.355
      -0.173
      -0.036
       0.016
      -0.009
      -0.067
      -0.127
      -0.192
      -0.274
      -0.367
      -0.436
      -0.444
      -0.381
      -0.270
      -0.138
       0.000
       0.132
       0.238
       0.290
       0.279
       0.218
       0.138
       0.066
       0.015
      -0.009
      -0.004
       0.030
       0.080
       0.118
       0.117
       0.075
       0.020
      -0.005
       0.025
       0.102
       0.205
       0.317
       0.437
       0.569
       0.704
       0.809
       0.848
       0.806
       0.690
       0.515
       0.286
      -0.001
      -0.338
      -0.683
      -0.978
      -1.176
      -1.265
      -1.262
      -1.181
      -1.028
      -0.814
      -0.579
      -0.378
      -0.243
      -0.160
      -0.095
      -0.043
      -0.045
      -0.135
      -0.285
      -0.396
      -0.362
      -0.144
       0.206
       0.585
       0.907
       1.128
       1.245
       1.274
       1.236
       1.152
       1.036
       0.881
       0.674
       0.411
       0.115
      -0.172
      -0.419
      -0.614
      -0.751
      -0.816
      -0.787
      -0.667
      -0.499
      -0.350
      -0.275
      -0.281
      -0.338
      -0.406
      -0.456
      -0.472
      -0.432
      -0.315
      -0.115
       0.131
       0.353
       0.487
       0.516
       0.483
       0.446
       0.436
       0.425
       0.362
       0.224
       0.048
      -0.096
      -0.169
      -0.192
      -0.212
      -0.241
      -0.230
      -0.124
       0.066
       0.257
       0.350
       0.312
       0.184
       0.021
      -0.162
      -0.379
      -0.615
      -0.788
      -0.803
      -0.628
      -0.335
      -0.044
       0.157
       0.262
       0.314
       0.351
       0.378
       0.377
       0.335
       0.265
       0.183
       0.101
       0.020
      -0.053
      -0.103
      -0.118
      -0.101
      -0.075
      -0.067
      -0.085
      -0.116
      -0.122
      -0.070
       0.049
       0.205
       0.347
       0.437
       0.469
       0.458
       0.414
       0.327
       0.190
       0.020
      -0.130
      -0.213
      -0.223
      -0.206
      -0.213
      -0.256
      -0.298
      -0.288
      -0.208
      -0.090
       0.014
       0.075
       0.104
       0.137
       0.191
       0.243
       0.243
       0.146
      -0.060
      -0.348
      -0.656
      -0.907
      -1.028
      -0.972
      -0.740
      -0.386
      -0.004
       0.316
       0.534
       0.669
       0.758
       0.803
       0.758
       0.566
       0.225
      -0.194
      -0.574
      -0.809
      -0.844
      -0.683
      -0.378
      -0.013
       0.326
       0.580
       0.742
       0.842
       0.896
       0.878
       0.744
       0.485
       0.158
      -0.136
      -0.315
      -0.368
      -0.350
      -0.336
      -0.371
      -0.437
      -0.474
      -0.419
      -0.269
      -0.090
       0.016
      -0.014
      -0.156
      -0.318
      -0.407
      -0.384
      -0.259
      -0.064
       0.165
       0.386
       0.537
       0.568
       0.473
       0.312
       0.166
       0.079
       0.024
      -0.049
      -0.145
      -0.201
      -0.140
       0.041
       0.256
       0.396
       0.410
       0.338
       0.242
       0.144
       0.010
      -0.191
      -0.439
      -0.663
      -0.789
      -0.796
      -0.715
