Origin Time       6/4/2005 22:29:31  
Lat.              30.5 N 
Long.             79.1 E 
Depth (Km)         10.0
Magnitude         4.3
 Region           Rudraprayag-Uttarakhand                                          
 Above details taken from IMD 
     
Station Code      UTK
Station Lat.       30.730  N
Station Long.      78.445  E
Station Height(m) 1152.0
Site Class        A   Vs30 between 700 m/sec to 1400 m/sec * 
Record Time       06.04.2013 22:29:17.734
Sampling Rate     200. Hz
 Record Duration   81.365 Sec.
 Direction         E-W (E positive)
Max. Acceleration      2.565 cm/sec**2
     
  * For reference see Site Classification link of website 
     
 Base Line Corrected and Low Pass Filtered (Cut Off at 35 Hz) Time History
 Acceleration data in cm/sec**2
    
[...]
       0.154
       0.217
       0.275
       0.291
       0.236
       0.121
      -0.013
      -0.129
      -0.221
      -0.312
      -0.415
      -0.507
      -0.540
      -0.482
      -0.335
      -0.137
       0.073
       0.263
       0.416
       0.516
       0.549
       0.513
       0.424
       0.308
       0.189
       0.080
      -0.018
      -0.107
      -0.190
      -0.267
      -0.331
      -0.361
      -0.332
      -0.231
      -0.070
       0.104
       0.231
       0.266
       0.210
       0.105
       0.010
      -0.036
      -0.036
      -0.028
      -0.049
      -0.097
      -0.123
      -0.072
       0.068
       0.243
       0.372
       0.400
       0.331
       0.207
       0.066
      -0.084
      -0.250
      -0.427
      -0.581
      -0.666
      -0.658
      -0.569
      -0.433
      -0.276
      -0.096
       0.118
       0.351
       0.545
       0.640
       0.615
       0.514
       0.406
       0.325
       0.246
       0.121
      -0.058
      -0.243
      -0.362
      -0.383
      -0.328
      -0.245
      -0.159
      -0.061
       0.064
       0.201
       0.298
       0.312
       0.250
       0.164
       0.108
       0.083
       0.042
      -0.059
      -0.207
      -0.332
      -0.360
      -0.271
      -0.124
      -0.004
       0.043
       0.036
       0.024
       0.035
       0.055
       0.060
       0.044
       0.029
       0.033
       0.052
       0.066
       0.065
       0.061
       0.072
       0.098
       0.109
       0.069
      -0.034
      -0.170
      -0.280
      -0.314
      -0.268
      -0.181
      -0.107
      -0.072
      -0.058
      -0.024
       0.055
       0.162
       0.246
       0.261
       0.209
       0.133
       0.076
       0.049
       0.035
       0.024
       0.027
       0.059
       0.106
       0.134
       0.112
       0.047
      -0.020
      -0.050
      -0.041
      -0.019
      -0.013
      -0.027
      -0.041
      -0.040
      -0.025
      -0.008
       0.005
       0.020
       0.041
       0.056
       0.037
      -0.029
      -0.123
      -0.195
      -0.210
      -0.179
      -0.149
      -0.160
      -0.200
      -0.211
      -0.143
       0.003
       0.165
       0.267
       0.274
       0.221
       0.178
       0.196
       0.265
       0.316
       0.279
       0.139
      -0.044
      -0.168
      -0.168
      -0.058
       0.073
       0.133
       0.089
      -0.017
      -0.109
      -0.135
      -0.106
      -0.075
      -0.091
      -0.161
      -0.249
      -0.305
      -0.296
      -0.221
      -0.101
       0.030
       0.144
       0.226
       0.278
       0.308
       0.319
       0.305
       0.260
       0.186
       0.107
       0.046
       0.008
      -0.029
      -0.093
      -0.186
      -0.274
      -0.316
      -0.295
      -0.230
      -0.160
      -0.109
      -0.076
      -0.044
      -0.002
       0.047
       0.089
       0.106
       0.095
       0.060
       0.019
      -0.013
      -0.029
      -0.037
      -0.050
      -0.065
      -0.057
       0.004
       0.128
       0.283
       0.402
       0.425
       0.340
       0.190
       0.044
      -0.051
      -0.098
      -0.136
      -0.195
      -0.269
      -0.317
      -0.302
      -0.221
      -0.108
       0.000
       0.080
       0.133
       0.160
       0.159
       0.124
       0.054
      -0.041
      -0.131
      -0.185
      -0.191
      -0.167
      -0.151
      -0.171
      -0.211
      -0.223
      -0.158
      -0.007
       0.194
       0.385
       0.515
       0.558
       0.517
       0.411
       0.272
       0.128
      -0.004
      -0.118
      -0.219
      -0.299
      -0.343
      -0.334
      -0.270
      -0.166
      -0.051
       0.052
       0.134
       0.193
       0.228
       0.234
       0.207
       0.160
       0.115
       0.093
       0.083
       0.044
      -0.068
      -0.250
      -0.442
      -0.551
      -0.517
      -0.357
      -0.156
      -0.004
       0.059
       0.065
       0.075
       0.129
       0.211
       0.270
       0.257
       0.164
       0.033
      -0.074
      -0.105
      -0.049
       0.055
       0.140
       0.159
       0.114
       0.056
       0.031
       0.045
       0.058
       0.027
      -0.053
      -0.140
      -0.183
      -0.162
      -0.101
      -0.042
      -0.018
      -0.030
      -0.055
      -0.062
      -0.024
       0.062
       0.164
       0.228
       0.214
       0.129
       0.020
      -0.063
      -0.105
      -0.127
      -0.152
      -0.172
      -0.154
      -0.080
       0.018
       0.077
       0.057
      -0.018
      -0.085
      -0.100
      -0.081
      -0.086
      -0.148
      -0.231
      -0.259
      -0.180
      -0.007
       0.188
       0.333
       0.394
       0.383
       0.334
       0.278
       0.229
       0.182
       0.121
       0.032
      -0.078
      -0.169
      -0.185
      -0.106
       0.022
       0.098
       0.042
      -0.128
      -0.296
      -0.339
      -0.233
      -0.076
      -0.005
      -0.067
      -0.177
      -0.196
      -0.071
       0.114
       0.213
       0.154
      -0.001
      -0.123
      -0.134
      -0.067
      -0.016
      -0.037
      -0.105
      -0.152
      -0.131
      -0.050
       0.053
       0.146
       0.212
       0.235
       0.200
       0.108
      -0.010
      -0.112
      -0.168
      -0.182
      -0.181
      -0.189
      -0.210
      -0.218
      -0.175
      -0.063
       0.090
       0.221
       0.272
       0.240
       0.185
       0.171
       0.209
       0.236
       0.179
       0.029
      -0.140
      -0.235
      -0.223
      -0.157
      -0.111
      -0.098
      -0.058
       0.077
       0.295
       0.495
       0.569
       0.489
       0.336
       0.224
       0.207
       0.235
       0.205
       0.052
      -0.194
      -0.431
      -0.566
      -0.577
      -0.505
      -0.409
      -0.305
      -0.177
      -0.015
       0.152
       0.280
       0.342
       0.342
       0.293
       0.184
       0.002
      -0.231
      -0.442
      -0.551
      -0.530
      -0.419
      -0.280
      -0.134
       0.049
       0.305
       0.618
       0.906
       1.067
       1.044
       0.859
       0.579
       0.266
      -0.050
      -0.365
      -0.669
      -0.927
      -1.090
      -1.125
      -1.031
      -0.830
      -0.551
      -0.218
       0.139
       0.471
       0.723
       0.848
       0.829
       0.674
       0.423
       0.142
      -0.089
      -0.216
      -0.249
      -0.253
      -0.294
      -0.367
      -0.395
      -0.287
      -0.035
       0.267
       0.486
       0.548
       0.482
       0.373
       0.273
       0.174
       0.033
      -0.161
      -0.370
      -0.542
      -0.656
      -0.729
      -0.776
      -0.787
      -0.734
      -0.604
      -0.414
      -0.201
       0.007
       0.198
       0.376
       0.543
       0.696
       0.821
       0.898
       0.905
       0.830
       0.686
       0.515
       0.365
       0.266
       0.215
       0.187
       0.159
       0.119
       0.064
      -0.004
      -0.077
      -0.150
      -0.229
      -0.331
      -0.461
      -0.599
      -0.701
      -0.731
      -0.693
      -0.631
      -0.594
      -0.602
      -0.633
      -0.640
      -0.575
      -0.410
      -0.154
       0.153
       0.444
       0.656
       0.754
       0.749
       0.683
       0.594
       0.496
       0.383
       0.256
       0.139
       0.073
       0.090
       0.190
       0.342
       0.498
       0.611
       0.641
       0.573
       0.415
       0.193
      -0.068
      -0.366
      -0.704
      -1.054
      -1.335
      -1.443
      -1.324
      -1.023
      -0.669
      -0.380
      -0.191
      -0.043
       0.138
       0.358
       0.553
       0.653
       0.654
       0.615
       0.594
       0.593
       0.570
       0.498
       0.397
       0.319
       0.294
       0.298
       0.271
       0.174
       0.020
      -0.136
      -0.246
      -0.308
      -0.357
      -0.420
      -0.486
      -0.501
      -0.430
      -0.302
      -0.216
      -0.275
      -0.504
      -0.820
      -1.090
      -1.227
      -1.244
      -1.208
      -1.155
      -1.047
      -0.807
      -0.399
       0.135
       0.694
       1.190
       1.575
       1.828
       1.924
       1.846
       1.617
       1.317
       1.051
       0.884
       0.808
       0.755
       0.650
       0.457
       0.195
      -0.077
      -0.297
      -0.434
      -0.507
      -0.566
      -0.658
      -0.801
      -0.979
      -1.142
      -1.214
      -1.119
      -0.831
      -0.410
       0.013
       0.316
       0.452
       0.481
       0.499
       0.561
       0.639
       0.664
       0.607
       0.516
       0.475
       0.518
       0.590
       0.602
       0.522
       0.415
       0.380
       0.446
       0.531
       0.512
       0.329
       0.028
      -0.284
      -0.536
      -0.719
      -0.861
      -0.964
      -0.998
      -0.936
      -0.794
      -0.632
      -0.510
      -0.452
      -0.446
      -0.486
      -0.582
      -0.756
      -0.989
      -1.213
      -1.337
      -1.301
      -1.104
      -0.786
      -0.394
       0.036
       0.472
       0.869
       1.189
       1.421
       1.578
       1.665
       1.637
       1.403
       0.901
       0.175
      -0.609
      -1.234
      -1.556
      -1.576
      -1.414
      -1.202
      -0.992
      -0.733
      -0.346
       0.185
       0.776
       1.294
       1.631
       1.750
       1.671
       1.437
       1.085
       0.653
       0.188
      -0.241
      -0.557
      -0.698
      -0.644
      -0.431
      -0.131
       0.187
       0.495
       0.809
       1.132
       1.410
       1.537
       1.424
       1.076
       0.595
       0.114
      -0.285
      -0.601
      -0.875
      -1.132
      -1.347
      -1.471
      -1.472
      -1.359
      -1.168
      -0.918
      -0.599
      -0.208
       0.208
       0.538
       0.661
       0.534
       0.228
      -0.115
      -0.369
      -0.492
      -0.513
      -0.469
      -0.364
      -0.161
       0.161
       0.573
       0.991
       1.316
       1.478
       1.452
       1.235
       0.840
       0.306
      -0.289
      -0.850
      -1.301
      -1.624
      -1.833
      -1.929
      -1.881
      -1.650
      -1.241
      -0.727
      -0.219
       0.189
       0.463
       0.618
       0.688
       0.691
       0.614
       0.443
       0.196
      -0.053
      -0.207
      -0.203
      -0.060
       0.143
       0.324
       0.460
       0.601
       0.803
       1.064
       1.307
       1.449
       1.482
       1.491
       1.568
       1.700
       1.757
       1.571
       1.070
       0.325
      -0.490
      -1.199
      -1.696
      -1.949
      -1.979
      -1.840
      -1.609
      -1.362
      -1.118
      -0.823
      -0.398
       0.162
       0.734
       1.116
       1.161
       0.884
       0.458
       0.087
      -0.121
      -0.198
      -0.258
      -0.385
      -0.568
      -0.714
      -0.714
      -0.516
      -0.163
       0.231
       0.551
       0.738
       0.795
       0.742
       0.580
       0.293
      -0.106
      -0.543
      -0.912
      -1.139
      -1.216
      -1.188
      -1.108
      -1.009
      -0.904
      -0.794
      -0.661
      -0.479
      -0.233
       0.058
       0.349
       0.605
       0.822
       1.017
       1.180
       1.257
       1.185
       0.953
       0.629
       0.314
       0.067
      -0.114
      -0.249
      -0.307
      -0.198
       0.144
       0.664
       1.171
       1.445
       1.371
       1.009
       0.531
       0.088
      -0.272
      -0.586
      -0.891
      -1.170
      -1.366
      -1.436
      -1.377
      -1.197
      -0.891
      -0.461
       0.042
       0.499
       0.781
       0.834
       0.712
       0.529
       0.359
       0.180
      -0.081
      -0.456
      -0.868
      -1.160
      -1.189
      -0.935
      -0.509
      -0.083
       0.232
       0.434
       0.595
       0.770
       0.949
       1.076
       1.109
       1.049
       0.930
       0.772
       0.571
       0.322
       0.051
      -0.187
      -0.342
      -0.415
      -0.459
      -0.523
      -0.606
      -0.660
      -0.637
      -0.546
      -0.445
      -0.398
      -0.420
      -0.460
      -0.438
      -0.306
      -0.101
       0.065
       0.073
      -0.113
      -0.411
      -0.665
      -0.747
      -0.630
      -0.394
      -0.157
       0.007
       0.119
       0.258
       0.481
       0.764
       1.027
       1.212
       1.334
       1.442
       1.540
       1.548
       1.358
       0.941
       0.401
      -0.088
      -0.414
      -0.609
      -0.794
      -1.041
      -1.278
      -1.348
      -1.146
      -0.725
      -0.264
       0.058
       0.173
       0.138
       0.061
       0.011
      -0.016
      -0.062
      -0.152
      -0.272
      -0.374
      -0.410
      -0.348
      -0.173
       0.108
       0.468
       0.858
       1.218
       1.494
       1.652
       1.661
       1.490
       1.113
       0.551
      -0.102
      -0.699
      -1.121
      -1.339
      -1.413
      -1.412
      -1.337
      -1.126
      -0.737
      -0.231
       0.232
       0.474
       0.411
       0.089
      -0.356
      -0.793
      -1.150
      -1.423
      -1.626
      -1.760
      -1.798
      -1.697
      -1.414
      -0.911
      -0.192
       0.669
       1.519
       2.178
       2.526
       2.565
       2.393
       2.124
       1.812
       1.444
       0.994
       0.472
      -0.064
      -0.545
      -0.910
      -1.114
      -1.119
      -0.908
      -0.509
       0.002
       0.514
       0.926
       1.171
       1.213
       1.043
       0.676
       0.157
      -0.444
      -1.054
      -1.618
      -2.090
      -2.424
      -2.558
      -2.430
      -2.009
      -1.320
      -0.460
       0.429
       1.205
       1.771
       2.096
       2.206
       2.146
       1.950
       1.631
       1.195
       0.663
       0.094
      -0.421
      -0.785
      -0.923
      -0.817
      -0.519
      -0.140
       0.200
       0.418
       0.498
       0.464
       0.341
       0.132
      -0.168
      -0.530
      -0.883
      -1.134
      -1.229
      -1.183
      -1.064
      -0.932
      -0.784
      -0.560
      -0.218
       0.202
       0.573
       0.768
       0.751
       0.605
       0.459
       0.392
       0.373
       0.301
       0.101
      -0.202
      -0.487
      -0.626
      -0.580
      -0.422
      -0.271
      -0.180
      -0.095
       0.084
       0.386
       0.722
       0.946
       0.981
       0.877
       0.752
       0.679
       0.625
       0.506
       0.285
       0.011
      -0.222
      -0.354
      -0.389
      -0.376
      -0.359
      -0.363
      -0.394
      -0.457
      -0.546
      -0.634
      -0.680
      -0.656
      -0.572
      -0.462
      -0.362
      -0.282
      -0.211
      -0.141
      -0.088
      -0.076
      -0.104
      -0.126
      -0.076
       0.083
       0.312
       0.516
       0.614
       0.608
       0.590
       0.661
       0.851
       1.077
       1.202
       1.132
       0.881
       0.553
       0.262
       0.050
      -0.118
      -0.299
      -0.499
      -0.663
      -0.724
      -0.670
      -0.557
      -0.454
      -0.378
      -0.289
      -0.143
       0.031
       0.135
       0.077
      -0.137
      -0.394
      -0.555
      -0.566
      -0.491
      -0.433
      -0.436
      -0.449
      -0.400
      -0.280
      -0.154
      -0.099
      -0.121
      -0.148
      -0.103
       0.027
       0.176
       0.264
       0.259
       0.208
       0.180
       0.213
       0.285
       0.344
       0.353
       0.309
       0.226
       0.106
      -0.052
      -0.223
      -0.339
      -0.317
      -0.124
       0.189
       0.518
       0.781
       0.962
       1.090
       1.178
       1.183
       1.031
       0.686
       0.190
      -0.354
      -0.840
      -1.207
      -1.448
      -1.587
      -1.641
      -1.611
      -1.480
      -1.232
      -0.871
      -0.431
       0.026
       0.440
       0.774
       1.021
       1.177
       1.232
       1.173
       1.003
       0.758
       0.497
       0.271
       0.100
      -0.028
      -0.121
      -0.169
      -0.147
      -0.050
       0.090
       0.214
       0.280
       0.285
       0.263
       0.245
       0.230
       0.183
       0.066
      -0.132
      -0.386
      -0.656
      -0.904
      -1.106
      -1.237
      -1.269
      -1.185
      -0.985
      -0.695
      -0.347
       0.022
       0.366
       0.614
       0.691
       0.565
       0.286
      -0.028
      -0.258
      -0.361
      -0.382
      -0.393
      -0.417
      -0.403
      -0.275
       0.005
       0.403
       0.836
       1.218
       1.492
       1.629
       1.622
       1.465
       1.164
       0.739
       0.237
      -0.261
      -0.662
      -0.891
      -0.937
      -0.853
      -0.716
      -0.569
      -0.398
      -0.169
       0.118
       0.400
       0.577
       0.582
       0.418
       0.152
      -0.130
      -0.359
      -0.501
      -0.543
      -0.495
      -0.384
      -0.253
      -0.136
      -0.037
       0.064
       0.185
       0.311
       0.382
       0.329
       0.139
      -0.117
      -0.323
      -0.401
      -0.372
      -0.322
      -0.318
      -0.335
      -0.283
      -0.113
       0.117
       0.274
       0.262
       0.104
      -0.081
      -0.189
      -0.209
      -0.205
      -0.229
      -0.258
      -0.222
      -0.076
       0.152
       0.385
       0.555
       0.636
       0.630
       0.540
       0.369
       0.149
      -0.048
      -0.142
      -0.105
       0.007
       0.088
       0.056
      -0.089
      -0.274
      -0.399
      -0.408
      -0.309
      -0.152
       0.017
       0.181
       0.339
       0.481
       0.577
       0.598
       0.547
       0.450
       0.328
       0.166
      -0.068
      -0.378
      -0.701
      -0.932
      -0.998
      -0.915
      -0.772
      -0.649
      -0.552
      -0.418
      -0.194
       0.098
       0.363
       0.507
       0.501
       0.388
       0.235
       0.083
      -0.062
      -0.202
      -0.321
      -0.387
      -0.378
      -0.301
      -0.181
      -0.027
       0.172
       0.420
       0.670
       0.828
       0.813
       0.625
       0.363
       0.158
       0.083
       0.109
       0.144
       0.118
       0.030
      -0.064
      -0.098
      -0.049
       0.053
       0.148
       0.176
       0.115
      -0.015
      -0.165
      -0.285
      -0.354
      -0.382
      -0.393
      -0.405
      -0.413
      -0.397
      -0.338
      -0.236
      -0.109
       0.011
       0.101
       0.159
       0.198
       0.225
       0.231
       0.199
       0.136
       0.077
       0.061
       0.097
       0.150
       0.172
       0.138
       0.066
      -0.008
      -0.061
      -0.099
      -0.134
      -0.162
      -0.158
      -0.113
      -0.053
      -0.024
      -0.050
      -0.101
      -0.113
      -0.053
       0.050
       0.124
       0.120
       0.048
      -0.033
      -0.078
      -0.091
      -0.107
      -0.143
      -0.174
      -0.159
      -0.086
       0.006
