Origin Time       27/11/2012 12:15:15
Lat.              30.9 N	
Long.             78.4 E	
Depth (Km)         12.0
Magnitude         4.8
 Region           Uttarkashi-Uttarakhand                                           
 Above details taken from IMD 
   
Station Code      UTK
Station Lat.       30.730
Station Long.      78.445
Station Height(m) 1152.0
Site Class        A   Vs30 between 700 m/sec to 1400 m/sec * 
Record Time       27.11.2012 12:14:49.809
Sampling Rate     200. Hz
 Record Duration  100.880 Sec.
 Direction         Vert. (Up positive)
Max. Acceleration     40.022 cm/sec**2
     
  * For reference see Site Classification link of website 
     
 Base Line Corrected and Low Pass Filtered (Cut Off at 35 Hz) Time History
 Acceleration data in cm/sec**2
    
[...]
      -0.007
      -0.033
      -0.025
       0.012
       0.041
       0.026
      -0.025
      -0.070
      -0.062
      -0.003
       0.058
       0.068
       0.026
      -0.019
      -0.033
      -0.021
      -0.008
      -0.003
       0.004
       0.019
       0.031
       0.028
       0.005
      -0.024
      -0.034
      -0.016
       0.005
      -0.002
      -0.033
      -0.050
      -0.027
       0.016
       0.035
       0.013
      -0.027
      -0.048
      -0.027
       0.021
       0.050
       0.029
      -0.022
      -0.049
      -0.023
       0.025
       0.044
       0.018
      -0.026
      -0.049
      -0.031
       0.009
       0.034
       0.021
      -0.009
      -0.020
      -0.002
       0.014
       0.000
      -0.032
      -0.046
      -0.025
       0.016
       0.046
       0.042
       0.005
      -0.034
      -0.044
      -0.022
       0.003
       0.008
      -0.005
      -0.017
      -0.017
      -0.005
       0.012
       0.022
       0.011
      -0.022
      -0.054
      -0.058
      -0.030
       0.013
       0.050
       0.057
       0.024
      -0.035
      -0.078
      -0.074
      -0.034
       0.007
       0.024
       0.016
      -0.004
      -0.019
      -0.021
      -0.014
      -0.010
      -0.009
       0.002
       0.029
       0.048
       0.035
      -0.002
      -0.033
      -0.037
      -0.016
       0.009
       0.019
       0.004
      -0.023
      -0.034
      -0.017
       0.010
       0.023
       0.018
       0.008
      -0.002
      -0.013
      -0.025
      -0.031
      -0.028
      -0.020
      -0.007
       0.006
       0.010
       0.004
       0.001
       0.011
       0.023
       0.017
      -0.003
      -0.020
      -0.022
      -0.015
      -0.007
       0.000
       0.003
       0.000
      -0.007
      -0.018
      -0.034
      -0.049
      -0.040
      -0.001
       0.042
       0.054
       0.031
       0.002
      -0.009
      -0.003
      -0.001
      -0.019
      -0.050
      -0.067
      -0.044
       0.013
       0.059
       0.056
       0.015
      -0.018
      -0.014
       0.012
       0.028
       0.018
      -0.012
      -0.038
      -0.041
      -0.020
       0.004
       0.011
       0.003
       0.000
       0.003
       0.001
      -0.008
      -0.016
      -0.017
      -0.017
      -0.017
      -0.008
       0.011
       0.030
       0.033
       0.018
      -0.009
      -0.031
      -0.029
      -0.001
       0.025
       0.019
      -0.013
      -0.030
      -0.007
       0.039
       0.062
       0.034
      -0.034
      -0.097
      -0.109
      -0.055
       0.027
       0.082
       0.085
       0.050
       0.005
      -0.036
      -0.060
      -0.058
      -0.031
       0.004
       0.028
       0.035
       0.024
       0.000
      -0.024
      -0.034
      -0.029
      -0.019
      -0.007
       0.009
       0.025
       0.028
       0.015
       0.001
      -0.001
       0.000
      -0.007
      -0.021
      -0.033
      -0.039
      -0.039
      -0.032
      -0.017
       0.000
       0.016
       0.032
       0.035
       0.014
      -0.018
      -0.034
      -0.020
       0.006
       0.016
       0.008
      -0.001
       0.004
       0.020
       0.033
       0.030
       0.010
      -0.010
      -0.014
      -0.010
      -0.021
      -0.046
      -0.056
      -0.027
       0.015
       0.027
      -0.008
      -0.055
      -0.063
      -0.013
       0.061
       0.091
       0.040
      -0.055
      -0.109
      -0.074
       0.012
       0.070
       0.062
       0.013
      -0.028
      -0.037
      -0.025
      -0.017
      -0.023
      -0.028
      -0.010
       0.020
       0.026
      -0.008
      -0.048
      -0.048
      -0.008
       0.026
       0.017
      -0.027
      -0.061
      -0.044
       0.021
       0.084
       0.088
       0.027
      -0.040
      -0.056
      -0.024
       0.005
      -0.009
      -0.052
      -0.078
      -0.048
       0.033
       0.110
       0.123
       0.064
      -0.008
      -0.021
       0.041
       0.134
       0.201
       0.225
       0.252
       0.356
       0.577
       0.841
       0.960
       0.741
       0.149
      -0.622
      -1.237
      -1.408
      -1.079
      -0.461
       0.121
       0.466
       0.641
       0.892
       1.395
       2.079
       2.640
       2.748
       2.259
       1.296
       0.156
      -0.864
      -1.565
      -1.830
      -1.597
      -0.932
      -0.121
       0.396
       0.282
      -0.430
      -1.310
      -1.820
      -1.707
      -1.183
      -0.712
      -0.579
      -0.666
      -0.645
      -0.360
       0.014
       0.241
       0.397
       0.889
       2.004
       3.396
       4.118
       3.321
       1.041
      -1.707
      -3.686
      -4.382
      -4.246
      -4.074
      -4.161
      -4.062
      -3.145
      -1.287
       1.004
       3.086
       4.661
       5.598
       5.362
       2.956
      -2.090
      -8.443
     -12.967
     -12.616
      -6.933
       1.144
       7.210
       8.644
       6.428
       3.945
       3.817
       5.598
       6.357
       3.582
      -2.261
      -7.783
      -9.242
      -5.401
       1.649
       8.140
      11.207
      10.396
       7.244
       3.689
       0.757
      -1.615
      -3.890
      -6.219
      -8.210
      -9.157
      -8.364
      -5.443
      -0.644
       4.803
       8.734
       8.988
       5.018
      -1.101
      -5.631
      -5.889
      -2.502
       1.081
       1.726
      -0.423
      -2.145
      -0.536
       3.719
       6.639
       4.813
      -0.946
      -5.979
      -6.084
      -1.543
       3.170
       3.765
       0.227
      -3.416
      -3.299
       0.383
       3.659
       2.855
      -1.696
      -5.971
      -6.202
      -2.449
       1.670
       2.648
       0.328
      -2.410
      -2.881
      -1.202
       0.325
       0.070
      -1.127
      -1.117
       0.903
       3.328
       3.887
       2.255
       0.531
       0.906
       3.056
       4.310
       2.708
      -0.353
      -1.053
       2.895
       9.331
      13.091
      10.671
       3.484
      -3.583
      -6.795
      -6.605
      -6.161
      -7.210
      -7.984
      -5.304
       1.492
       9.070
      12.699
      10.294
       3.923
      -2.475
      -6.570
      -8.889
     -11.003
     -13.005
     -13.067
      -9.443
      -2.695
       4.208
       8.120
       8.070
       5.479
       2.240
      -1.115
      -5.148
      -9.610
     -12.365
     -10.845
      -4.832
       2.454
       6.582
       5.648
       1.827
      -0.943
      -0.902
       0.086
      -0.844
      -3.731
      -5.082
      -1.413
       6.570
      13.729
      14.871
       9.483
       2.005
      -2.629
      -3.501
      -3.600
      -5.493
      -7.782
      -6.439
       0.356
       9.270
      14.259
      12.111
       5.414
      -0.096
      -1.073
       0.623
       0.488
      -3.545
      -8.762
     -10.301
      -5.936
       1.813
       8.067
       9.767
       7.539
       4.021
       1.076
      -1.137
      -2.924
      -3.860
      -3.290
      -1.673
      -0.696
      -1.603
      -3.600
      -4.363
      -2.427
       1.025
       3.029
       1.662
      -2.010
      -4.886
      -4.750
      -2.240
       0.047
       0.246
      -1.074
      -1.831
      -0.806
       1.083
       1.835
       0.546
      -1.558
      -2.242
      -0.451
       2.521
       4.026
       2.440
      -1.205
      -3.900
      -3.226
       0.436
       4.109
       4.759
       1.961
      -1.721
      -2.986
      -0.664
       3.454
       6.526
       7.319
       6.918
       6.909
       7.223
       6.112
       2.296
      -3.167
      -7.438
      -8.400
      -6.522
      -4.156
      -3.060
      -2.773
      -1.545
       1.270
       4.030
       4.224
       1.033
      -3.592
      -6.471
      -5.846
      -2.679
       0.486
       1.869
       1.760
       1.654
       2.257
       2.530
       0.852
      -2.895
      -6.582
      -7.453
      -4.675
      -0.336
       2.275
       1.644
      -0.587
      -1.292
       0.951
       4.330
       5.512
       2.914
      -1.672
      -4.579
      -3.364
       1.346
       6.568
       9.252
       8.101
       3.763
      -2.135
      -7.890
     -11.936
     -12.865
      -9.899
      -3.593
       4.132
      10.912
      15.054
      15.931
      13.623
       8.581
       1.784
      -4.984
      -9.541
     -10.601
      -8.918
      -6.788
      -5.839
      -5.187
      -2.263
       3.998
      10.865
      13.283
       8.291
      -1.815
     -10.939
     -14.187
     -11.684
      -7.521
      -5.065
      -3.544
       0.539
       8.752
      17.854
      21.883
      17.275
       6.084
      -5.719
     -13.091
     -15.313
     -15.026
     -14.435
     -12.873
      -8.172
      -0.006
       8.692
      13.911
      14.035
      11.002
       8.076
       6.700
       5.588
       2.766
      -1.801
      -5.843
      -7.054
      -5.520
      -3.567
      -3.171
      -3.832
      -3.321
      -0.443
       3.303
       5.051
       3.451
       0.047
      -2.271
      -2.091
      -0.649
      -0.189
      -1.287
      -2.091
      -0.373
       3.823
       7.825
       8.706
       5.880
       1.348
      -2.408
      -4.487
      -5.625
      -6.642
      -7.292
      -6.730
      -4.736
      -2.014
       0.758
       3.755
       7.440
      11.217
      13.080
      11.051
       5.114
      -2.388
      -8.380
     -11.119
     -10.788
      -8.460
      -4.921
      -0.610
       3.645
       6.394
       6.451
       3.987
       0.508
      -2.410
      -4.264
      -5.433
      -5.980
      -5.024
      -1.609
       3.769
       8.839
      11.069
       9.639
       5.892
       1.798
      -1.948
      -6.126
     -11.228
     -15.701
     -16.528
     -12.044
      -4.168
       2.708
       5.573
       5.624
       6.886
      11.705
      17.717
      19.632
      14.309
       4.033
      -5.382
      -9.854
     -10.307
     -10.719
     -13.135
     -15.149
     -12.651
      -4.914
       3.703
       7.641
       5.720
       2.374
       2.974
       7.983
      12.143
       9.829
       1.238
      -7.102
      -8.317
      -1.764
       6.472
       9.580
       6.344
       1.480
       0.097
       2.321
       3.573
      -0.148
      -7.715
     -13.739
     -13.759
      -8.283
      -1.677
       2.543
       4.800
       7.805
      12.414
      15.869
      14.438
       7.468
      -1.578
      -8.175
     -10.612
     -10.827
     -11.618
     -13.341
     -13.538
      -9.750
      -2.468
       4.948
       9.215
       9.774
       8.446
       6.850
       4.728
       1.000
      -3.928
      -7.572
      -7.482
      -3.869
       0.241
       1.797
       0.672
      -0.418
       0.883
       3.630
       4.309
       0.810
      -4.529
      -6.445
      -1.795
       6.861
      13.035
      12.048
       5.251
      -1.426
      -3.221
      -0.940
       0.315
      -3.267
     -10.003
     -14.223
     -11.985
      -5.101
       0.686
       1.462
      -1.106
      -1.813
       2.498
       9.597
      14.058
      12.566
       6.949
       2.099
       1.110
       2.610
       2.758
      -0.455
      -5.105
      -7.421
      -5.667
      -1.781
       0.721
       0.164
      -2.035
      -3.268
      -2.474
      -0.829
       0.096
       0.367
       1.534
       4.480
       7.832
       8.888
       6.188
       0.993
      -3.898
      -6.641
      -7.512
      -7.733
      -7.610
      -6.233
      -2.997
       0.963
       3.279
       2.405
      -0.958
      -4.557
      -6.632
      -7.156
      -7.130
      -6.903
      -5.444
      -1.415
       5.027
      11.597
      15.232
      14.329
       9.882
       4.492
       0.196
      -2.835
      -5.579
      -8.312
      -9.613
      -7.437
      -1.455
       5.586
       9.227
       6.799
       0.167
      -5.151
      -4.332
       2.509
      10.159
      12.685
       8.551
       1.865
      -1.400
       1.239
       6.692
       9.364
       6.483
       0.668
      -2.652
      -0.424
       5.234
       9.167
       7.967
       2.672
      -2.962
      -6.510
      -8.980
     -12.951
     -18.913
     -23.872
     -23.924
     -18.216
     -10.106
      -4.166
      -2.037
      -1.416
       0.884
       5.121
       8.127
       6.613
       0.777
      -5.518
      -8.113
      -5.952
      -1.185
       3.680
       8.243
      13.683
      20.181
      25.550
      26.851
      23.268
      16.897
      10.369
       3.925
      -4.579
     -16.442
     -29.186
     -37.493
     -37.528
     -30.354
     -20.894
     -13.418
      -8.072
      -1.879
       7.016
      16.431
      21.720
      20.323
      14.535
       9.421
       7.766
       7.297
       3.291
      -5.855
     -15.798
     -19.360
     -12.820
       0.573
      13.262
      19.679
      20.295
      19.869
      22.003
      25.378
      25.125
      17.724
       4.664
      -8.547
     -16.925
     -19.756
     -20.220
     -21.597
     -23.893
     -24.045
     -19.207
      -9.852
       0.199
       6.673
       7.949
       5.809
       3.528
       3.215
       4.574
       5.825
       5.613
       4.113
       2.437
       1.087
      -0.928
      -5.329
     -12.709
     -21.246
     -27.305
     -27.653
     -21.543
     -10.902
       1.406
      13.514
      24.794
      34.411
      40.022
      38.527
      28.667
      13.103
      -2.345
     -12.224
     -14.973
     -13.418
     -11.774
     -11.819
     -11.695
      -8.290
      -0.858
       7.626
      12.726
      12.290
       8.186
       4.462
       3.763
       5.344
       6.313
       4.644
       0.946
      -2.553
      -4.479
      -5.537
      -7.261
      -9.824
     -11.513
     -10.574
      -7.409
      -4.502
      -3.902
      -4.860
      -4.258
       0.353
       7.965
      14.436
      15.882
      12.069
       6.496
       2.967
       1.946
       0.305
      -5.202
     -14.093
     -21.739
     -22.944
     -16.335
      -5.589
       3.599
       8.011
       8.807
       9.265
      10.806
      11.371
       7.791
      -0.329
      -9.303
     -14.149
     -12.849
      -7.940
      -3.926
      -3.073
      -3.707
      -2.535
       1.542
       6.023
       7.218
       4.029
      -0.707
      -2.651
       0.250
       6.254
      11.751
      14.383
      14.315
      12.891
      10.647
       6.982
       1.570
      -4.408
      -8.787
     -10.115
      -8.655
      -5.696
      -2.156
       1.876
       6.232
       9.690
      10.324
       7.052
       0.800
      -5.998
     -11.144
     -13.985
     -15.204
     -15.579
     -15.087
     -13.115
      -9.340
      -4.276
       0.962
       5.278
       7.976
       8.713
       7.418
       4.470
       0.945
      -1.606
      -1.946
       0.056
       3.322
       6.276
       7.787
       7.622
       6.198
       4.010
       1.354
      -1.411
      -3.501
      -3.894
      -2.092
       1.291
       4.834
       7.311
       8.430
       8.599
       8.077
       6.513
       3.488
      -0.543
      -4.097
      -5.730
      -5.356
      -4.354
      -4.179
      -4.792
      -4.626
      -2.306
       1.521
       4.276
       3.655
      -0.047
      -3.856
      -4.605
      -1.794
       1.934
       3.193
       0.892
      -3.014
      -5.662
      -6.077
      -5.784
      -6.691
      -8.577
      -9.015
      -5.962
      -0.305
       4.529
       5.732
       3.826
       2.023
       2.823
       5.401
       6.569
       4.273
      -0.089
      -2.962
      -2.161
       1.051
       3.389
       2.850
       0.432
      -1.315
      -1.089
       0.069
       0.338
      -0.629
      -1.262
       0.205
       3.770
       7.446
       8.949
       7.568
       4.495
       1.496
      -0.643
      -2.431
      -4.700
      -7.487
      -9.889
     -10.861
     -10.075
      -8.086
      -5.807
      -3.833
      -2.163
      -0.432
       1.592
       3.654
       5.035
       4.925
       2.975
      -0.275
      -3.435
      -4.916
      -3.913
      -1.035
       2.003
       3.535
       3.113
       1.715
       0.820
       1.113
       1.981
       2.223
       1.357
       0.296
       0.700
       3.483
       7.784
      11.380
      12.263
      10.066
       6.122
       2.199
      -0.871
      -3.442
      -6.139
      -8.810
     -10.420
      -9.944
      -7.351
      -3.745
      -0.581
       1.269
       1.800
       1.445
       0.565
      -0.652
      -1.996
      -3.133
      -3.731
      -3.574
      -2.527
      -0.519
       2.317
       5.455
       8.005
       9.044
       8.067
       5.274
       1.485
      -2.251
      -5.066
      -6.457
      -6.259
      -4.629
      -2.094
       0.492
       2.262
       2.782
       2.317
       1.629
       1.403
       1.707
       1.983
       1.656
       0.836
       0.333
       0.853
       2.120
       2.886
       1.941
      -0.769
      -4.001
      -6.211
      -6.768
      -6.270
      -5.709
      -5.376
      -4.630
      -2.705
       0.313
       3.354
       5.208
       5.487
       4.818
       4.128
       3.744
       3.152
       1.613
      -0.960
      -3.749
      -5.654
      -6.210
      -5.879
      -5.463
      -5.227
      -4.589
      -2.689
       0.694
       4.685
       7.772
       8.792
       7.662
       5.309
       2.948
       1.389
       0.811
       0.984
       1.564
       2.219
       2.632
       2.532
       1.776
       0.387
      -1.490
      -3.613
      -5.553
      -6.584
      -5.892
      -3.177
       0.782
       4.271
       5.650
       4.525
       2.082
       0.132
      -0.377
      -0.060
      -0.288
      -1.632
      -3.143
      -3.251
      -1.437
       1.067
       2.326
       1.485
      -0.491
      -1.863
      -1.883
      -1.475
      -2.097
      -3.963
      -5.516
      -4.841
      -1.645
       2.217
       4.291
       3.654
       1.599
       0.257
       0.576
       1.593
       1.607
       0.005
      -2.099
      -2.992
      -2.078
      -0.421
       0.397
      -0.107
      -0.869
      -0.425
       1.544
       3.854
       4.980
       4.505
       3.370
       2.727
       2.684
       2.281
       0.695
      -1.645
      -3.219
      -2.736
      -0.350
       2.365
       3.630
       2.752
       0.431
      -2.021
      -3.691
      -4.449
      -4.609
      -4.391
      -3.722
      -2.415
      -0.494
       1.627
       3.276
       3.883
       3.352
       2.116
       0.816
      -0.202
      -1.125
      -2.393
      -4.081
      -5.512
      -5.636
      -3.977
      -1.295
       0.823
       1.202
       0.049
      -1.290
      -1.549
      -0.578
       0.732
       1.414
       1.261
       0.775
       0.480
       0.434
       0.414
       0.378
       0.571
       1.098
       1.545
       1.186
      -0.314
      -2.404
      -3.905
      -3.874
      -2.316
      -0.136
       1.629
       2.596
       3.130
       3.708
       4.226
       4.030
       2.681
       0.661
      -0.783
      -0.654
       0.843
       2.398
       2.781
       2.030
       1.412
