Origin Time       17/2/2013 16:27:07	
Lat.              30.9 N	
Long.             78.4 E	
Depth (Km)         10.0
Magnitude         3.2
 Region           UTTARKASHI-UTTARAKHAND                                           
 Above details taken from IMD 
     
Station Code      UTK
Station Lat.       30.730  N
Station Long.      78.445  E
Station Height(m) 1147.0
Site Class        A   Vs30 between 700 m/sec to 1400 m/sec * 
Record Time       17.02.2013 16:26:44.209
Sampling Rate     200. Hz
 Record Duration   80.320 Sec.
 Direction         E-W (E positive)
Max. Acceleration      3.056 cm/sec**2
     
  * For reference see Site Classification link of website 
     
 Base Line Corrected and Low Pass Filtered (Cut Off at 35 Hz) Time History
 Acceleration data in cm/sec**2
    
[...]
       0.007
       0.001
      -0.002
       0.001
       0.003
      -0.002
      -0.008
      -0.011
      -0.014
      -0.020
      -0.024
      -0.021
      -0.020
      -0.023
      -0.023
      -0.017
      -0.013
      -0.015
      -0.015
      -0.008
      -0.001
       0.002
       0.007
       0.015
       0.016
       0.006
      -0.003
      -0.004
      -0.002
      -0.002
      -0.001
       0.001
       0.000
      -0.005
      -0.006
      -0.001
      -0.001
      -0.008
      -0.014
      -0.014
      -0.013
      -0.013
      -0.009
      -0.001
       0.003
       0.001
       0.001
       0.005
       0.008
       0.005
       0.002
       0.004
       0.002
      -0.003
      -0.004
       0.001
       0.006
       0.006
       0.006
       0.006
       0.002
      -0.006
      -0.009
      -0.005
      -0.002
      -0.004
      -0.004
      -0.002
      -0.004
      -0.013
      -0.016
      -0.013
      -0.010
      -0.011
      -0.010
      -0.005
      -0.002
      -0.003
      -0.002
       0.002
       0.003
      -0.001
      -0.002
       0.003
       0.006
       0.005
       0.004
       0.005
       0.001
      -0.007
      -0.011
      -0.009
      -0.008
      -0.007
      -0.001
       0.009
       0.010
       0.004
      -0.002
      -0.002
      -0.002
      -0.005
      -0.003
       0.001
       0.003
       0.001
       0.006
       0.015
       0.018
       0.014
       0.008
       0.006
       0.003
       0.001
       0.003
       0.005
       0.000
      -0.009
      -0.010
      -0.003
       0.000
      -0.004
      -0.006
      -0.005
      -0.006
      -0.010
      -0.012
      -0.011
      -0.012
      -0.014
      -0.009
       0.001
       0.006
       0.004
       0.002
       0.001
      -0.004
      -0.009
      -0.007
      -0.001
       0.001
       0.000
       0.001
       0.003
      -0.001
      -0.009
      -0.013
      -0.010
      -0.007
      -0.008
      -0.007
      -0.008
      -0.013
      -0.015
      -0.010
      -0.003
      -0.007
      -0.017
      -0.020
      -0.014
      -0.009
      -0.007
      -0.004
       0.001
       0.000
      -0.004
      -0.003
       0.002
       0.003
       0.000
       0.001
       0.005
       0.005
       0.002
       0.002
      -0.002
      -0.014
      -0.028
      -0.032
      -0.025
      -0.019
      -0.014
      -0.006
       0.002
       0.003
      -0.001
       0.000
       0.002
       0.001
      -0.003
      -0.003
       0.001
       0.001
       0.000
       0.006
       0.013
       0.013
       0.007
       0.004
       0.004
       0.004
       0.006
       0.013
       0.019
       0.013
       0.000
      -0.009
      -0.012
      -0.017
      -0.021
      -0.018
      -0.014
      -0.015
      -0.018
      -0.015
      -0.009
      -0.007
      -0.006
      -0.001
       0.003
       0.002
       0.000
       0.006
       0.014
       0.014
       0.009
       0.008
       0.010
       0.009
       0.005
       0.004
       0.002
      -0.005
      -0.012
      -0.012
      -0.008
      -0.007
      -0.006
       0.000
       0.005
       0.003
      -0.002
       0.001
       0.007
       0.009
       0.009
       0.013
       0.014
       0.011
       0.008
       0.014
       0.024
       0.027
       0.024
       0.021
       0.018
       0.012
       0.007
       0.007
       0.006
       0.002
      -0.001
       0.002
       0.004
      -0.003
      -0.012
      -0.016
      -0.014
      -0.011
      -0.003
       0.012
       0.022
       0.019
       0.011
       0.007
       0.008
       0.008
       0.007
       0.009
       0.010
       0.009
       0.011
       0.019
       0.024
       0.018
       0.010
       0.007
       0.006
       0.001
      -0.004
      -0.003
      -0.003
      -0.009
      -0.016
      -0.018
      -0.016
      -0.012
      -0.002
       0.014
       0.023
       0.020
       0.013
       0.012
       0.012
       0.008
       0.005
       0.007
       0.007
       0.002
      -0.003
      -0.003
      -0.002
      -0.005
      -0.006
      -0.002
       0.000
      -0.002
       0.001
       0.010
       0.017
       0.011
       0.001
      -0.005
      -0.007
      -0.008
      -0.006
      -0.002
       0.000
      -0.002
      -0.001
       0.007
       0.012
       0.007
       0.001
       0.003
       0.009
       0.012
       0.015
       0.018
       0.013
      -0.001
      -0.016
      -0.021
      -0.021
      -0.020
      -0.016
      -0.010
      -0.007
      -0.008
      -0.005
       0.005
       0.010
       0.005
       0.000
       0.002
       0.005
       0.004
       0.004
       0.006
       0.004
      -0.002
      -0.004
       0.003
       0.009
       0.009
       0.007
       0.007
       0.004
      -0.002
      -0.003
       0.001
       0.001
      -0.009
      -0.018
      -0.018
      -0.015
      -0.011
      -0.006
       0.002
       0.003
      -0.003
      -0.005
       0.003
       0.011
       0.011
       0.007
       0.003
      -0.002
      -0.008
      -0.008
      -0.004
      -0.003
      -0.007
      -0.003
       0.009
       0.017
       0.014
       0.007
       0.004
       0.002
      -0.001
      -0.003
      -0.004
      -0.010
      -0.020
      -0.025
      -0.021
      -0.017
      -0.017
      -0.014
      -0.007
      -0.003
      -0.004
      -0.003
       0.000
      -0.001
      -0.004
      -0.001
       0.006
       0.008
       0.001
      -0.004
      -0.001
       0.000
      -0.005
      -0.008
      -0.007
      -0.004
      -0.004
      -0.003
      -0.003
      -0.010
      -0.019
      -0.018
      -0.010
      -0.006
      -0.010
      -0.013
      -0.010
      -0.008
      -0.011
      -0.012
      -0.005
       0.003
       0.009
       0.016
       0.018
       0.012
       0.001
      -0.002
       0.002
       0.001
      -0.007
      -0.013
      -0.011
      -0.008
      -0.005
       0.000
       0.006
       0.003
      -0.006
      -0.011
      -0.010
      -0.009
      -0.009
      -0.004
       0.003
       0.004
      -0.002
      -0.003
       0.001
       0.006
       0.009
       0.016
       0.021
       0.018
       0.008
       0.003
       0.004
       0.002
      -0.006
      -0.011
      -0.013
      -0.019
      -0.025
      -0.025
      -0.019
      -0.016
      -0.016
      -0.013
      -0.008
      -0.007
      -0.009
      -0.007
      -0.003
      -0.005
      -0.010
      -0.011
      -0.007
      -0.002
       0.002
       0.009
       0.014
       0.011
       0.004
       0.004
       0.009
       0.008
       0.001
      -0.004
      -0.006
      -0.010
      -0.015
      -0.015
      -0.013
      -0.014
      -0.017
      -0.015
      -0.012
      -0.015
      -0.019
      -0.014
      -0.001
       0.007
       0.007
       0.005
       0.004
      -0.002
      -0.009
      -0.011
      -0.010
      -0.011
      -0.009
       0.001
       0.013
       0.016
       0.010
       0.002
      -0.005
      -0.013
      -0.016
      -0.011
      -0.003
      -0.003
      -0.005
      -0.004
      -0.002
      -0.008
      -0.015
      -0.012
       0.002
       0.013
       0.018
       0.021
       0.022
       0.020
       0.018
       0.018
       0.016
       0.008
       0.000
       0.003
       0.011
       0.014
       0.009
       0.005
       0.001
      -0.008
      -0.016
      -0.015
      -0.008
      -0.005
      -0.003
       0.000
       0.002
      -0.002
      -0.010
      -0.012
      -0.011
      -0.012
      -0.009
       0.001
       0.010
       0.011
       0.009
       0.013
       0.019
       0.018
       0.012
       0.009
       0.008
       0.005
       0.001
       0.000
      -0.005
      -0.014
      -0.020
      -0.015
      -0.006
      -0.002
      -0.001
       0.005
       0.010
       0.007
       0.002
       0.004
       0.009
       0.010
       0.009
       0.012
       0.013
       0.008
       0.003
       0.005
       0.010
       0.009
       0.006
       0.008
       0.011
       0.012
       0.013
       0.017
       0.017
       0.009
       0.002
       0.009
       0.027
       0.046
       0.060
       0.058
       0.032
      -0.009
      -0.037
      -0.028
       0.001
       0.004
      -0.046
      -0.125
      -0.168
      -0.109
       0.048
       0.195
       0.191
      -0.001
      -0.250
      -0.345
      -0.185
       0.126
       0.362
       0.348
       0.097
      -0.200
      -0.316
      -0.159
       0.154
       0.388
       0.361
       0.080
      -0.257
      -0.399
      -0.243
       0.077
       0.300
       0.272
       0.058
      -0.146
      -0.195
      -0.085
       0.081
       0.180
       0.136
      -0.034
      -0.232
      -0.348
      -0.330
      -0.208
      -0.045
       0.099
       0.191
       0.225
       0.215
       0.199
       0.226
       0.317
       0.410
       0.365
       0.096
      -0.288
      -0.527
      -0.449
      -0.160
       0.053
       0.005
      -0.218
      -0.369
      -0.290
      -0.042
       0.174
       0.243
       0.231
       0.274
       0.376
       0.385
       0.189
      -0.101
      -0.237
      -0.101
       0.154
       0.242
       0.043
      -0.259
      -0.355
      -0.144
       0.131
       0.122
      -0.238
      -0.645
      -0.719
      -0.385
       0.074
       0.315
       0.252
       0.097
       0.122
       0.378
       0.652
       0.668
       0.351
      -0.119
      -0.452
      -0.461
      -0.157
       0.268
       0.543
       0.470
       0.067
      -0.420
      -0.690
      -0.606
      -0.282
       0.018
       0.083
      -0.092
      -0.305
      -0.309
      -0.018
       0.423
       0.769
       0.862
       0.717
       0.454
       0.196
      -0.004
      -0.169
      -0.347
      -0.532
      -0.647
      -0.606
      -0.404
      -0.127
       0.110
       0.241
       0.280
       0.280
       0.256
       0.165
      -0.015
      -0.205
      -0.262
      -0.140
       0.030
       0.069
      -0.063
      -0.212
      -0.201
      -0.029
       0.119
       0.065
      -0.164
      -0.344
      -0.270
       0.042
       0.375
       0.517
       0.427
       0.228
       0.063
      -0.007
      -0.017
      -0.036
      -0.093
      -0.148
      -0.146
      -0.093
      -0.064
      -0.114
      -0.186
      -0.151
       0.061
       0.362
       0.546
       0.458
       0.162
      -0.071
       0.004
       0.348
       0.639
       0.551
       0.052
      -0.560
      -0.912
      -0.843
      -0.490
      -0.139
       0.016
      -0.001
      -0.043
      -0.016
       0.050
       0.095
       0.129
       0.208
       0.337
       0.419
       0.330
       0.043
      -0.309
      -0.522
      -0.481
      -0.250
       0.012
       0.204
       0.325
       0.387
       0.351
       0.183
      -0.057
      -0.220
      -0.191
      -0.020
       0.084
      -0.059
      -0.395
      -0.639
      -0.522
      -0.044
       0.529
       0.902
       0.969
       0.818
       0.573
       0.279
      -0.085
      -0.503
      -0.855
      -0.982
      -0.824
      -0.500
      -0.222
      -0.100
      -0.040
       0.152
       0.544
       0.950
       1.051
       0.691
       0.044
      -0.517
      -0.731
      -0.627
      -0.422
      -0.281
      -0.214
      -0.144
      -0.013
       0.173
       0.367
       0.515
       0.572
       0.504
       0.285
      -0.068
      -0.443
      -0.645
      -0.513
      -0.079
       0.401
       0.628
       0.497
       0.180
      -0.043
      -0.050
       0.023
      -0.047
      -0.309
      -0.564
      -0.568
      -0.284
       0.081
       0.285
       0.263
       0.145
       0.116
       0.236
       0.398
       0.419
       0.206
      -0.162
      -0.471
      -0.527
      -0.298
       0.051
       0.258
       0.180
      -0.077
      -0.236
      -0.126
       0.128
       0.216
      -0.033
      -0.437
      -0.604
      -0.303
       0.272
       0.647
       0.497
      -0.019
      -0.397
      -0.285
       0.176
       0.514
       0.418
       0.025
      -0.258
      -0.184
       0.118
       0.315
       0.229
       0.000
      -0.104
       0.003
       0.123
       0.015
      -0.318
      -0.606
      -0.567
      -0.176
       0.318
       0.604
       0.554
       0.295
       0.073
       0.030
       0.115
       0.167
       0.080
      -0.125
      -0.351
      -0.504
      -0.531
      -0.428
      -0.238
      -0.030
       0.126
       0.198
       0.205
       0.202
       0.220
       0.217
       0.118
      -0.072
      -0.240
      -0.262
      -0.136
       0.010
       0.048
      -0.038
      -0.153
      -0.195
      -0.152
      -0.087
      -0.037
       0.032
       0.151
       0.262
       0.272
       0.182
       0.124
       0.225
       0.462
       0.666
       0.653
       0.361
      -0.110
      -0.548
      -0.757
      -0.694
      -0.493
      -0.331
      -0.274
      -0.235
      -0.089
       0.202
       0.540
       0.760
       0.735
       0.448
      -0.015
      -0.527
      -0.962
      -1.204
      -1.165
      -0.835
      -0.316
       0.233
       0.687
       1.015
       1.254
       1.439
       1.528
       1.375
       0.821
      -0.148
      -1.297
      -2.221
      -2.582
      -2.314
      -1.624
      -0.796
       0.027
       0.883
       1.806
       2.637
       3.056
       2.834
       2.041
       1.000
       0.043
      -0.689
      -1.238
      -1.677
      -1.975
      -2.010
      -1.709
      -1.151
      -0.538
      -0.050
       0.258
       0.450
       0.611
       0.762
       0.840
       0.776
       0.580
       0.368
       0.242
       0.177
       0.048
      -0.209
      -0.490
      -0.604
      -0.469
      -0.225
      -0.146
      -0.404
      -0.873
      -1.174
      -0.961
      -0.211
       0.735
       1.429
       1.625
       1.400
       1.025
       0.734
       0.574
       0.428
       0.177
      -0.169
      -0.495
      -0.701
      -0.797
      -0.878
      -1.031
      -1.259
      -1.459
      -1.454
      -1.101
      -0.393
       0.514
       1.380
       2.000
       2.271
       2.190
       1.813
       1.213
       0.470
      -0.305
      -0.972
      -1.420
      -1.619
      -1.622
      -1.479
      -1.185
      -0.713
      -0.074
       0.631
       1.239
       1.572
       1.531
       1.168
       0.664
       0.203
      -0.141
      -0.404
      -0.630
      -0.782
      -0.773
      -0.568
      -0.243
       0.056
       0.242
       0.339
       0.400
       0.396
       0.255
      -0.004
      -0.235
      -0.305
      -0.255
      -0.279
      -0.517
      -0.890
      -1.112
      -0.918
      -0.323
       0.342
       0.682
       0.581
       0.288
       0.162
       0.347
       0.680
       0.885
       0.818
       0.551
       0.231
      -0.101
      -0.518
      -1.014
      -1.373
      -1.307
      -0.777
      -0.110
       0.250
       0.148
      -0.130
      -0.099
       0.481
       1.364
       1.990
       1.937
       1.245
       0.334
      -0.381
      -0.787
      -1.016
      -1.187
      -1.244
      -1.041
      -0.554
       0.017
       0.389
       0.442
       0.325
       0.287
       0.414
       0.543
       0.439
       0.038
      -0.482
      -0.829
      -0.810
      -0.460
       0.001
       0.346
       0.506
       0.556
       0.575
       0.546
       0.397
       0.111
      -0.225
      -0.478
      -0.559
      -0.476
      -0.279
       0.007
       0.369
       0.714
       0.837
       0.561
      -0.065
      -0.728
      -1.057
      -0.900
      -0.427
       0.019
       0.196
       0.138
       0.065
       0.132
       0.253
       0.199
      -0.134
      -0.579
      -0.820
      -0.668
      -0.219
       0.228
       0.410
       0.298
       0.109
       0.117
       0.447
       0.990
       1.479
       1.644
       1.345
       0.644
      -0.222
      -0.959
      -1.355
      -1.365
      -1.113
      -0.807
      -0.611
      -0.549
      -0.517
      -0.385
      -0.105
       0.273
       0.649
       0.917
       0.991
       0.842
       0.533
       0.199
      -0.032
      -0.131
      -0.189
      -0.336
      -0.613
      -0.903
      -1.009
      -0.812
      -0.365
       0.181
       0.688
       1.072
       1.257
       1.182
       0.863
       0.428
       0.062
      -0.125
      -0.182
      -0.263
      -0.471
      -0.726
      -0.815
      -0.614
      -0.233
       0.070
       0.121
      -0.030
      -0.198
      -0.244
      -0.182
      -0.146
      -0.236
      -0.403
      -0.473
      -0.313
       0.032
       0.368
       0.527
       0.496
       0.397
       0.357
       0.394
       0.410
       0.303
       0.082
      -0.121
      -0.188
      -0.135
      -0.089
      -0.164
      -0.354
      -0.545
      -0.611
      -0.509
      -0.289
      -0.038
       0.201
       0.417
       0.573
       0.606
       0.503
       0.367
       0.346
       0.491
       0.682
       0.720
       0.502
       0.120
      -0.196
      -0.286
      -0.210
      -0.195
      -0.403
      -0.749
      -0.976
      -0.895
      -0.554
      -0.168
       0.086
       0.196
       0.272
       0.389
       0.488
       0.437
       0.183
      -0.171
      -0.443
      -0.526
      -0.466
      -0.386
      -0.358
      -0.329
      -0.187
       0.110
       0.447
       0.634
       0.581
       0.396
       0.295
       0.403
       0.640
       0.777
       0.613
       0.142
      -0.442
      -0.878
      -1.019
      -0.889
      -0.602
      -0.255
       0.086
       0.350
       0.466
       0.411
       0.245
       0.076
      -0.027
      -0.087
      -0.188
      -0.368
      -0.536
      -0.546
      -0.360
      -0.104
       0.055
       0.083
       0.110
       0.278
       0.580
       0.843
       0.866
       0.596
       0.179
      -0.150
      -0.254
      -0.168
      -0.022
       0.069
       0.064
      -0.016
      -0.114
      -0.168
      -0.161
      -0.135
      -0.148
      -0.219
      -0.307
      -0.343
      -0.271
      -0.091
       0.127
       0.289
       0.351
       0.343
       0.307
       0.240
       0.113
      -0.063
      -0.212
      -0.260
      -0.200
      -0.113
      -0.092
      -0.157
      -0.234
      -0.226
      -0.115
       0.036
       0.157
       0.232
       0.271
       0.244
       0.102
      -0.154
      -0.428
      -0.585
      -0.551
      -0.375
      -0.175
      -0.021
       0.118
       0.289
       0.444
       0.461
       0.289
       0.051
      -0.049
       0.091
       0.371
       0.564
       0.500
       0.192
      -0.183
      -0.438
      -0.514
      -0.476
      -0.404
      -0.314
      -0.181
      -0.002
       0.188
       0.343
       0.435
       0.463
       0.449
       0.405
       0.315
       0.155
      -0.065
      -0.289
      -0.462
      -0.576
      -0.649
      -0.677
      -0.624
      -0.439
      -0.111
       0.294
       0.641
       0.806
       0.766
       0.605
       0.429
       0.285
       0.154
       0.002
      -0.182
      -0.372
