Origin Time       6/4/2005 22:29:31  
Lat.              30.5 N 
Long.             79.1 E 
Depth (Km)         10.0
Magnitude         4.3
 Region           Rudraprayag-Uttarakhand                                          
 Above details taken from IMD 
   
Station Code      UTK
Station Lat.       30.730
Station Long.      78.445
Station Height(m) 1152.0
Site Class        A   Vs30 between 700 m/sec to 1400 m/sec * 
Record Time       06.04.2013 22:29:17.734
Sampling Rate     200. Hz
 Record Duration   81.365 Sec.
 Direction         Vert. (Up positive)
Max. Acceleration      2.334 cm/sec**2
     
  * For reference see Site Classification link of website 
     
 Base Line Corrected and Low Pass Filtered (Cut Off at 35 Hz) Time History
 Acceleration data in cm/sec**2
    
[...]
      -0.360
      -0.079
       0.197
       0.335
       0.307
       0.193
       0.093
       0.046
       0.017
      -0.026
      -0.057
      -0.001
       0.187
       0.455
       0.671
       0.708
       0.533
       0.224
      -0.100
      -0.350
      -0.497
      -0.547
      -0.514
      -0.410
      -0.263
      -0.111
       0.013
       0.108
       0.203
       0.317
       0.414
       0.409
       0.239
      -0.064
      -0.362
      -0.497
      -0.414
      -0.198
      -0.010
       0.044
      -0.004
      -0.032
       0.050
       0.215
       0.345
       0.350
       0.251
       0.153
       0.132
       0.158
       0.131
       0.009
      -0.122
      -0.124
       0.032
       0.190
       0.134
      -0.198
      -0.617
      -0.825
      -0.664
      -0.255
       0.127
       0.299
       0.305
       0.319
       0.420
       0.498
       0.378
       0.029
      -0.354
      -0.515
      -0.367
      -0.069
       0.130
       0.134
       0.071
       0.140
       0.372
       0.571
       0.492
       0.097
      -0.371
      -0.578
      -0.381
       0.049
       0.375
       0.374
       0.106
      -0.183
      -0.292
      -0.225
      -0.133
      -0.136
      -0.208
      -0.237
      -0.153
      -0.003
       0.107
       0.130
       0.122
       0.174
       0.298
       0.389
       0.315
       0.047
      -0.292
      -0.507
      -0.484
      -0.279
      -0.060
       0.048
       0.075
       0.161
       0.401
       0.718
       0.895
       0.748
       0.285
      -0.293
      -0.740
      -0.925
      -0.881
      -0.714
      -0.492
      -0.217
       0.111
       0.432
       0.635
       0.646
       0.478
       0.218
      -0.045
      -0.266
      -0.434
      -0.530
      -0.512
      -0.349
      -0.070
       0.235
       0.459
       0.536
       0.458
       0.258
       0.000
      -0.213
      -0.255
      -0.050
       0.336
       0.684
       0.741
       0.420
      -0.108
      -0.514
      -0.569
      -0.322
      -0.061
      -0.060
      -0.338
      -0.637
      -0.635
      -0.220
       0.401
       0.843
       0.835
       0.411
      -0.131
      -0.470
      -0.494
      -0.350
      -0.270
      -0.349
      -0.455
      -0.353
       0.063
       0.647
       1.088
       1.144
       0.815
       0.311
      -0.122
      -0.373
      -0.481
      -0.522
      -0.503
      -0.369
      -0.089
       0.263
       0.549
       0.649
       0.538
       0.275
      -0.059
      -0.392
      -0.674
      -0.857
      -0.893
      -0.755
      -0.454
      -0.030
       0.444
       0.869
       1.118
       1.075
       0.702
       0.099
      -0.517
      -0.908
      -0.938
      -0.645
      -0.204
       0.179
       0.383
       0.408
       0.344
       0.282
       0.250
       0.210
       0.101
      -0.086
      -0.281
      -0.371
      -0.285
      -0.065
       0.154
       0.236
       0.147
      -0.032
      -0.178
      -0.229
      -0.224
      -0.235
      -0.272
      -0.262
      -0.128
       0.105
       0.305
       0.342
       0.207
       0.018
      -0.082
      -0.052
       0.026
       0.030
      -0.078
      -0.229
      -0.309
      -0.265
      -0.141
      -0.025
       0.035
       0.073
       0.166
       0.358
       0.607
       0.814
       0.887
       0.800
       0.584
       0.285
      -0.065
      -0.432
      -0.765
      -1.000
      -1.084
      -0.995
      -0.749
      -0.388
       0.022
       0.406
       0.697
       0.852
       0.860
       0.736
       0.500
       0.172
      -0.221
      -0.616
      -0.907
      -0.975
      -0.748
      -0.266
       0.311
       0.763
       0.924
       0.780
       0.473
       0.200
       0.074
       0.046
      -0.035
      -0.275
      -0.604
      -0.810
      -0.707
      -0.310
       0.148
       0.384
       0.277
      -0.044
      -0.304
      -0.291
       0.001
       0.381
       0.616
       0.595
       0.381
       0.124
      -0.068
      -0.209
      -0.384
      -0.636
      -0.887
      -0.976
      -0.778
      -0.317
       0.244
       0.701
       0.917
       0.867
       0.605
       0.228
      -0.155
      -0.433
      -0.521
      -0.407
      -0.167
       0.079
       0.246
       0.331
       0.380
       0.420
       0.424
       0.353
       0.220
       0.099
       0.062
       0.100
       0.113
       0.014
      -0.173
      -0.321
      -0.318
      -0.189
      -0.082
      -0.120
      -0.274
      -0.381
      -0.300
      -0.049
       0.215
       0.321
       0.226
       0.018
      -0.171
      -0.265
      -0.262
      -0.203
      -0.128
      -0.065
      -0.019
       0.042
       0.177
       0.404
       0.639
       0.708
       0.490
       0.056
      -0.333
      -0.429
      -0.234
      -0.023
      -0.091
      -0.444
      -0.748
      -0.623
      -0.018
       0.688
       0.997
       0.717
       0.133
      -0.267
      -0.231
       0.052
       0.170
      -0.099
      -0.586
      -0.898
      -0.789
      -0.353
       0.088
       0.282
       0.222
       0.087
       0.029
       0.049
       0.048
      -0.035
      -0.142
      -0.152
      -0.009
       0.221
       0.404
       0.452
       0.383
       0.278
       0.175
       0.041
      -0.164
      -0.382
      -0.461
      -0.281
       0.116
       0.517
       0.698
       0.599
       0.355
       0.152
       0.037
      -0.107
      -0.397
      -0.768
      -0.970
      -0.780
      -0.228
       0.395
       0.755
       0.740
       0.519
       0.355
       0.337
       0.313
       0.061
      -0.457
      -1.008
      -1.255
      -1.024
      -0.433
       0.204
       0.611
       0.708
       0.589
       0.375
       0.121
      -0.164
      -0.429
      -0.578
      -0.548
      -0.382
      -0.197
      -0.067
       0.044
       0.221
       0.477
       0.702
       0.745
       0.547
       0.202
      -0.126
      -0.346
      -0.486
      -0.622
      -0.756
      -0.787
      -0.596
      -0.184
       0.294
       0.637
       0.750
       0.708
       0.648
       0.620
       0.539
       0.295
      -0.095
      -0.459
      -0.599
      -0.445
      -0.106
       0.231
       0.440
       0.510
       0.492
       0.412
       0.254
      -0.008
      -0.360
      -0.726
      -0.983
      -1.006
      -0.728
      -0.203
       0.380
       0.775
       0.808
       0.480
      -0.038
      -0.533
      -0.871
      -1.035
      -1.041
      -0.868
      -0.484
       0.063
       0.606
       0.953
       1.024
       0.902
       0.736
       0.592
       0.404
       0.073
      -0.381
      -0.778
      -0.894
      -0.637
      -0.119
       0.410
       0.722
       0.717
       0.428
      -0.036
      -0.543
      -0.951
      -1.122
      -0.955
      -0.459
       0.226
       0.882
       1.323
       1.474
       1.353
       1.005
       0.456
      -0.244
      -0.961
      -1.467
      -1.549
      -1.156
      -0.470
       0.200
       0.606
       0.693
       0.575
       0.407
       0.266
       0.137
      -0.024
      -0.218
      -0.390
      -0.482
      -0.477
      -0.410
      -0.337
      -0.309
      -0.352
      -0.455
      -0.558
      -0.567
      -0.393
      -0.014
       0.498
       1.002
       1.331
       1.355
       1.026
       0.406
      -0.329
      -0.924
      -1.156
      -0.946
      -0.403
       0.253
       0.822
       1.213
       1.408
       1.387
       1.098
       0.542
      -0.135
      -0.662
      -0.801
      -0.543
      -0.131
       0.121
       0.064
      -0.191
      -0.413
      -0.453
      -0.342
      -0.199
      -0.086
       0.037
       0.207
       0.340
       0.251
      -0.171
      -0.813
      -1.367
      -1.551
      -1.329
      -0.936
      -0.659
      -0.582
      -0.527
      -0.245
       0.305
       0.866
       1.093
       0.854
       0.361
      -0.012
      -0.038
       0.197
       0.426
       0.485
       0.459
       0.562
       0.879
       1.229
       1.322
       1.027
       0.506
       0.069
      -0.094
      -0.042
       0.021
      -0.034
      -0.172
      -0.278
      -0.311
      -0.335
      -0.408
      -0.479
      -0.431
      -0.228
       0.012
       0.107
      -0.028
      -0.309
      -0.564
      -0.667
      -0.615
      -0.484
      -0.355
      -0.259
      -0.200
      -0.182
      -0.213
      -0.279
      -0.324
      -0.288
      -0.147
       0.054
       0.222
       0.277
       0.226
       0.181
       0.275
       0.520
       0.760
       0.776
       0.469
      -0.037
      -0.488
      -0.704
      -0.708
      -0.652
      -0.627
      -0.554
      -0.283
       0.214
       0.759
       1.106
       1.148
       0.997
       0.854
       0.816
       0.799
       0.659
       0.360
       0.017
      -0.239
      -0.401
      -0.579
      -0.852
      -1.136
      -1.217
      -0.918
      -0.255
       0.554
       1.218
       1.529
       1.428
       0.985
       0.338
      -0.356
      -0.956
      -1.379
      -1.623
      -1.733
      -1.722
      -1.531
      -1.069
      -0.334
       0.512
       1.187
       1.456
       1.285
       0.854
       0.426
       0.170
       0.088
       0.084
       0.084
       0.091
       0.152
       0.284
       0.438
       0.528
       0.496
       0.366
       0.231
       0.193
       0.292
       0.454
       0.508
       0.273
      -0.296
      -1.029
      -1.619
      -1.833
      -1.682
      -1.392
      -1.183
      -1.061
      -0.832
      -0.327
       0.380
       0.978
       1.187
       1.011
       0.741
       0.684
       0.870
       1.039
       0.906
       0.457
      -0.020
      -0.213
      -0.104
       0.005
      -0.212
      -0.755
      -1.252
      -1.266
      -0.679
       0.200
       0.883
       1.079
       0.874
       0.571
       0.395
       0.314
       0.147
      -0.210
      -0.661
      -1.003
      -1.113
      -1.037
      -0.897
      -0.734
      -0.461
       0.011
       0.628
       1.183
       1.476
       1.488
       1.378
       1.311
       1.272
       1.064
       0.496
      -0.407
      -1.348
      -1.932
      -1.933
      -1.450
      -0.812
      -0.311
       0.002
       0.288
       0.690
       1.125
       1.313
       1.016
       0.304
      -0.436
      -0.773
      -0.564
      -0.067
       0.297
       0.302
       0.085
      -0.025
       0.158
       0.493
       0.644
       0.394
      -0.163
      -0.721
      -1.022
      -1.022
      -0.840
      -0.595
      -0.316
       0.005
       0.321
       0.530
       0.565
       0.464
       0.333
       0.226
       0.083
      -0.201
      -0.628
      -1.042
      -1.235
      -1.118
      -0.792
      -0.464
      -0.277
      -0.217
      -0.152
       0.028
       0.310
       0.568
       0.680
       0.637
       0.558
       0.596
       0.805
       1.095
       1.288
       1.262
       1.023
       0.673
       0.315
      -0.005
      -0.274
      -0.458
      -0.502
      -0.361
      -0.052
       0.339
       0.690
       0.879
       0.826
       0.530
       0.080
      -0.369
      -0.678
      -0.812
      -0.857
      -0.912
      -0.973
      -0.911
      -0.617
      -0.168
       0.166
       0.122
      -0.301
      -0.794
      -0.981
      -0.749
      -0.361
      -0.211
      -0.450
      -0.831
      -0.937
      -0.582
       0.016
       0.448
       0.510
       0.389
       0.455
       0.877
       1.453
       1.807
       1.745
       1.396
       1.032
       0.769
       0.491
       0.047
      -0.505
      -0.893
      -0.885
      -0.551
      -0.245
      -0.310
      -0.765
      -1.271
      -1.416
      -1.053
      -0.406
       0.136
       0.333
       0.244
       0.101
       0.064
       0.096
       0.045
      -0.162
      -0.428
      -0.554
      -0.402
       0.009
       0.538
       1.029
       1.383
       1.550
       1.491
       1.167
       0.604
      -0.057
      -0.609
      -0.894
      -0.908
      -0.787
      -0.691
      -0.686
      -0.700
      -0.596
      -0.306
       0.100
       0.449
       0.597
       0.547
       0.441
       0.437
       0.559
       0.650
       0.491
      -0.004
      -0.670
      -1.179
      -1.277
      -0.977
      -0.547
      -0.280
      -0.250
      -0.262
      -0.061
       0.397
       0.877
       1.067
       0.876
       0.523
       0.311
       0.312
       0.289
      -0.060
      -0.748
      -1.406
      -1.550
      -0.989
       0.015
       0.969
       1.529
       1.701
       1.693
       1.620
       1.393
       0.879
       0.148
      -0.485
      -0.693
      -0.421
       0.054
       0.358
       0.305
      -0.016
      -0.399
      -0.724
      -1.006
      -1.268
      -1.433
      -1.367
      -1.049
      -0.664
      -0.472
      -0.577
      -0.807
      -0.866
      -0.622
      -0.242
      -0.029
      -0.119
      -0.330
      -0.317
       0.105
       0.775
       1.303
       1.381
       1.006
       0.437
      -0.034
      -0.265
      -0.267
      -0.094
       0.224
       0.635
       1.010
       1.173
       1.037
       0.687
       0.323
       0.091
      -0.028
      -0.160
      -0.392
      -0.688
      -0.935
      -1.060
      -1.073
      -1.021
      -0.903
      -0.656
      -0.220
       0.394
       1.092
       1.735
       2.187
       2.334
       2.105
       1.497
       0.614
      -0.352
      -1.190
      -1.749
      -1.967
      -1.850
      -1.439
      -0.803
      -0.062
       0.605
       1.010
       1.049
       0.754
       0.273
      -0.234
      -0.673
      -1.017
      -1.255
      -1.345
      -1.231
      -0.912
      -0.488
      -0.127
       0.031
      -0.035
      -0.217
      -0.351
      -0.303
      -0.034
       0.410
       0.930
       1.420
       1.786
       1.952
       1.868
       1.517
       0.938
       0.222
      -0.504
      -1.104
      -1.450
      -1.440
      -1.039
      -0.320
       0.523
       1.225
       1.559
       1.457
       1.027
       0.460
      -0.107
      -0.649
      -1.191
      -1.697
      -2.027
      -2.019
      -1.639
      -1.049
      -0.506
      -0.173
      -0.001
       0.198
       0.535
       0.902
       1.051
       0.838
       0.402
       0.084
       0.144
       0.521
       0.870
       0.869
       0.501
       0.045
      -0.209
      -0.230
      -0.237
      -0.419
      -0.690
      -0.739
      -0.326
       0.443
       1.158
       1.413
       1.111
       0.489
      -0.125
      -0.562
      -0.860
      -1.101
      -1.260
      -1.203
      -0.836
      -0.224
       0.441
       0.970
       1.271
       1.325
       1.118
       0.630
      -0.072
      -0.782
      -1.219
      -1.209
      -0.814
      -0.280
       0.150
       0.408
       0.584
       0.758
       0.858
       0.704
       0.195
      -0.525
      -1.114
      -1.256
      -0.897
      -0.284
       0.220
       0.407
       0.350
       0.292
       0.399
       0.609
       0.696
       0.505
       0.121
      -0.181
      -0.184
       0.058
       0.244
       0.103
      -0.341
      -0.760
      -0.810
      -0.450
       0.017
       0.220
       0.065
      -0.194
      -0.216
       0.083
       0.431
       0.461
       0.060
      -0.520
      -0.893
      -0.884
      -0.651
      -0.475
      -0.461
      -0.436
      -0.154
       0.409
       0.973
       1.190
       0.971
       0.573
       0.353
       0.437
       0.618
       0.596
       0.287
      -0.091
      -0.241
      -0.086
       0.168
       0.252
       0.103
      -0.090
      -0.107
       0.064
       0.204
       0.079
      -0.326
      -0.779
      -0.991
      -0.856
      -0.507
      -0.173
       0.011
       0.081
       0.153
       0.282
       0.407
       0.410
       0.238
      -0.042
      -0.278
      -0.353
      -0.271
      -0.154
      -0.138
      -0.264
      -0.432
      -0.476
      -0.289
       0.086
       0.481
       0.732
       0.805
       0.800
       0.833
       0.904
       0.884
       0.627
       0.115
      -0.501
      -1.000
      -1.234
      -1.195
      -0.963
      -0.609
      -0.167
       0.315
       0.735
       0.963
       0.933
       0.686
       0.338
       0.003
      -0.258
      -0.416
      -0.455
      -0.377
      -0.246
      -0.179
      -0.263
      -0.463
      -0.643
      -0.686
      -0.608
      -0.530
      -0.543
      -0.589
      -0.501
      -0.157
       0.383
       0.909
       1.207
       1.202
       0.971
       0.648
       0.325
       0.028
      -0.240
      -0.458
      -0.575
      -0.531
      -0.285
       0.138
       0.626
       1.010
       1.137
       0.976
       0.640
       0.304
       0.071
      -0.106
      -0.343
      -0.678
      -0.990
      -1.090
      -0.890
      -0.498
      -0.122
       0.099
       0.189
       0.257
       0.340
       0.349
       0.171
      -0.166
      -0.477
      -0.568
      -0.428
      -0.235
      -0.166
      -0.207
      -0.164
       0.116
       0.540
       0.824
       0.762
       0.436
       0.146
       0.103
       0.213
       0.182
      -0.160
      -0.651
      -0.922
      -0.736
      -0.208
       0.305
       0.530
       0.482
       0.372
       0.340
       0.310
       0.123
      -0.230
      -0.537
      -0.547
      -0.217
       0.221
       0.465
       0.410
       0.218
       0.128
       0.210
       0.309
       0.222
      -0.074
      -0.384
      -0.478
      -0.309
      -0.059
       0.044
      -0.055
      -0.197
      -0.179
       0.036
       0.284
       0.368
       0.249
       0.069
      -0.015
       0.005
      -0.017
      -0.198
      -0.467
      -0.597
      -0.429
      -0.055
       0.227
       0.172
      -0.172
      -0.481
      -0.428
       0.032
       0.613
       0.937
       0.838
       0.457
       0.079
      -0.130
      -0.213
      -0.298
      -0.412
      -0.445
      -0.289
       0.010
       0.263
       0.312
       0.180
       0.037
       0.012
       0.049
      -0.028
      -0.298
      -0.619
      -0.720
      -0.462
       0.015
       0.382
       0.390
       0.068
      -0.307
      -0.450
      -0.287
       0.012
       0.208
       0.191
       0.061
       0.013
       0.161
       0.442
       0.663
       0.660
       0.418
       0.079
      -0.176
      -0.240
      -0.136
       0.028
       0.142
       0.155
       0.090
       0.012
      -0.040
      -0.078
      -0.154
      -0.294
      -0.447
      -0.498
      -0.355
      -0.042
       0.291
       0.472
       0.440
       0.285
       0.145
       0.081
       0.029
      -0.100
      -0.291
      -0.412
      -0.337
      -0.085
       0.170
       0.260
       0.172
       0.050
       0.035
       0.121
       0.177
       0.118
       0.015
       0.034
       0.247
       0.519
       0.608
       0.400
       0.037
      -0.205
      -0.174
       0.008
       0.058
      -0.183
      -0.595
      -0.875
      -0.807
      -0.447
      -0.048
       0.168
       0.186
       0.147
       0.164
       0.195
       0.100
