Origin Time       11/2/2013 10:48:55	
Lat.              31.0 N	
Long.             78.4 E	
Depth (Km)          5.0
Magnitude         4.3
 Region           UTTARKASHI-UTTARAKHAND                                           
 Above details taken from IMD 
     
Station Code      UTK
Station Lat.       30.730  N
Station Long.      78.445  E
Station Height(m) 1147.0
Site Class        A   Vs30 between 700 m/sec to 1400 m/sec * 
Record Time       11.02.2013 10:48:28.844
Sampling Rate     200. Hz
 Record Duration   96.240 Sec.
 Direction         E-W (E positive)
Max. Acceleration     -7.693 cm/sec**2
     
  * For reference see Site Classification link of website 
     
 Base Line Corrected and Low Pass Filtered (Cut Off at 35 Hz) Time History
 Acceleration data in cm/sec**2
    
[...]
       0.036
       0.047
       0.039
       0.016
      -0.011
      -0.034
      -0.045
      -0.041
      -0.025
      -0.008
       0.008
       0.025
       0.036
       0.033
       0.021
       0.011
       0.008
       0.005
      -0.003
      -0.011
      -0.015
      -0.015
      -0.012
      -0.009
      -0.012
      -0.024
      -0.037
      -0.033
      -0.010
       0.024
       0.053
       0.065
       0.057
       0.031
      -0.001
      -0.025
      -0.039
      -0.050
      -0.058
      -0.055
      -0.038
      -0.013
       0.010
       0.028
       0.035
       0.029
       0.019
       0.014
       0.014
       0.012
       0.005
       0.003
       0.007
       0.009
       0.003
      -0.008
      -0.019
      -0.028
      -0.032
      -0.026
      -0.008
       0.016
       0.040
       0.054
       0.050
       0.028
       0.002
      -0.014
      -0.022
      -0.030
      -0.041
      -0.044
      -0.035
      -0.020
      -0.003
       0.014
       0.026
       0.030
       0.029
       0.027
       0.020
       0.006
      -0.007
      -0.006
       0.006
       0.014
       0.010
      -0.002
      -0.013
      -0.017
      -0.011
       0.002
       0.014
       0.018
       0.017
       0.017
       0.018
       0.019
       0.018
       0.017
       0.006
      -0.016
      -0.038
      -0.040
      -0.021
       0.006
       0.029
       0.042
       0.045
       0.035
       0.020
       0.011
       0.011
       0.015
       0.017
       0.015
       0.008
      -0.002
      -0.006
      -0.001
       0.006
       0.003
      -0.008
      -0.019
      -0.022
      -0.015
      -0.002
       0.014
       0.025
       0.028
       0.029
       0.028
       0.017
      -0.010
      -0.041
      -0.051
      -0.033
       0.002
       0.032
       0.042
       0.030
       0.006
      -0.009
      -0.002
       0.018
       0.029
       0.023
       0.008
      -0.005
      -0.013
      -0.014
      -0.009
      -0.004
      -0.006
      -0.007
      -0.001
       0.009
       0.017
       0.018
       0.018
       0.015
       0.009
       0.002
      -0.002
      -0.004
      -0.009
      -0.014
      -0.013
      -0.007
      -0.003
      -0.001
       0.003
       0.008
       0.008
       0.006
       0.009
       0.015
       0.014
       0.006
      -0.006
      -0.016
      -0.021
      -0.015
       0.000
       0.011
       0.010
       0.001
      -0.002
       0.007
       0.023
       0.039
       0.046
       0.034
       0.004
      -0.025
      -0.036
      -0.031
      -0.026
      -0.025
      -0.022
      -0.012
       0.005
       0.020
       0.024
       0.014
      -0.002
      -0.010
      -0.007
      -0.006
      -0.015
      -0.029
      -0.031
      -0.022
      -0.011
      -0.005
      -0.002
      -0.003
      -0.004
       0.000
       0.007
       0.014
       0.017
       0.023
       0.034
       0.042
       0.039
       0.030
       0.024
       0.022
       0.020
       0.018
       0.020
       0.021
       0.018
       0.014
       0.018
       0.030
       0.047
       0.067
       0.088
       0.100
       0.097
       0.082
       0.059
       0.028
      -0.008
      -0.034
      -0.038
      -0.027
      -0.012
       0.012
       0.053
       0.113
       0.174
       0.212
       0.211
       0.171
       0.122
       0.099
       0.117
       0.154
       0.179
       0.174
       0.132
       0.048
      -0.081
      -0.230
      -0.348
      -0.383
      -0.322
      -0.212
      -0.137
      -0.152
      -0.228
      -0.268
      -0.196
      -0.031
       0.132
       0.211
       0.200
       0.153
       0.113
       0.061
      -0.058
      -0.255
      -0.438
      -0.464
      -0.278
       0.003
       0.178
       0.148
       0.012
      -0.027
       0.123
       0.339
       0.392
       0.177
      -0.166
      -0.396
      -0.415
      -0.364
      -0.445
      -0.687
      -0.886
      -0.798
      -0.387
       0.129
       0.469
       0.539
       0.505
       0.601
       0.883
       1.159
       1.182
       0.879
       0.398
      -0.042
      -0.335
      -0.519
      -0.671
      -0.799
      -0.858
      -0.839
      -0.799
      -0.771
      -0.670
      -0.350
       0.233
       0.917
       1.438
       1.616
       1.462
       1.127
       0.778
       0.514
       0.327
       0.124
      -0.204
      -0.693
      -1.246
      -1.679
      -1.833
      -1.685
      -1.353
      -0.996
      -0.705
      -0.466
      -0.211
       0.107
       0.482
       0.857
       1.147
       1.288
       1.278
       1.169
       1.023
       0.879
       0.760
       0.674
       0.598
       0.450
       0.146
      -0.320
      -0.834
      -1.222
      -1.361
      -1.254
      -1.017
      -0.767
      -0.532
      -0.256
       0.107
       0.520
       0.905
       1.211
       1.433
       1.562
       1.537
       1.258
       0.657
      -0.208
      -1.120
      -1.791
      -2.022
      -1.830
      -1.407
      -0.957
      -0.553
      -0.130
       0.394
       0.984
       1.483
       1.714
       1.611
       1.239
       0.712
       0.118
      -0.501
      -1.104
      -1.619
      -1.961
      -2.074
      -1.957
      -1.660
      -1.239
      -0.731
      -0.173
       0.363
       0.779
       1.004
       1.035
       0.913
       0.671
       0.326
      -0.082
      -0.434
      -0.536
      -0.225
       0.464
       1.238
       1.700
       1.643
       1.200
       0.709
       0.411
       0.267
       0.059
      -0.343
      -0.811
      -1.065
      -0.927
      -0.484
       0.014
       0.394
       0.681
       0.990
       1.334
       1.566
       1.494
       1.055
       0.373
      -0.331
      -0.904
      -1.322
      -1.633
      -1.832
      -1.834
      -1.539
      -0.945
      -0.197
       0.458
       0.798
       0.774
       0.542
       0.327
       0.242
       0.234
       0.200
       0.124
       0.070
       0.067
       0.022
      -0.199
      -0.604
      -0.988
      -1.065
      -0.720
      -0.142
       0.318
       0.450
       0.355
       0.334
       0.593
       1.035
       1.312
       1.107
       0.416
      -0.417
      -0.976
      -1.109
      -0.991
      -0.875
      -0.804
      -0.613
      -0.183
       0.356
       0.711
       0.715
       0.505
       0.387
       0.510
       0.696
       0.615
       0.141
      -0.474
      -0.804
      -0.633
      -0.159
       0.170
       0.040
      -0.464
      -0.948
      -1.075
      -0.845
      -0.531
      -0.355
      -0.284
      -0.137
       0.162
       0.475
       0.606
       0.533
       0.467
       0.643
       1.043
       1.346
       1.211
       0.624
      -0.077
      -0.547
      -0.782
      -1.042
      -1.439
      -1.673
      -1.277
      -0.152
       1.205
       2.073
       2.122
       1.666
       1.290
       1.267
       1.344
       1.064
       0.269
      -0.711
      -1.332
      -1.307
      -0.840
      -0.419
      -0.365
      -0.574
      -0.684
      -0.485
      -0.130
       0.043
      -0.121
      -0.439
      -0.590
      -0.464
      -0.278
      -0.347
      -0.722
      -1.092
      -1.073
      -0.559
       0.195
       0.812
       1.076
       1.001
       0.709
       0.308
      -0.142
      -0.570
      -0.839
      -0.786
      -0.341
       0.347
       0.944
       1.156
       0.970
       0.689
       0.668
       0.998
       1.390
       1.406
       0.828
      -0.167
      -1.163
      -1.856
      -2.218
      -2.371
      -2.325
      -1.901
      -0.924
       0.507
       1.964
       2.958
       3.282
       3.119
       2.799
       2.456
       1.935
       1.022
      -0.245
      -1.523
      -2.412
      -2.781
      -2.839
      -2.884
      -2.989
      -2.930
      -2.432
      -1.452
      -0.226
       0.925
       1.804
       2.346
       2.493
       2.136
       1.247
       0.067
      -0.905
      -1.217
      -0.836
      -0.234
      -0.017
      -0.390
      -0.964
      -1.116
      -0.571
       0.336
       0.975
       1.025
       0.754
       0.690
       1.018
       1.356
       1.161
       0.364
      -0.475
      -0.676
      -0.095
       0.738
       1.112
       0.745
      -0.060
      -0.810
      -1.291
      -1.627
      -1.944
      -2.090
      -1.779
      -0.983
      -0.095
       0.394
       0.392
       0.326
       0.725
       1.650
       2.546
       2.699
       1.885
       0.588
      -0.416
      -0.710
      -0.525
      -0.426
      -0.746
      -1.310
      -1.688
      -1.682
      -1.518
      -1.532
      -1.697
      -1.539
      -0.619
       0.930
       2.385
       3.042
       2.843
       2.377
       2.242
       2.408
       2.251
       1.221
      -0.539
      -2.280
      -3.320
      -3.586
      -3.483
      -3.315
      -2.939
      -2.015
      -0.519
       1.079
       2.185
       2.600
       2.640
       2.720
       2.879
       2.761
       2.065
       0.960
      -0.003
      -0.387
      -0.249
      -0.039
      -0.150
      -0.579
      -1.008
      -1.179
      -1.138
      -1.105
      -1.147
      -1.064
      -0.633
       0.071
       0.657
       0.752
       0.319
      -0.332
      -0.820
      -0.978
      -0.895
      -0.731
      -0.548
      -0.338
      -0.149
      -0.132
      -0.394
      -0.837
      -1.145
      -0.976
      -0.195
       0.993
       2.127
       2.750
       2.678
       2.084
       1.324
       0.677
       0.185
      -0.315
      -1.019
      -1.934
      -2.776
      -3.101
      -2.608
      -1.379
       0.149
       1.468
       2.272
       2.545
       2.428
       2.041
       1.415
       0.581
      -0.314
      -1.002
      -1.249
      -1.039
      -0.599
      -0.231
      -0.078
      -0.021
       0.178
       0.584
       0.936
       0.834
       0.110
      -0.953
      -1.814
      -2.073
      -1.730
      -1.114
      -0.583
      -0.275
      -0.070
       0.250
       0.802
       1.489
       2.040
       2.143
       1.630
       0.610
      -0.545
      -1.399
      -1.708
      -1.539
      -1.170
      -0.872
      -0.755
      -0.755
      -0.733
      -0.578
      -0.279
       0.085
       0.373
       0.455
       0.309
       0.120
       0.218
       0.807
       1.676
       2.231
       1.948
       0.878
      -0.303
      -0.823
      -0.477
       0.202
       0.441
      -0.055
      -0.843
      -1.189
      -0.784
      -0.029
       0.393
       0.187
      -0.305
      -0.503
      -0.202
       0.240
       0.307
      -0.119
      -0.609
      -0.609
       0.015
       0.840
       1.262
       1.006
       0.296
      -0.417
      -0.843
      -0.991
      -0.994
      -0.893
      -0.634
      -0.244
       0.086
       0.169
       0.046
      -0.016
       0.200
       0.593
       0.813
       0.611
       0.119
      -0.240
      -0.162
       0.221
       0.418
       0.013
      -0.934
      -1.892
      -2.244
      -1.742
      -0.674
       0.373
       0.925
       0.901
       0.569
       0.244
       0.033
      -0.165
      -0.453
      -0.763
      -0.895
      -0.681
      -0.119
       0.665
       1.531
       2.397
       3.180
       3.704
       3.717
       3.057
       1.829
       0.394
      -0.837
      -1.648
      -2.084
      -2.314
      -2.441
      -2.419
      -2.126
      -1.517
      -0.706
       0.098
       0.729
       1.136
       1.325
       1.253
       0.838
       0.095
      -0.758
      -1.361
      -1.457
      -1.104
      -0.629
      -0.334
      -0.229
      -0.073
       0.321
       0.841
       1.169
       1.073
       0.633
       0.162
      -0.072
      -0.080
      -0.121
      -0.432
      -0.968
      -1.418
      -1.479
      -1.117
      -0.573
      -0.150
       0.044
       0.155
       0.425
       0.933
       1.507
       1.884
       1.965
       1.875
       1.763
       1.601
       1.218
       0.567
      -0.125
      -0.530
      -0.567
      -0.541
      -0.873
      -1.669
      -2.587
      -3.163
      -3.236
      -3.033
      -2.833
      -2.609
      -2.041
      -0.883
       0.705
       2.203
       3.131
       3.400
       3.269
       2.968
       2.420
       1.372
      -0.209
      -1.922
      -3.161
      -3.579
      -3.331
      -2.871
      -2.492
      -2.089
      -1.353
      -0.211
       0.972
       1.659
       1.614
       1.088
       0.544
       0.223
       0.016
      -0.268
      -0.568
      -0.568
      -0.065
       0.693
       1.123
       0.839
       0.108
      -0.305
       0.212
       1.565
       3.055
       3.985
       4.174
       3.940
       3.660
       3.405
       2.972
       2.200
       1.185
       0.172
      -0.707
      -1.546
      -2.486
      -3.474
      -4.222
      -4.398
      -3.844
      -2.626
      -0.946
       0.959
       2.817
       4.284
       4.968
       4.589
       3.181
       1.164
      -0.823
      -2.232
      -2.864
      -2.862
      -2.446
      -1.659
      -0.381
       1.377
       3.224
       4.510
       4.763
       4.029
       2.768
       1.410
       0.018
      -1.620
      -3.582
      -5.557
      -6.989
      -7.467
      -6.931
      -5.550
      -3.474
      -0.811
       2.167
       4.898
       6.728
       7.288
       6.694
       5.336
       3.474
       1.087
      -1.831
      -4.850
      -7.082
      -7.693
      -6.526
      -4.230
      -1.771
       0.252
       1.885
       3.486
       5.151
       6.476
       6.868
       6.058
       4.310
       2.151
      -0.062
      -2.271
      -4.443
      -6.235
      -7.032
      -6.420
      -4.628
      -2.471
      -0.768
       0.235
       0.911
       1.750
       2.832
       3.776
       4.159
       3.929
       3.402
       2.914
       2.540
       2.136
       1.579
       0.909
       0.236
      -0.425
      -1.171
      -2.057
      -2.982
      -3.774
      -4.361
      -4.791
      -5.068
      -5.009
      -4.329
      -2.882
      -0.851
       1.264
       2.872
       3.592
       3.434
       2.732
       1.879
       1.097
       0.409
      -0.195
      -0.614
      -0.674
      -0.328
       0.194
       0.497
       0.339
      -0.155
      -0.586
      -0.619
      -0.234
       0.292
       0.613
       0.510
      -0.061
      -1.018
      -2.204
      -3.372
      -4.186
      -4.338
      -3.748
      -2.646
      -1.439
      -0.451
       0.230
       0.691
       1.034
       1.281
       1.377
       1.240
       0.818
       0.127
      -0.718
      -1.505
      -2.007
      -2.105
      -1.836
      -1.306
      -0.520
       0.647
       2.292
       4.271
       6.163
       7.432
       7.681
       6.802
       4.981
       2.615
       0.206
      -1.750
      -2.906
      -3.194
      -2.840
      -2.196
      -1.486
      -0.691
       0.329
       1.608
       2.969
       4.139
       4.912
       5.197
       4.939
       4.035
       2.381
       0.033
      -2.669
      -5.161
      -6.865
      -7.427
      -6.817
      -5.296
      -3.308
      -1.354
       0.170
       1.114
       1.605
       1.915
       2.250
       2.612
       2.842
       2.797
       2.495
       2.086
       1.692
       1.290
       0.760
       0.046
      -0.747
      -1.408
      -1.800
      -1.990
      -2.216
      -2.677
      -3.312
      -3.770
      -3.614
      -2.634
      -1.020
       0.721
       2.034
       2.594
       2.417
       1.750
       0.833
      -0.243
      -1.480
      -2.805
      -3.978
      -4.684
      -4.727
      -4.165
      -3.250
      -2.221
      -1.149
       0.014
       1.247
       2.351
       3.074
       3.331
       3.298
       3.245
       3.283
       3.257
       2.914
       2.178
       1.236
       0.350
      -0.401
      -1.127
      -1.880
      -2.440
      -2.429
      -1.665
      -0.432
       0.645
       1.025
       0.629
      -0.150
      -0.806
      -1.102
      -1.142
      -1.130
      -1.132
      -1.085
      -0.960
      -0.823
      -0.693
      -0.373
       0.474
       2.001
       3.895
       5.470
       6.123
       5.752
       4.741
       3.552
       2.369
       1.117
      -0.274
      -1.696
      -2.946
      -3.867
      -4.375
      -4.394
      -3.855
      -2.803
      -1.482
      -0.273
       0.510
       0.777
       0.640
       0.255
      -0.271
      -0.840
      -1.285
      -1.411
      -1.122
      -0.484
       0.339
       1.181
       1.906
       2.384
       2.479
       2.122
       1.401
       0.598
       0.064
       0.001
       0.304
       0.660
       0.813
       0.767
       0.720
       0.829
       1.048
       1.176
       1.038
       0.582
      -0.150
      -1.080
      -2.084
      -2.975
      -3.562
      -3.772
      -3.675
      -3.379
      -2.915
      -2.252
      -1.412
      -0.524
       0.236
       0.747
       0.989
       1.042
       1.068
       1.263
       1.776
       2.594
       3.508
       4.180
       4.314
       3.789
       2.692
       1.239
      -0.326
      -1.802
      -3.063
      -4.040
      -4.662
      -4.813
      -4.400
      -3.487
      -2.325
      -1.192
      -0.192
       0.781
       1.849
       2.927
       3.693
       3.813
       3.200
       2.092
       0.870
      -0.188
      -0.977
      -1.439
      -1.444
      -0.844
       0.343
       1.828
       3.160
       3.974
       4.176
       3.903
       3.322
       2.485
       1.388
       0.140
      -0.991
      -1.748
      -2.087
      -2.211
      -2.386
      -2.712
      -3.058
      -3.190
      -2.997
      -2.598
      -2.236
      -2.032
      -1.848
      -1.403
      -0.545
       0.595
       1.687
       2.446
       2.820
       2.952
       2.980
       2.891
       2.572
       1.990
       1.270
       0.565
      -0.114
      -0.879
      -1.747
      -2.477
      -2.689
      -2.214
      -1.334
      -0.641
      -0.573
      -1.041
      -1.517
      -1.493
      -0.877
       0.018
       0.822
       1.398
       1.829
       2.181
       2.352
       2.174
       1.632
       0.922
       0.272
      -0.255
      -0.761
      -1.324
      -1.841
      -2.082
      -1.894
      -1.371
      -0.822
      -0.558
      -0.663
      -0.948
      -1.150
      -1.164
      -1.101
      -1.112
      -1.193
      -1.186
      -0.966
      -0.615
      -0.371
      -0.392
      -0.547
      -0.495
       0.004
       0.837
       1.602
       1.946
       1.858
       1.657
       1.706
       2.103
       2.611
       2.886
       2.780
       2.434
       2.054
       1.627
       0.893
      -0.365
      -1.999
      -3.496
      -4.329
      -4.336
      -3.804
      -3.175
      -2.685
      -2.248
      -1.676
      -0.958
      -0.282
       0.198
       0.557
       1.030
       1.739
       2.521
       3.045
       3.087
       2.694
       2.078
       1.382
       0.590
      -0.325
      -1.211
      -1.759
      -1.755
      -1.294
      -0.712
      -0.294
      -0.038
       0.296
       0.892
       1.633
       2.157
       2.166
       1.674
       0.965
       0.337
      -0.090
      -0.355
      -0.523
