Origin Time       09/2/2011 19:17:29	
Lat.              30.9 N	
Long.             78.2 E	
Depth (Km)         10.0
Magnitude         5.0
 Region           UTTARKASHI-UTTARAKHAND                                           
 Above details taken from IMD 
     
Station Code      UTK
Station Lat.       30.730  N
Station Long.      78.445  E
Station Height(m) 1147.0
Site Class        A   Vs30 between 700 m/sec to 1400 m/sec * 
Record Time       08.03.2061 00:43:07.099
Sampling Rate     200. Hz
 Record Duration  104.450 Sec.
 Direction         E-W (E positive)
Max. Acceleration     10.830 cm/sec**2
     
  * For reference see Site Classification link of website 
     
 Base Line Corrected and Low Pass Filtered (Cut Off at 35 Hz) Time History
 Acceleration data in cm/sec**2
    
[...]
       0.011
       0.014
       0.015
       0.014
       0.011
       0.010
       0.011
       0.016
       0.022
       0.025
       0.023
       0.016
       0.010
       0.008
       0.009
       0.010
       0.009
       0.004
      -0.005
      -0.014
      -0.017
      -0.012
      -0.002
       0.005
       0.007
       0.005
       0.004
       0.005
       0.009
       0.012
       0.009
       0.001
      -0.006
      -0.007
      -0.002
       0.004
       0.008
       0.006
       0.000
      -0.006
      -0.008
      -0.004
       0.003
       0.007
       0.006
      -0.001
      -0.007
      -0.007
       0.002
       0.016
       0.024
       0.024
       0.019
       0.014
       0.012
       0.012
       0.013
       0.013
       0.013
       0.012
       0.011
       0.009
       0.008
       0.008
       0.011
       0.015
       0.019
       0.020
       0.019
       0.016
       0.011
       0.005
       0.000
      -0.001
      -0.001
       0.000
       0.003
       0.008
       0.015
       0.021
       0.027
       0.031
       0.029
       0.023
       0.015
       0.010
       0.004
      -0.003
      -0.011
      -0.015
      -0.014
      -0.007
       0.002
       0.008
       0.007
       0.003
       0.000
       0.002
       0.007
       0.012
       0.012
       0.008
       0.003
       0.001
       0.005
       0.010
       0.013
       0.011
       0.008
       0.007
       0.008
       0.012
       0.019
       0.025
       0.026
       0.021
       0.014
       0.009
       0.005
       0.004
       0.005
       0.005
       0.004
       0.004
       0.005
       0.009
       0.010
       0.006
       0.002
      -0.001
       0.001
       0.005
       0.010
       0.014
       0.016
       0.017
       0.015
       0.012
       0.006
       0.002
       0.005
       0.013
       0.019
       0.019
       0.012
       0.001
      -0.007
      -0.010
      -0.005
       0.003
       0.008
       0.007
       0.004
       0.002
       0.002
       0.004
       0.003
       0.000
      -0.004
      -0.005
      -0.001
       0.004
       0.005
       0.003
       0.001
       0.002
       0.007
       0.010
       0.010
       0.004
      -0.005
      -0.008
      -0.001
       0.011
       0.019
       0.018
       0.010
       0.001
      -0.001
       0.004
       0.011
       0.012
       0.007
       0.000
       0.000
       0.005
       0.012
       0.015
       0.014
       0.012
       0.010
       0.009
       0.010
       0.009
       0.008
       0.006
       0.007
       0.009
       0.009
       0.006
       0.001
      -0.005
      -0.008
      -0.008
      -0.003
       0.003
       0.007
       0.005
      -0.001
      -0.008
      -0.010
      -0.004
       0.004
       0.008
       0.007
       0.007
       0.012
       0.021
       0.032
       0.046
       0.062
       0.079
       0.094
       0.108
       0.119
       0.129
       0.139
       0.148
       0.156
       0.159
       0.161
       0.167
       0.182
       0.201
       0.219
       0.227
       0.223
       0.206
       0.177
       0.140
       0.102
       0.065
       0.028
      -0.013
      -0.061
      -0.111
      -0.161
      -0.216
      -0.285
      -0.368
      -0.440
      -0.468
      -0.437
      -0.364
      -0.283
      -0.214
      -0.147
      -0.065
       0.028
       0.099
       0.110
       0.063
       0.012
       0.030
       0.139
       0.293
       0.407
       0.429
       0.381
       0.328
       0.308
       0.289
       0.200
       0.020
      -0.166
      -0.219
      -0.072
       0.180
       0.345
       0.297
       0.095
      -0.077
      -0.089
       0.011
       0.051
      -0.081
      -0.334
      -0.542
      -0.565
      -0.367
      -0.004
       0.411
       0.747
       0.900
       0.862
       0.736
       0.643
       0.610
       0.546
       0.330
      -0.056
      -0.480
      -0.752
      -0.766
      -0.563
      -0.280
      -0.032
       0.140
       0.243
       0.283
       0.261
       0.182
       0.061
      -0.085
      -0.243
      -0.387
      -0.488
      -0.539
      -0.595
      -0.751
      -1.067
      -1.490
      -1.883
      -2.128
      -2.216
      -2.208
      -2.121
      -1.865
      -1.301
      -0.380
       0.780
       1.931
       2.818
       3.281
       3.275
       2.836
       2.065
       1.141
       0.299
      -0.257
      -0.461
      -0.415
      -0.293
      -0.192
      -0.062
       0.216
       0.677
       1.201
       1.589
       1.700
       1.525
       1.125
       0.549
      -0.184
      -1.027
      -1.839
      -2.416
      -2.609
      -2.432
      -2.046
      -1.640
      -1.301
      -1.004
      -0.698
      -0.373
      -0.062
       0.190
       0.353
       0.416
       0.398
       0.346
       0.305
       0.282
       0.257
       0.225
       0.217
       0.258
       0.324
       0.344
       0.270
       0.105
      -0.138
      -0.467
      -0.851
      -1.106
      -0.931
      -0.130
       1.132
       2.340
       2.948
       2.735
       1.901
       0.870
       0.015
      -0.493
      -0.689
      -0.743
      -0.843
      -1.051
      -1.218
      -1.075
      -0.457
       0.511
       1.458
       2.051
       2.234
       2.187
       2.042
       1.708
       1.013
      -0.021
      -1.116
      -1.962
      -2.451
      -2.649
      -2.596
      -2.214
      -1.451
      -0.484
       0.291
       0.512
       0.138
      -0.510
      -0.993
      -1.071
      -0.837
      -0.582
      -0.554
      -0.795
      -1.159
      -1.413
      -1.341
      -0.826
       0.035
       0.890
       1.288
       1.042
       0.447
       0.090
       0.336
       1.012
       1.619
       1.855
       1.859
       1.945
       2.153
       2.167
       1.673
       0.721
      -0.292
      -0.948
      -1.088
      -0.829
      -0.413
      -0.077
       0.023
      -0.118
      -0.330
      -0.363
      -0.105
       0.257
       0.319
      -0.230
      -1.299
      -2.400
      -2.988
      -2.866
      -2.287
      -1.667
      -1.216
      -0.840
      -0.364
       0.212
       0.685
       0.834
       0.597
       0.095
      -0.458
      -0.832
      -0.808
      -0.205
       1.012
       2.629
       4.195
       5.218
       5.437
       4.939
       4.051
       3.101
       2.270
       1.608
       1.118
       0.751
       0.357
      -0.256
      -1.094
      -1.851
      -2.104
      -1.735
      -1.127
      -0.868
      -1.258
      -2.127
      -3.100
      -3.955
      -4.650
      -5.089
      -5.001
      -4.156
      -2.655
      -0.936
       0.548
       1.614
       2.321
       2.707
       2.644
       1.974
       0.767
      -0.622
      -1.756
      -2.374
      -2.477
      -2.209
      -1.705
      -1.033
      -0.242
       0.574
       1.293
       1.860
       2.322
       2.736
       3.048
       3.088
       2.733
       2.045
       1.256
       0.632
       0.355
       0.478
       0.925
       1.508
       1.971
       2.103
       1.862
       1.415
       1.006
       0.756
       0.562
       0.211
      -0.391
      -1.111
      -1.696
      -1.986
      -2.017
      -1.939
      -1.860
      -1.784
      -1.665
      -1.494
      -1.333
      -1.275
      -1.381
      -1.621
      -1.871
      -1.971
      -1.824
      -1.450
      -0.945
      -0.389
       0.180
       0.708
       1.096
       1.275
       1.306
       1.357
       1.568
       1.908
       2.179
       2.176
       1.880
       1.500
       1.295
       1.320
       1.377
       1.224
       0.829
       0.380
       0.082
      -0.023
      -0.050
      -0.147
      -0.395
      -0.767
      -1.145
      -1.376
      -1.356
      -1.121
      -0.847
      -0.760
      -0.937
      -1.199
      -1.199
      -0.713
       0.142
       0.978
       1.440
       1.465
       1.233
       0.918
       0.510
      -0.091
      -0.852
      -1.536
      -1.896
      -1.914
      -1.806
      -1.782
      -1.822
      -1.693
      -1.191
      -0.360
       0.496
       0.998
       0.947
       0.469
      -0.044
      -0.172
       0.266
       1.112
       1.984
       2.520
       2.588
       2.349
       2.117
       2.109
       2.274
       2.357
       2.142
       1.635
       1.014
       0.441
      -0.063
      -0.544
      -0.956
      -1.127
      -0.914
      -0.397
       0.099
       0.216
      -0.196
      -1.016
      -1.991
      -2.878
      -3.481
      -3.651
      -3.351
      -2.737
      -2.097
      -1.641
      -1.332
      -0.979
      -0.479
       0.035
       0.311
       0.228
      -0.093
      -0.414
      -0.603
      -0.712
      -0.862
      -1.035
      -1.021
      -0.578
       0.332
       1.472
       2.502
       3.217
       3.626
       3.834
       3.889
       3.763
       3.423
       2.867
       2.093
       1.112
       0.054
      -0.773
      -1.047
      -0.726
      -0.169
       0.115
      -0.105
      -0.611
      -0.979
      -0.972
      -0.704
      -0.458
      -0.439
      -0.686
      -1.151
      -1.763
      -2.396
      -2.804
      -2.670
      -1.813
      -0.406
       1.010
       1.832
       1.798
       1.150
       0.402
      -0.065
      -0.210
      -0.226
      -0.290
      -0.421
      -0.523
      -0.524
      -0.460
      -0.462
      -0.669
      -1.129
      -1.741
      -2.255
      -2.370
      -1.896
      -0.891
       0.375
       1.607
       2.644
       3.441
       3.940
       4.045
       3.729
       3.117
       2.412
       1.738
       1.088
       0.405
      -0.288
      -0.863
      -1.178
      -1.233
      -1.214
      -1.365
      -1.759
      -2.210
      -2.410
      -2.151
      -1.448
      -0.481
       0.497
       1.212
       1.433
       1.083
       0.331
      -0.476
      -1.029
      -1.224
      -1.127
      -0.828
      -0.357
       0.245
       0.847
       1.261
       1.357
       1.148
       0.761
       0.363
       0.076
      -0.074
      -0.170
      -0.326
      -0.555
      -0.699
      -0.538
      -0.019
       0.625
       1.000
       0.839
       0.180
      -0.713
      -1.554
      -2.151
      -2.383
      -2.192
      -1.670
      -1.080
      -0.665
      -0.410
      -0.039
       0.656
       1.500
       1.982
       1.661
       0.563
      -0.813
      -1.867
      -2.309
      -2.238
      -1.903
      -1.420
      -0.747
       0.156
       1.199
       2.208
       3.039
       3.608
       3.830
       3.605
       2.911
       1.904
       0.903
       0.197
      -0.176
      -0.469
      -0.969
      -1.670
      -2.220
      -2.252
      -1.768
      -1.148
      -0.760
      -0.634
      -0.540
      -0.324
      -0.064
       0.063
      -0.036
      -0.370
      -0.941
      -1.671
      -2.263
      -2.269
      -1.445
      -0.058
       1.233
       1.873
       1.831
       1.554
       1.522
       1.858
       2.301
       2.462
       2.083
       1.136
      -0.185
      -1.513
      -2.420
      -2.600
      -2.035
      -1.029
      -0.039
       0.571
       0.726
       0.613
       0.493
       0.508
       0.659
       0.908
       1.243
       1.603
       1.816
       1.657
       1.034
       0.061
      -1.040
      -2.083
      -2.954
      -3.539
      -3.710
      -3.428
      -2.821
      -2.124
      -1.487
      -0.846
      -0.027
       0.997
       1.960
       2.476
       2.385
       1.935
       1.562
       1.513
       1.690
       1.843
       1.818
       1.604
       1.215
       0.669
       0.111
      -0.166
       0.049
       0.605
       1.031
       0.967
       0.536
       0.232
       0.399
       0.843
       1.016
       0.542
      -0.452
      -1.516
      -2.314
      -2.848
      -3.317
      -3.809
      -4.163
      -4.095
      -3.449
      -2.336
      -1.071
       0.013
       0.692
       0.886
       0.630
       0.066
      -0.584
      -1.111
      -1.418
      -1.539
      -1.534
      -1.365
      -0.906
      -0.105
       0.841
       1.498
       1.467
       0.695
      -0.420
      -1.267
      -1.402
      -0.788
       0.265
       1.372
       2.330
       3.165
       3.956
       4.640
       4.990
       4.787
       3.964
       2.636
       1.025
      -0.594
      -1.944
      -2.820
      -3.169
      -3.081
      -2.677
      -1.985
      -0.917
       0.608
       2.497
       4.400
       5.820
       6.363
       5.959
       4.864
       3.443
       1.952
       0.474
      -0.974
      -2.324
      -3.460
      -4.308
      -4.902
      -5.323
      -5.571
      -5.541
      -5.137
      -4.383
      -3.410
      -2.352
      -1.303
      -0.356
       0.384
       0.852
       1.087
       1.212
       1.347
       1.554
       1.842
       2.189
       2.537
       2.774
       2.759
       2.404
       1.762
       1.031
       0.457
       0.172
       0.087
      -0.056
      -0.491
      -1.230
      -2.056
      -2.707
      -3.073
      -3.196
      -3.100
      -2.676
      -1.787
      -0.478
       0.966
       2.229
       3.242
       4.196
       5.242
       6.195
       6.610
       6.158
       4.884
       3.097
       1.091
      -0.979
      -2.994
      -4.793
      -6.244
      -7.347
      -8.181
      -8.719
      -8.725
      -7.875
      -6.026
      -3.371
      -0.345
       2.624
       5.272
       7.491
       9.218
      10.367
      10.830
      10.534
       9.524
       7.998
       6.241
       4.479
       2.787
       1.164
      -0.299
      -1.383
      -1.929
      -2.065
      -2.175
      -2.583
      -3.264
      -3.900
      -4.196
      -4.086
      -3.641
      -2.859
      -1.669
      -0.146
       1.367
       2.448
       2.897
       2.827
       2.458
       1.897
       1.139
       0.232
      -0.665
      -1.395
      -1.946
      -2.418
      -2.832
      -3.005
      -2.664
      -1.693
      -0.269
       1.228
       2.377
       2.836
       2.401
       1.095
      -0.815
      -2.930
      -4.912
      -6.570
      -7.779
      -8.352
      -8.036
      -6.672
      -4.394
      -1.685
       0.816
       2.635
       3.674
       4.117
       4.145
       3.754
       2.837
       1.428
      -0.179
      -1.523
      -2.188
      -1.994
      -1.097
       0.054
       0.958
       1.354
       1.360
       1.293
       1.370
       1.547
       1.615
       1.387
       0.826
       0.047
      -0.716
      -1.194
      -1.215
      -0.820
      -0.252
       0.239
       0.622
       1.108
       1.884
       2.809
       3.422
       3.340
       2.666
       1.954
       1.707
       1.912
       2.100
       1.871
       1.280
       0.687
       0.288
      -0.100
      -0.755
      -1.669
      -2.530
      -3.048
      -3.189
      -3.065
      -2.696
      -1.986
      -0.924
       0.289
       1.348
       2.046
       2.336
       2.247
       1.787
       0.940
      -0.246
      -1.589
      -2.802
      -3.612
      -3.923
      -3.876
      -3.717
      -3.567
      -3.324
      -2.830
      -2.131
      -1.512
      -1.264
      -1.409
      -1.704
      -1.853
      -1.707
      -1.275
      -0.635
       0.143
       1.018
       1.978
       2.994
       3.928
       4.502
       4.421
       3.598
       2.260
       0.788
      -0.536
      -1.631
      -2.490
      -3.053
      -3.243
      -3.104
      -2.840
      -2.670
      -2.657
      -2.696
      -2.652
      -2.479
      -2.175
      -1.674
      -0.847
       0.320
       1.594
       2.611
       3.178
       3.435
       3.679
       4.012
       4.173
       3.750
       2.581
       0.985
      -0.408
      -1.088
      -0.985
      -0.411
       0.262
       0.857
       1.374
       1.834
       2.214
       2.493
       2.686
       2.782
       2.694
       2.318
       1.649
       0.851
       0.200
      -0.075
       0.052
       0.389
       0.650
       0.646
       0.359
      -0.120
      -0.674
      -1.186
      -1.512
      -1.533
      -1.243
      -0.798
      -0.410
      -0.194
      -0.105
      -0.040
       0.041
       0.114
       0.219
       0.506
       1.081
       1.789
       2.221
       2.036
       1.296
       0.476
       0.106
       0.388
       1.127
       1.969
       2.666
       3.116
       3.222
       2.822
       1.805
       0.289
      -1.377
      -2.813
      -3.801
      -4.293
      -4.319
      -3.969
      -3.473
      -3.193
      -3.409
      -4.083
      -4.840
      -5.227
      -5.015
      -4.290
      -3.311
      -2.278
      -1.243
      -0.195
       0.791
       1.514
       1.784
       1.589
       1.095
       0.488
      -0.178
      -0.933
      -1.730
      -2.402
      -2.776
      -2.813
      -2.587
      -2.174
      -1.591
      -0.858
      -0.053
       0.708
       1.357
       1.921
       2.472
       3.031
       3.515
       3.789
       3.794
       3.614
       3.434
       3.382
       3.404
       3.309
       2.947
       2.370
       1.813
       1.498
       1.436
       1.393
       1.046
       0.209
      -1.050
      -2.454
      -3.679
      -4.524
      -4.961
      -5.063
      -4.891
      -4.426
      -3.615
      -2.459
      -1.085
       0.280
       1.388
       2.063
       2.253
       2.041
       1.621
       1.245
       1.147
       1.464
       2.173
       3.089
       3.943
       4.487
       4.555
       4.071
       3.054
       1.678
       0.305
      -0.631
      -0.844
      -0.364
       0.492
       1.329
       1.890
       2.159
       2.255
       2.229
       1.937
       1.144
      -0.221
      -1.907
      -3.457
      -4.491
      -4.910
      -4.839
      -4.443
      -3.807
      -2.978
      -2.044
      -1.122
      -0.266
       0.565
       1.423
       2.241
       2.819
       2.968
       2.685
       2.197
       1.804
       1.670
       1.750
       1.902
       2.062
       2.268
       2.531
       2.696
       2.480
       1.678
       0.351
      -1.189
      -2.548
      -3.422
      -3.676
      -3.357
      -2.675
      -1.926
      -1.335
      -0.952
      -0.705
      -0.566
      -0.635
      -1.036
      -1.744
      -2.552
      -3.215
      -3.619
      -3.788
      -3.747
      -3.408
      -2.617
      -1.322
       0.314
       1.980
       3.379
       4.330
       4.759
       4.657
       4.075
       3.130
       1.985
       0.815
      -0.204
      -0.900
      -1.154
      -0.964
      -0.450
       0.198
       0.810
       1.284
       1.586
       1.708
       1.608
       1.210
       0.479
      -0.473
      -1.383
      -1.972
      -2.138
      -2.013
      -1.836
      -1.756
      -1.756
      -1.721
      -1.562
      -1.252
      -0.798
      -0.236
       0.327
       0.713
       0.787
       0.610
       0.436
       0.489
       0.733
       0.905
       0.806
       0.537
       0.395
       0.547
       0.829
       0.897
       0.556
      -0.069
      -0.661
      -0.967
      -0.910
      -0.547
       0.013
       0.617
       1.086
       1.281
       1.175
       0.851
       0.416
      -0.066
      -0.581
      -1.101
      -1.532
      -1.713
      -1.516
      -0.968
      -0.275
