Origin Time       14/12/2005 07:09:48
Lat.              30.9 N 
Long.             79.3 E 
Depth (Km)         25.7
Magnitude         5.2
 Region           Chamoli-Uttarakhand                                              
 Above details taken from IMD 
   
Station Code      UTT
Station Lat.       30.730
Station Long.      78.445
Station Height(m) 1147.0
Site Class        A   Vs30 between 700 m/sec to 1400 m/sec * 
Record Time       14.12.2005 07:09:57.779
Sampling Rate     200. Hz
 Record Duration   39.095 Sec.
 Direction         Vert. (Up positive)
Max. Acceleration     10.588 cm/sec**2
     
  * For reference see Site Classification link of website 
     
 Base Line Corrected and Low Pass Filtered (Cut Off at 35 Hz) Time History
 Acceleration data in cm/sec**2
    
[...]
       1.772
       1.110
       0.174
      -0.526
      -0.694
      -0.378
       0.127
       0.481
       0.464
       0.057
      -0.569
      -1.118
      -1.286
      -0.891
       0.004
       1.083
       1.895
       2.064
       1.467
       0.292
      -1.042
      -2.064
      -2.428
      -2.032
      -1.026
       0.270
       1.481
       2.299
       2.570
       2.317
       1.671
       0.791
      -0.164
      -1.038
      -1.679
      -1.977
      -1.894
      -1.464
      -0.781
       0.017
       0.765
       1.303
       1.521
       1.411
       1.084
       0.692
       0.337
       0.035
      -0.220
      -0.392
      -0.431
      -0.360
      -0.314
      -0.464
      -0.882
      -1.459
      -1.957
      -2.149
      -1.932
      -1.334
      -0.463
       0.527
       1.437
       2.024
       2.073
       1.502
       0.469
      -0.617
      -1.242
      -1.028
       0.058
       1.675
       3.263
       4.251
       4.255
       3.186
       1.286
      -0.952
      -2.924
      -4.104
      -4.202
      -3.255
      -1.610
       0.205
       1.651
       2.353
       2.205
       1.375
       0.195
      -1.004
      -1.998
      -2.650
      -2.839
      -2.445
      -1.429
       0.077
       1.750
       3.165
       3.934
       3.848
       2.926
       1.395
      -0.393
      -2.046
      -3.218
      -3.698
      -3.471
      -2.726
      -1.766
      -0.873
      -0.218
       0.158
       0.298
       0.278
       0.197
       0.162
       0.233
       0.392
       0.559
       0.689
       0.823
       1.028
       1.301
       1.528
       1.563
       1.325
       0.819
       0.101
      -0.741
      -1.556
      -2.126
      -2.248
      -1.862
      -1.085
      -0.118
       0.875
       1.813
       2.636
       3.240
       3.493
       3.306
       2.680
       1.707
       0.534
      -0.661
      -1.703
      -2.445
      -2.806
      -2.791
      -2.496
      -2.067
      -1.620
      -1.171
      -0.630
       0.091
       0.954
       1.784
       2.362
       2.539
       2.287
       1.667
       0.792
      -0.182
      -1.067
      -1.668
      -1.838
      -1.522
      -0.781
       0.191
       1.092
       1.624
       1.646
       1.268
       0.754
       0.315
      -0.033
      -0.432
      -1.012
      -1.756
      -2.492
      -3.004
      -3.149
      -2.896
      -2.303
      -1.466
      -0.492
       0.497
       1.345
       1.879
       1.972
       1.622
       0.972
       0.245
      -0.348
      -0.673
      -0.691
      -0.452
      -0.080
       0.296
       0.611
       0.889
       1.164
       1.383
       1.386
       1.039
       0.382
      -0.328
      -0.767
      -0.752
      -0.355
       0.180
       0.618
       0.862
       0.945
       0.927
       0.807
       0.539
       0.099
      -0.472
      -1.096
      -1.699
      -2.203
      -2.488
      -2.389
      -1.758
      -0.561
       1.060
       2.789
       4.198
       4.865
       4.494
       3.049
       0.817
      -1.616
      -3.546
      -4.425
      -4.093
      -2.839
      -1.229
       0.178
       1.070
       1.439
       1.449
       1.267
       0.994
       0.696
       0.440
       0.252
       0.072
      -0.226
      -0.725
      -1.358
      -1.925
      -2.198
      -2.064
      -1.582
      -0.938
      -0.323
       0.151
       0.484
       0.755
       1.074
       1.511
       2.021
       2.410
       2.415
       1.862
       0.804
      -0.470
      -1.567
      -2.189
      -2.263
      -1.914
      -1.316
      -0.566
       0.330
       1.356
       2.407
       3.301
       3.850
       3.923
       3.464
       2.494
       1.125
      -0.436
      -1.900
      -2.971
      -3.464
      -3.391
      -2.934
      -2.317
      -1.697
      -1.147
      -0.708
      -0.423
      -0.303
      -0.287
      -0.258
      -0.147
      -0.012
      -0.005
      -0.210
      -0.499
      -0.545
      -0.045
       1.037
       2.376
       3.458
       3.874
       3.524
       2.583
       1.317
      -0.063
      -1.410
      -2.576
      -3.401
      -3.764
      -3.628
      -3.023
      -2.009
      -0.699
       0.670
       1.746
       2.203
       1.923
       1.044
      -0.171
      -1.468
      -2.626
      -3.380
      -3.418
      -2.551
      -0.911
       1.035
       2.702
       3.689
       3.907
       3.506
       2.710
       1.725
       0.740
      -0.058
      -0.520
      -0.589
      -0.307
       0.217
       0.847
       1.408
       1.710
       1.620
       1.151
       0.473
      -0.167
      -0.565
      -0.657
      -0.546
      -0.432
      -0.484
      -0.737
      -1.104
      -1.460
      -1.732
      -1.911
      -2.009
      -2.048
      -2.090
      -2.232
      -2.528
      -2.888
      -3.065
      -2.747
      -1.730
      -0.076
       1.847
       3.494
       4.370
       4.244
       3.245
       1.820
       0.552
      -0.096
       0.008
       0.618
       1.274
       1.558
       1.306
       0.649
      -0.101
      -0.630
      -0.742
      -0.414
       0.212
       0.860
       1.223
       1.077
       0.369
      -0.734
      -1.853
      -2.533
      -2.458
      -1.614
      -0.275
       1.143
       2.265
       2.901
       3.070
       2.886
       2.405
       1.587
       0.393
      -1.087
      -2.614
      -3.842
      -4.415
      -4.101
      -2.925
      -1.181
       0.677
       2.182
       2.943
       2.719
       1.500
      -0.448
      -2.607
      -4.339
      -5.086
      -4.586
      -2.982
      -0.742
       1.530
       3.290
       4.198
       4.202
       3.462
       2.139
       0.300
      -1.843
      -3.607
      -3.991
      -2.562
      -0.224
       1.449
       2.001
       2.468
       3.506
       4.434
       4.766
       5.039
       5.363
       4.902
       3.387
       1.548
      -0.224
      -2.195
      -4.144
      -5.206
      -5.095
      -4.506
      -3.996
      -3.374
      -2.613
      -2.334
      -2.733
      -3.098
      -2.951
      -2.576
      -2.085
      -1.156
       0.075
       0.956
       1.309
       1.605
       2.027
       2.130
       1.656
       0.975
       0.420
      -0.072
      -0.340
       0.139
       1.372
       2.668
       3.590
       4.259
       4.603
       4.173
       2.872
       1.204
      -0.337
      -1.531
      -2.023
      -1.334
       0.446
       2.471
       3.939
       4.570
       4.191
       2.614
       0.151
      -2.400
      -4.504
      -6.115
      -7.136
      -7.250
      -6.401
      -5.000
      -3.519
      -2.269
      -1.599
      -1.814
      -2.682
      -3.462
      -3.586
      -2.959
      -1.608
       0.402
       2.629
       4.345
       5.144
       5.152
       4.651
       3.787
       2.679
       1.496
       0.432
      -0.115
       0.456
       2.184
       3.993
       4.800
       4.939
       5.215
       5.126
       3.716
       1.424
      -0.696
      -2.611
      -4.592
      -5.972
      -6.009
      -5.002
      -3.579
      -1.841
      -0.125
       0.314
      -1.223
      -3.096
      -2.747
      -0.247
       1.339
       0.220
      -1.386
      -0.974
       0.092
      -0.504
      -1.657
      -1.372
      -0.763
      -1.520
      -2.387
      -1.674
      -0.337
       0.193
       0.615
       1.972
       3.415
       3.863
       4.231
       5.518
       5.979
       3.391
      -0.664
      -2.303
      -0.818
       0.506
      -0.573
      -1.985
      -0.959
       1.140
       1.271
       0.194
       0.547
       1.524
       0.896
      -0.181
       0.472
       1.799
       1.812
       1.196
       1.366
       1.515
       0.228
      -1.612
      -2.066
      -1.412
      -1.399
      -1.716
      -0.579
       1.559
       2.495
       1.831
       0.791
      -0.462
      -2.613
      -5.269
      -7.167
      -7.776
      -7.436
      -6.118
      -3.356
       0.243
       2.938
       3.981
       4.130
       3.687
       2.181
       0.120
      -1.188
      -1.466
      -1.356
      -0.899
       0.406
       2.343
       3.953
       4.760
       5.111
       5.077
       4.141
       2.386
       0.720
      -0.543
      -1.900
      -3.254
      -3.793
      -3.357
      -2.600
      -1.897
      -1.164
      -0.612
      -0.678
      -1.154
      -1.233
      -0.678
      -0.147
      -0.033
       0.095
       0.516
       0.860
       0.916
       0.885
       0.632
      -0.319
      -1.868
      -3.185
      -3.607
      -3.153
      -2.178
      -1.122
      -0.557
      -0.665
      -0.563
       0.705
       2.207
       1.933
       0.226
      -0.245
       1.157
       2.171
       1.939
       2.054
       2.754
       2.307
       0.593
      -0.526
      -0.513
      -0.602
      -0.994
      -0.365
       1.546
       3.231
       3.942
       4.640
       5.553
       5.308
       3.557
       1.794
       0.661
      -0.814
      -2.687
      -3.554
      -2.966
      -2.084
      -1.575
      -0.838
       0.279
       0.797
       0.319
      -0.196
      -0.183
      -0.327
      -0.810
      -0.586
       0.676
       1.791
       2.024
       2.032
       2.282
       2.210
       1.532
       0.889
       0.599
       0.045
      -1.046
      -1.908
      -2.058
      -2.089
      -2.416
      -2.500
      -2.134
      -2.163
      -3.140
      -4.430
      -5.297
      -5.797
      -6.043
      -5.616
      -4.352
      -2.861
      -1.654
      -0.514
       0.649
       1.221
       0.890
       0.378
       0.418
       0.800
       1.062
       1.288
       1.630
       1.822
       1.737
       1.751
       2.059
       2.234
       1.991
       1.801
       2.166
       2.825
       3.223
       3.204
       2.758
       1.734
       0.356
      -0.574
      -0.589
      -0.235
      -0.355
      -0.962
      -1.144
       0.082
       2.728
       5.316
       5.958
       4.635
       3.171
       2.260
       0.683
      -1.893
      -4.089
      -5.252
      -5.943
      -5.918
      -4.188
      -0.991
       2.273
       4.861
       6.986
       8.412
       8.164
       6.083
       3.328
       0.678
      -2.189
      -5.057
      -6.673
      -6.571
      -5.594
      -4.321
      -2.638
      -0.899
       0.067
       0.168
       0.122
       0.155
      -0.347
      -1.607
      -2.922
      -3.866
      -4.856
      -5.898
      -6.009
      -4.619
      -2.480
      -0.662
       0.603
       1.684
       2.553
       2.638
       1.833
       0.852
       0.142
      -0.559
      -1.254
      -1.488
      -1.299
      -1.119
      -0.820
       0.057
       1.351
       2.382
       2.791
       2.725
       2.301
       1.430
       0.278
      -0.749
      -1.709
      -3.004
      -4.217
      -4.101
      -2.230
       0.191
       1.764
       2.588
       3.627
       4.736
       4.873
       4.192
       3.932
       4.264
       4.331
       4.145
       4.354
       4.650
       4.272
       3.498
       3.211
       3.481
       3.681
       3.657
       3.741
       3.677
       2.798
       1.439
       0.657
       0.200
      -1.559
      -5.102
      -8.440
      -8.919
      -6.164
      -3.208
      -3.458
      -5.959
      -6.760
      -5.528
      -5.587
      -7.206
      -7.348
      -5.837
      -5.252
      -5.575
      -4.630
      -2.483
      -0.978
      -0.136
       1.633
       4.326
       6.055
       6.286
       6.599
       7.251
       6.338
       3.620
       1.353
       0.396
      -0.519
      -1.349
      -0.560
       1.661
       3.313
       3.599
       3.490
       3.328
       2.129
      -0.197
      -2.036
      -2.483
      -2.462
      -2.411
      -1.327
       0.829
       2.404
       2.506
       1.782
       0.502
      -1.789
      -4.588
      -6.494
      -7.242
      -7.801
      -8.123
      -6.918
      -4.251
      -1.957
      -0.775
       0.371
       1.739
       2.140
       1.325
       0.477
       0.156
      -0.069
       0.081
       1.633
       4.446
       6.963
       8.330
       9.142
       9.570
       8.560
       5.726
       2.302
      -0.502
      -2.564
      -3.859
      -3.944
      -2.719
      -0.795
       1.024
       2.254
       2.731
       2.337
       1.108
      -0.413
      -1.557
      -2.210
      -2.496
      -2.154
      -0.996
       0.518
       1.757
       2.456
       2.529
       1.930
       0.857
      -0.231
      -0.995
      -1.519
      -2.055
      -2.564
      -2.856
      -3.053
      -3.322
      -3.356
      -2.731
      -1.538
      -0.254
       0.717
       1.111
       0.807
       0.014
      -0.763
      -1.154
      -1.298
      -1.616
      -2.266
      -3.063
      -3.813
      -4.370
      -4.472
      -3.912
      -2.775
      -1.267
       0.429
       1.956
       2.741
       2.428
       1.266
      -0.068
      -0.912
      -0.827
       0.430
       2.735
       5.397
       7.446
       8.225
       7.616
       5.932
       3.852
       2.257
       1.732
       2.171
       2.950
       3.434
       3.244
       2.259
       0.624
      -1.212
      -2.703
      -3.580
      -3.958
      -4.023
      -3.724
      -3.013
      -2.237
      -1.814
      -1.592
      -1.129
      -0.511
      -0.213
      -0.377
      -0.923
      -2.111
      -4.249
      -6.876
      -8.740
      -8.713
      -6.622
      -3.297
       0.071
       2.855
       5.476
       8.454
      10.588
       9.553
       5.601
       2.137
       0.693
      -0.952
      -3.729
      -5.188
      -4.227
      -2.873
      -2.088
      -0.409
       2.495
       4.789
       5.538
       5.885
       6.460
       6.023
       3.950
       1.875
       0.995
       0.082
      -1.785
      -3.246
      -3.352
      -3.276
      -3.766
      -3.813
      -2.977
      -2.429
      -2.748
      -2.809
      -1.805
      -0.667
      -0.319
      -0.100
       0.634
       0.950
       0.076
      -0.988
      -1.238
      -1.216
      -1.397
      -0.995
       0.381
       1.664
       1.963
       1.814
       1.872
       1.661
       0.693
      -0.314
      -0.576
      -0.555
      -0.840
      -0.856
      -0.017
       1.029
       1.508
       1.663
       1.774
       1.307
       0.026
      -1.152
      -1.450
      -1.528
      -2.357
      -3.480
      -3.756
      -3.200
      -2.526
      -1.562
       0.130
       1.794
       2.367
       2.137
       2.064
       2.221
       2.189
       2.208
       2.698
       3.189
       2.925
       2.203
       1.965
       2.270
       2.287
       1.532
       0.099
      -1.747
      -3.133
      -2.766
      -1.034
      -0.513
      -2.234
      -3.473
      -2.101
      -0.272
      -0.448
      -1.352
      -1.181
      -0.962
      -1.702
      -1.946
      -0.694
       0.457
       0.077
      -0.793
      -0.813
      -0.703
      -1.394
      -1.730
      -0.562
       0.640
       0.185
      -0.742
      -0.411
       0.089
      -1.074
      -2.787
      -2.551
      -0.616
       0.713
       1.236
       2.707
       4.880
       5.608
       4.794
       4.313
       4.284
       3.263
       1.628
       1.173
       1.842
       2.017
       1.623
       2.137
       3.617
       4.272
       3.238
       1.457
      -0.396
      -2.445
      -4.105
      -4.724
      -5.185
      -6.185
      -6.331
      -4.591
      -2.527
      -1.742
      -1.563
      -1.023
      -0.732
      -1.325
      -2.043
      -2.146
      -2.371
      -3.598
      -4.986
      -5.036
      -3.818
      -2.361
      -0.829
       0.778
       1.545
       1.221
       1.223
       2.193
       2.500
       1.237
       0.510
       2.146
       4.465
       5.211
       5.142
       5.626
       5.517
       3.593
       1.386
       0.688
       0.746
       0.268
      -0.114
       0.422
       0.769
      -0.208
      -1.269
      -0.726
       0.584
       0.764
       0.039
      -0.055
       0.618
       1.134
       1.198
       0.879
       0.072
      -0.979
      -1.815
      -2.464
      -3.139
      -3.650
      -3.593
      -2.788
      -1.412
       0.203
       1.859
       3.259
       3.726
       2.883
       1.236
      -0.530
      -2.145
      -3.303
      -3.593
      -3.125
      -2.479
      -2.005
      -1.550
      -0.793
       0.225
       1.031
       1.366
       1.537
       1.750
       1.650
       0.990
       0.135
      -0.468
      -0.752
      -0.711
      -0.169
       0.859
       1.916
       2.467
       2.331
       1.605
       0.444
      -0.795
      -1.528
      -1.478
      -0.973
      -0.432
       0.097
       0.693
       1.291
       1.825
       2.195
       2.049
       1.139
      -0.075
      -0.851
      -1.176
      -1.599
      -2.206
      -2.593
      -2.641
      -2.494
      -2.002
      -0.953
       0.367
       1.435
       2.145
       2.693
       2.988
       2.721
       1.937
       0.983
      -0.052
      -1.233
      -2.207
      -2.435
      -1.914
      -1.095
      -0.225
       0.676
       1.388
       1.612
       1.402
       1.043
       0.570
      -0.164
      -0.999
      -1.535
      -1.688
      -1.694
      -1.595
      -1.192
      -0.518
       0.079
       0.340
       0.309
       0.155
      -0.015
      -0.148
      -0.178
      -0.133
      -0.239
      -0.681
      -1.303
      -1.795
      -2.052
      -2.140
      -2.093
      -1.878
      -1.418
      -0.588
       0.557
       1.573
       1.888
       1.377
       0.579
       0.228
       0.639
       1.618
       2.807
       3.856
       4.405
       4.205
       3.277
       1.879
       0.406
      -0.704
      -1.171
      -1.034
      -0.574
      -0.053
       0.420
       0.830
       1.167
       1.431
       1.616
       1.606
       1.216
       0.430
      -0.571
      -1.676
      -2.899
      -4.090
      -4.778
      -4.454
      -2.974
      -0.701
       1.660
       3.344
       3.797
       2.910
       1.034
      -1.285
      -3.565
      -5.387
      -6.374
      -6.327
      -5.327
      -3.654
      -1.683
       0.156
       1.524
       2.399
       3.077
       3.824
       4.568
       5.021
       4.997
       4.500
       3.607
       2.469
       1.370
       0.613
       0.310
       0.327
       0.379
       0.146
      -0.582
      -1.697
      -2.747
      -3.206
      -2.782
      -1.481
       0.488
       2.708
       4.505
       5.159
       4.289
       2.049
      -0.971
      -3.946
      -6.047
      -6.732
      -5.972
      -4.199
      -2.042
      -0.097
       1.219
       1.764
       1.701
       1.338
       0.913
       0.529
       0.248
       0.117
       0.102
       0.076
      -0.083
      -0.404
      -0.817
      -1.188
      -1.375
      -1.327
      -1.118
      -0.859
      -0.602
      -0.359
      -0.174
      -0.084
      -0.010
       0.208
       0.630
       1.119
       1.445
       1.459
       1.185
       0.777
       0.400
       0.138
       0.020
       0.153
       0.711
       1.727
       2.914
       3.787
       3.978
       3.373
       2.069
       0.339
      -1.367
      -2.551
      -2.875
      -2.279
      -0.968
       0.613
       1.894
       2.448
