Origin Time       14/12/2005 07:09:48 UTC
Lat.              30.9 N 
Long.             79.3 E 
Depth (Km)         25.7
Magnitude         5.2
 Region           Chamoli-Uttarakhand                                              
 Above details taken from IMD 
    
Station Code      UTT
Station Lat.       30.730  N
Station Long.      78.445  E
Station Height(m) 1147.0
Site Class        A   Vs30 between 700 m/sec to 1400 m/sec * 
Record Time       14.12.2005 07:09:57.779 UTC
Sampling Rate     200. Hz
 Record Duration   39.095 Sec.
 Direction         N-S (N positive)
Max. Acceleration     22.222 cm/sec**2
     
  * For reference see Site Classification link of website 
     
 Base Line Corrected and Low Pass Filtered (Cut Off at 35 Hz) Time History
 Acceleration data in cm/sec**2
    
[...]
       1.158
       1.481
       1.647
       1.620
       1.417
       1.104
       0.768
       0.477
       0.266
       0.144
       0.101
       0.101
       0.084
      -0.025
      -0.271
      -0.629
      -0.986
      -1.196
      -1.150
      -0.841
      -0.358
       0.157
       0.582
       0.852
       0.973
       0.994
       0.974
       0.944
       0.903
       0.819
       0.663
       0.429
       0.133
      -0.201
      -0.553
      -0.898
      -1.198
      -1.404
      -1.479
      -1.423
      -1.278
      -1.105
      -0.955
      -0.849
      -0.773
      -0.696
      -0.590
      -0.441
      -0.257
      -0.050
       0.173
       0.412
       0.674
       0.945
       1.188
       1.346
       1.357
       1.181
       0.819
       0.314
      -0.248
      -0.763
      -1.132
      -1.292
      -1.234
      -1.000
      -0.658
      -0.269
       0.127
       0.515
       0.892
       1.243
       1.542
       1.747
       1.818
       1.731
       1.483
       1.089
       0.578
       0.002
      -0.573
      -1.072
      -1.434
      -1.631
      -1.674
      -1.598
      -1.447
      -1.262
      -1.070
      -0.875
      -0.659
      -0.395
      -0.067
       0.316
       0.720
       1.099
       1.420
       1.664
       1.826
       1.892
       1.843
       1.663
       1.346
       0.904
       0.368
      -0.221
      -0.811
      -1.348
      -1.783
      -2.084
      -2.245
      -2.277
      -2.199
      -2.023
      -1.750
      -1.373
      -0.881
      -0.277
       0.411
       1.121
       1.754
       2.208
       2.411
       2.353
       2.082
       1.683
       1.236
       0.799
       0.398
       0.033
      -0.303
      -0.612
      -0.875
      -1.049
      -1.086
      -0.971
      -0.739
      -0.460
      -0.199
       0.019
       0.210
       0.408
       0.627
       0.846
       1.021
       1.096
       1.026
       0.803
       0.463
       0.084
      -0.249
      -0.482
      -0.620
      -0.719
      -0.849
      -1.053
      -1.335
      -1.661
      -1.978
      -2.234
      -2.372
      -2.337
      -2.081
      -1.584
      -0.874
      -0.027
       0.854
       1.674
       2.365
       2.884
       3.201
       3.293
       3.150
       2.796
       2.291
       1.718
       1.154
       0.655
       0.244
      -0.078
      -0.327
      -0.532
      -0.725
      -0.920
      -1.108
      -1.256
      -1.335
      -1.342
      -1.303
      -1.253
      -1.219
      -1.202
      -1.187
      -1.150
      -1.058
      -0.873
      -0.569
      -0.150
       0.323
       0.739
       0.967
       0.912
       0.561
       0.001
      -0.609
      -1.102
      -1.365
      -1.375
      -1.188
      -0.888
      -0.541
      -0.173
       0.227
       0.666
       1.126
       1.554
       1.882
       2.055
       2.056
       1.901
       1.619
       1.242
       0.796
       0.323
      -0.123
      -0.486
      -0.733
      -0.871
      -0.936
      -0.968
      -0.985
      -0.980
      -0.937
      -0.841
      -0.687
      -0.473
      -0.209
       0.087
       0.384
       0.645
       0.829
       0.903
       0.840
       0.635
       0.312
      -0.075
      -0.455
      -0.759
      -0.929
      -0.939
      -0.800
      -0.565
      -0.312
      -0.126
      -0.054
      -0.090
      -0.159
      -0.143
       0.065
       0.510
       1.142
       1.829
       2.411
       2.761
       2.807
       2.531
       1.948
       1.109
       0.110
      -0.904
      -1.773
      -2.368
      -2.629
      -2.573
      -2.272
      -1.823
      -1.337
      -0.916
      -0.627
      -0.463
      -0.348
      -0.172
       0.140
       0.574
       1.037
       1.396
       1.547
       1.449
       1.128
       0.659
       0.139
      -0.334
      -0.677
      -0.835
      -0.796
      -0.596
      -0.321
      -0.080
       0.026
      -0.061
      -0.331
      -0.710
      -1.083
      -1.330
      -1.355
      -1.116
      -0.639
      -0.021
       0.582
       1.007
       1.137
       0.960
       0.568
       0.107
      -0.298
      -0.592
      -0.786
      -0.914
      -0.982
      -0.970
      -0.859
      -0.666
      -0.441
      -0.229
      -0.030
       0.203
       0.523
       0.943
       1.415
       1.851
       2.172
       2.343
       2.371
       2.289
       2.126
       1.897
       1.606
       1.266
       0.896
       0.521
       0.151
      -0.223
      -0.626
      -1.073
      -1.554
      -2.018
      -2.397
      -2.630
      -2.683
      -2.553
      -2.255
      -1.807
      -1.224
      -0.528
       0.245
       1.041
       1.787
       2.402
       2.809
       2.946
       2.788
       2.358
       1.728
       1.003
       0.289
      -0.330
      -0.806
      -1.124
      -1.296
      -1.358
      -1.362
      -1.358
      -1.381
      -1.431
      -1.472
      -1.444
      -1.287
      -0.962
      -0.478
       0.105
       0.684
       1.142
       1.388
       1.388
       1.176
       0.827
       0.427
       0.042
      -0.294
      -0.570
      -0.779
      -0.915
      -0.968
      -0.942
      -0.849
      -0.695
      -0.464
      -0.128
       0.326
       0.853
       1.351
       1.704
       1.839
       1.762
       1.550
       1.298
       1.077
       0.921
       0.828
       0.780
       0.746
       0.677
       0.509
       0.181
      -0.327
      -0.959
      -1.584
      -2.035
      -2.178
      -1.969
      -1.470
      -0.822
      -0.185
       0.309
       0.580
       0.611
       0.434
       0.115
      -0.269
      -0.655
      -1.010
      -1.322
      -1.582
      -1.770
      -1.845
      -1.771
      -1.536
      -1.163
      -0.706
      -0.245
       0.130
       0.343
       0.352
       0.171
      -0.137
      -0.476
      -0.749
      -0.889
      -0.871
      -0.719
      -0.484
      -0.220
       0.037
       0.280
       0.525
       0.797
       1.119
       1.498
       1.914
       2.321
       2.669
       2.919
       3.061
       3.113
       3.108
       3.085
       3.069
       3.068
       3.061
       3.009
       2.870
       2.607
       2.192
       1.593
       0.781
      -0.247
      -1.430
      -2.639
      -3.709
      -4.498
      -4.938
      -5.055
      -4.936
      -4.687
      -4.389
      -4.087
      -3.795
      -3.521
      -3.268
      -3.031
      -2.790
      -2.501
      -2.108
      -1.568
      -0.870
      -0.046
       0.845
       1.741
       2.592
       3.364
       4.016
       4.502
       4.765
       4.762
       4.475
       3.923
       3.159
       2.262
       1.325
       0.434
      -0.345
      -0.970
      -1.429
      -1.727
      -1.878
      -1.902
      -1.825
      -1.685
      -1.531
      -1.407
      -1.329
      -1.274
      -1.188
      -1.014
      -0.721
      -0.318
       0.162
       0.680
       1.205
       1.711
       2.164
       2.520
       2.735
       2.787
       2.689
       2.478
       2.191
       1.851
       1.474
       1.088
       0.734
       0.459
       0.298
       0.259
       0.312
       0.389
       0.393
       0.232
      -0.150
      -0.745
      -1.485
      -2.268
      -2.992
      -3.571
      -3.948
      -4.090
      -3.992
      -3.682
      -3.211
      -2.640
      -2.014
      -1.344
      -0.614
       0.200
       1.090
       1.999
       2.827
       3.446
       3.736
       3.612
       3.066
       2.178
       1.107
       0.036
      -0.899
      -1.655
      -2.275
      -2.826
      -3.341
      -3.792
      -4.106
      -4.205
      -4.032
      -3.567
      -2.831
      -1.887
      -0.825
       0.258
       1.282
       2.182
       2.907
       3.421
       3.720
       3.826
       3.780
       3.620
       3.377
       3.078
       2.756
       2.445
       2.168
       1.937
       1.761
       1.667
       1.698
       1.890
       2.244
       2.710
       3.194
       3.581
       3.765
       3.669
       3.249
       2.477
       1.338
      -0.166
      -2.002
      -4.079
      -6.256
      -8.365
     -10.256
     -11.821
     -12.971
     -13.603
     -13.596
     -12.854
     -11.362
      -9.218
      -6.603
      -3.723
      -0.749
       2.198
       5.027
       7.636
       9.902
      11.725
      13.088
      14.056
      14.691
      14.989
      14.911
      14.427
      13.494
      12.082
      10.241
       8.119
       5.908
       3.783
       1.884
       0.302
      -0.979
      -2.083
      -3.160
      -4.286
      -5.446
      -6.584
      -7.642
      -8.594
      -9.473
     -10.347
     -11.242
     -12.125
     -12.942
     -13.646
     -14.183
     -14.479
     -14.453
     -14.018
     -13.064
     -11.465
      -9.149
      -6.163
      -2.680
       1.052
       4.749
       8.147
      11.044
      13.312
      14.874
      15.688
      15.764
      15.171
      14.021
      12.441
      10.548
       8.441
       6.195
       3.885
       1.634
      -0.390
      -2.052
      -3.311
      -4.213
      -4.833
      -5.222
      -5.397
      -5.346
      -5.052
      -4.524
      -3.786
      -2.871
      -1.809
      -0.660
       0.480
       1.490
       2.233
       2.563
       2.353
       1.549
       0.216
      -1.462
      -3.207
      -4.698
      -5.632
      -5.810
      -5.202
      -3.962
      -2.373
      -0.743
       0.698
       1.848
       2.696
       3.257
       3.548
       3.605
       3.453
       3.075
       2.470
       1.712
       0.905
       0.068
      -0.870
      -1.990
      -3.303
      -4.703
      -5.970
      -6.824
      -7.040
      -6.551
      -5.424
      -3.769
      -1.713
       0.549
       2.786
       4.861
       6.778
       8.548
      10.053
      11.119
      11.668
      11.671
      11.045
       9.753
       7.927
       5.791
       3.520
       1.215
      -1.017
      -3.027
      -4.686
      -5.913
      -6.658
      -6.950
      -6.952
      -6.846
      -6.634
      -6.156
      -5.289
      -4.052
      -2.558
      -0.910
       0.790
       2.398
       3.817
       5.106
       6.359
       7.505
       8.377
       8.895
       9.030
       8.716
       7.874
       6.497
       4.672
       2.488
       0.000
      -2.685
      -5.371
      -7.876
     -10.119
     -12.055
     -13.642
     -14.844
     -15.586
     -15.730
     -15.175
     -13.956
     -12.202
     -10.009
      -7.411
      -4.459
      -1.305
       1.841
       4.788
       7.381
       9.502
      11.121
      12.264
      12.917
      12.964
      12.233
      10.581
       7.987
       4.616
       0.799
      -3.073
      -6.662
      -9.730
     -12.090
     -13.567
     -14.052
     -13.545
     -12.146
     -10.009
      -7.326
      -4.283
      -0.985
       2.528
       6.188
       9.804
      13.085
      15.732
      17.529
      18.372
      18.250
      17.214
      15.332
      12.707
       9.515
       6.010
       2.463
      -0.892
      -3.877
      -6.410
      -8.531
     -10.340
     -11.858
     -12.946
     -13.365
     -12.942
     -11.687
      -9.791
      -7.508
      -5.029
      -2.439
       0.201
       2.751
       5.014
       6.865
       8.285
       9.250
       9.693
       9.612
       9.110
       8.294
       7.242
       6.072
       4.934
       3.904
       2.945
       1.986
       1.033
       0.128
      -0.727
      -1.557
      -2.351
      -3.082
      -3.725
      -4.229
      -4.545
      -4.690
      -4.744
      -4.771
      -4.805
      -4.900
      -5.146
      -5.585
      -6.158
      -6.746
      -7.225
      -7.447
      -7.242
      -6.507
      -5.297
      -3.785
      -2.180
      -0.682
       0.551
       1.446
       2.018
       2.321
       2.412
       2.355
       2.235
       2.135
       2.111
       2.223
       2.526
       3.015
       3.586
       4.104
       4.480
       4.676
       4.679
       4.519
       4.285
       4.076
       3.933
       3.827
       3.702
       3.531
       3.328
       3.142
       3.026
       2.975
       2.923
       2.790
       2.528
       2.094
       1.433
       0.499
      -0.691
      -2.049
      -3.441
      -4.714
      -5.737
      -6.459
      -6.945
      -7.320
      -7.686
      -8.083
      -8.514
      -8.974
      -9.454
      -9.928
     -10.337
     -10.571
     -10.504
     -10.049
      -9.202
      -8.016
      -6.534
      -4.751
      -2.646
      -0.246
       2.329
       4.911
       7.366
       9.638
      11.687
      13.441
      14.839
      15.816
      16.260
      16.081
      15.329
      14.183
      12.826
      11.348
       9.766
       8.099
       6.364
       4.549
       2.645
       0.701
      -1.200
      -2.978
      -4.562
      -5.909
      -7.040
      -8.010
      -8.840
      -9.491
      -9.879
      -9.896
      -9.444
      -8.510
      -7.223
      -5.805
      -4.407
      -3.020
      -1.554
       0.028
       1.668
       3.261
       4.706
       5.928
       6.880
       7.538
       7.903
       7.983
       7.794
       7.387
       6.853
       6.241
       5.488
       4.438
       2.904
       0.765
      -1.954
      -5.047
      -8.221
     -11.211
     -13.840
     -15.981
     -17.511
     -18.311
     -18.312
     -17.514
     -15.997
     -13.919
     -11.462
      -8.734
      -5.736
      -2.443
       1.099
       4.751
       8.349
      11.766
      14.902
      17.662
      19.932
      21.539
      22.222
      21.766
      20.163
      17.634
      14.506
      11.105
       7.724
       4.628
       2.012
      -0.040
      -1.554
      -2.633
      -3.439
      -4.149
      -4.872
      -5.659
      -6.591
      -7.795
      -9.338
     -11.123
     -12.925
     -14.533
     -15.838
     -16.756
     -17.097
     -16.601
     -15.138
     -12.781
      -9.709
      -6.171
      -2.515
       0.962
       4.179
       7.188
       9.989
      12.444
      14.368
      15.650
      16.233
      16.023
      14.942
      13.005
      10.288
       6.919
       3.137
      -0.737
      -4.424
      -7.711
     -10.396
     -12.302
     -13.341
     -13.514
     -12.834
     -11.308
      -9.012
      -6.141
      -2.909
       0.534
       4.047
       7.406
      10.334
      12.551
      13.806
      13.914
      12.833
      10.689
       7.736
       4.298
       0.714
      -2.723
      -5.808
      -8.390
     -10.291
     -11.320
     -11.392
     -10.586
      -9.037
      -6.854
      -4.150
      -1.086
       2.157
       5.381
       8.348
      10.799
      12.526
      13.436
      13.524
      12.835
      11.496
       9.710
       7.674
       5.513
       3.311
       1.134
      -0.989
      -3.062
      -5.064
      -6.900
      -8.439
      -9.577
     -10.276
     -10.544
     -10.425
      -9.991
      -9.354
      -8.627
      -7.906
      -7.253
      -6.679
      -6.133
      -5.517
      -4.721
      -3.667
      -2.364
      -0.935
       0.422
       1.522
       2.275
       2.690
       2.826
       2.755
       2.580
       2.434
       2.438
       2.667
       3.145
       3.849
       4.704
       5.591
       6.380
       6.962
       7.287
       7.383
       7.338
       7.253
       7.179
       7.092
       6.908
       6.529
       5.895
       5.025
       4.001
       2.909
       1.783
       0.609
      -0.647
      -2.003
      -3.448
      -4.941
      -6.402
      -7.730
      -8.835
      -9.661
     -10.207
     -10.516
     -10.659
     -10.695
     -10.615
     -10.320
      -9.657
      -8.512
      -6.915
      -5.071
      -3.298
      -1.910
      -1.091
      -0.856
      -1.085
      -1.587
      -2.131
      -2.476
      -2.432
      -1.926
      -1.021
       0.142
       1.421
       2.728
       4.048
       5.428
       6.918
       8.500
      10.076
      11.514
      12.680
      13.462
      13.775
      13.573
      12.852
      11.655
      10.045
       8.105
       5.958
       3.789
       1.819
       0.198
      -1.077
      -2.124
      -3.025
      -3.751
      -4.270
      -4.608
      -4.755
      -4.609
      -4.085
      -3.155
      -1.787
       0.024
       2.129
       4.181
       5.760
       6.544
       6.355
       5.108
       2.836
      -0.252
      -3.840
      -7.584
     -11.106
     -14.013
     -16.013
     -16.960
     -16.809
     -15.589
     -13.439
     -10.603
      -7.341
      -3.845
      -0.269
       3.214
       6.430
       9.259
      11.613
      13.385
      14.474
      14.827
      14.419
      13.225
      11.271
       8.682
       5.657
       2.410
      -0.851
      -3.935
      -6.696
      -9.058
     -10.977
     -12.406
     -13.327
     -13.802
     -13.915
     -13.671
     -12.991
     -11.777
      -9.979
      -7.626
      -4.850
      -1.866
       1.107
       3.917
       6.472
       8.675
      10.434
      11.704
      12.491
      12.812
      12.696
      12.224
      11.500
      10.604
       9.597
       8.532
       7.412
       6.134
       4.537
       2.527
       0.152
      -2.423
      -4.982
      -7.295
      -9.161
     -10.460
     -11.164
     -11.310
     -10.953
     -10.112
      -8.763
      -6.910
      -4.714
      -2.501
      -0.593
       0.857
       1.820
       2.287
       2.317
       2.095
       1.816
       1.564
       1.363
       1.241
       1.199
       1.182
       1.131
       1.071
       1.080
       1.187
       1.378
       1.670
       2.091
       2.619
       3.223
       3.919
       4.691
       5.424
       5.975
       6.292
       6.395
       6.262
       5.799
       4.965
       3.813
       2.416
       0.839
      -0.772
      -2.221
      -3.388
      -4.274
      -4.921
      -5.360
      -5.641
      -5.852
      -6.056
      -6.236
      -6.330
      -6.250
      -5.863
      -5.031
      -3.716
      -2.022
      -0.141
       1.686
       3.192
       4.169
       4.542
       4.322
       3.532
       2.241
       0.611
      -1.143
      -2.823
      -4.267
      -5.360
      -6.051
      -6.379
      -6.418
      -6.177
      -5.619
      -4.747
      -3.620
      -2.314
      -0.911
       0.513
       1.936
       3.375
       4.796
       6.086
       7.136
       7.927
       8.460
       8.647
       8.370
       7.606
       6.409
       4.848
       3.040
       1.189
      -0.496
      -1.894
      -2.956
      -3.628
      -3.866
      -3.720
      -3.306
      -2.697
      -1.924
      -1.062
      -0.246
       0.409
       0.851
       1.077
       1.129
       1.076
       0.975
       0.835
       0.629
       0.315
      -0.135
      -0.691
      -1.248
      -1.680
      -1.898
      -1.888
      -1.697
      -1.367
      -0.913
      -0.348
       0.308
       1.003
       1.635
       2.083
       2.265
       2.155
       1.757
       1.092
       0.187
      -0.896
      -2.058
      -3.188
      -4.184
      -4.934
      -5.308
      -5.201
      -4.587
      -3.529
      -2.144
      -0.568
       1.055
       2.592
       3.915
       4.906
       5.481
       5.626
       5.408
       4.932
       4.290
       3.557
       2.791
       2.019
       1.220
       0.347
      -0.630
      -1.693
      -2.768
      -3.748
      -4.528
