Origin Time       14/12/2005 07:09:48
Lat.              30.9 N 
Long.             79.3 E 
Depth (Km)         25.7
Magnitude         5.2
 Region           Chamoli-Uttarakhand                                              
 Above details taken from IMD 
     
Station Code      UTT
Station Lat.       30.730  N
Station Long.      78.445  E
Station Height(m) 1147.0
Site Class        A   Vs30 between 700 m/sec to 1400 m/sec * 
Record Time       14.12.2005 07:09:57.779
Sampling Rate     200. Hz
 Record Duration   39.095 Sec.
 Direction         E-W (E positive)
Max. Acceleration     24.148 cm/sec**2
     
  * For reference see Site Classification link of website 
     
 Base Line Corrected and Low Pass Filtered (Cut Off at 35 Hz) Time History
 Acceleration data in cm/sec**2
    
[...]
      -0.613
      -0.518
      -0.435
      -0.400
      -0.434
      -0.521
      -0.601
      -0.597
      -0.455
      -0.158
       0.265
       0.750
       1.209
       1.545
       1.680
       1.574
       1.245
       0.755
       0.193
      -0.349
      -0.806
      -1.155
      -1.413
      -1.609
      -1.758
      -1.853
      -1.872
      -1.790
      -1.585
      -1.244
      -0.767
      -0.168
       0.518
       1.237
       1.919
       2.480
       2.834
       2.909
       2.680
       2.183
       1.488
       0.669
      -0.227
      -1.166
      -2.106
      -2.964
      -3.625
      -3.977
      -3.943
      -3.520
      -2.775
      -1.831
      -0.834
       0.077
       0.814
       1.358
       1.752
       2.069
       2.372
       2.683
       2.972
       3.161
       3.143
       2.824
       2.164
       1.211
       0.093
      -1.019
      -1.964
      -2.635
      -2.970
      -2.931
      -2.509
      -1.742
      -0.741
       0.330
       1.297
       2.032
       2.475
       2.634
       2.560
       2.318
       1.968
       1.553
       1.105
       0.637
       0.147
      -0.382
      -0.957
      -1.566
      -2.165
      -2.686
      -3.045
      -3.163
      -2.988
      -2.515
      -1.797
      -0.947
      -0.110
       0.573
       1.007
       1.161
       1.072
       0.822
       0.510
       0.217
      -0.006
      -0.131
      -0.146
      -0.056
       0.119
       0.339
       0.561
       0.752
       0.899
       1.000
       1.049
       1.030
       0.915
       0.694
       0.386
       0.043
      -0.258
      -0.441
      -0.465
      -0.349
      -0.175
      -0.044
      -0.021
      -0.099
      -0.213
      -0.284
      -0.272
      -0.183
      -0.055
       0.079
       0.204
       0.319
       0.423
       0.498
       0.517
       0.448
       0.279
       0.019
      -0.297
      -0.617
      -0.881
      -1.037
      -1.046
      -0.894
      -0.592
      -0.176
       0.295
       0.747
       1.105
       1.315
       1.360
       1.252
       1.012
       0.647
       0.163
      -0.414
      -1.012
      -1.517
      -1.828
      -1.898
      -1.760
      -1.495
      -1.189
      -0.907
      -0.680
      -0.510
      -0.378
      -0.241
      -0.044
       0.267
       0.724
       1.320
       1.997
       2.648
       3.123
       3.282
       3.047
       2.445
       1.600
       0.674
      -0.199
      -0.944
      -1.537
      -1.971
      -2.246
      -2.360
      -2.309
      -2.096
      -1.729
      -1.234
      -0.647
      -0.013
       0.623
       1.209
       1.684
       1.990
       2.079
       1.934
       1.576
       1.046
       0.397
      -0.312
      -1.005
      -1.601
      -2.031
      -2.259
      -2.292
      -2.172
      -1.958
      -1.703
      -1.436
      -1.142
      -0.779
      -0.307
       0.280
       0.937
       1.576
       2.096
       2.418
       2.506
       2.375
       2.069
       1.632
       1.083
       0.429
      -0.303
      -1.035
      -1.638
      -1.980
      -1.978
      -1.638
      -1.060
      -0.397
       0.197
       0.613
       0.814
       0.826
       0.721
       0.581
       0.465
       0.397
       0.380
       0.413
       0.500
       0.628
       0.751
       0.786
       0.650
       0.313
      -0.168
      -0.670
      -1.048
      -1.196
      -1.082
      -0.752
      -0.309
       0.124
       0.444
       0.589
       0.557
       0.396
       0.184
       0.007
      -0.068
      -0.006
       0.180
       0.429
       0.638
       0.699
       0.542
       0.166
      -0.365
      -0.947
      -1.470
      -1.853
      -2.051
      -2.055
      -1.882
      -1.571
      -1.174
      -0.755
      -0.367
      -0.039
       0.231
       0.472
       0.727
       1.030
       1.398
       1.810
       2.204
       2.475
       2.497
       2.176
       1.495
       0.540
      -0.518
      -1.471
      -2.141
      -2.432
      -2.355
      -2.008
      -1.527
      -1.036
      -0.617
      -0.298
      -0.053
       0.178
       0.460
       0.826
       1.256
       1.694
       2.076
       2.356
       2.501
       2.478
       2.244
       1.769
       1.050
       0.143
      -0.842
      -1.755
      -2.448
      -2.829
      -2.882
      -2.655
      -2.217
      -1.622
      -0.915
      -0.149
       0.613
       1.315
       1.915
       2.376
       2.637
       2.630
       2.309
       1.699
       0.892
       0.009
      -0.847
      -1.606
      -2.215
      -2.631
      -2.826
      -2.808
      -2.610
      -2.270
      -1.805
      -1.213
      -0.497
       0.299
       1.086
       1.753
       2.216
       2.451
       2.495
       2.401
       2.208
       1.921
       1.533
       1.054
       0.517
      -0.028
      -0.549
      -1.038
      -1.510
      -1.978
      -2.417
      -2.748
      -2.861
      -2.663
      -2.134
      -1.343
      -0.408
       0.541
       1.391
       2.044
       2.414
       2.439
       2.121
       1.531
       0.801
       0.071
      -0.548
      -0.999
      -1.272
      -1.390
      -1.389
      -1.313
      -1.197
      -1.057
      -0.886
      -0.661
      -0.367
      -0.011
       0.370
       0.715
       0.959
       1.065
       1.047
       0.971
       0.917
       0.931
       0.995
       1.043
       1.010
       0.876
       0.677
       0.481
       0.338
       0.273
       0.288
       0.386
       0.572
       0.839
       1.146
       1.417
       1.557
       1.494
       1.204
       0.720
       0.110
      -0.548
      -1.182
      -1.728
      -2.124
      -2.296
      -2.179
      -1.749
      -1.053
      -0.213
       0.607
       1.258
       1.656
       1.793
       1.717
       1.488
       1.140
       0.677
       0.092
      -0.601
      -1.349
      -2.059
      -2.639
      -3.042
      -3.291
      -3.459
      -3.608
      -3.741
      -3.778
      -3.593
      -3.070
      -2.155
      -0.883
       0.629
       2.210
       3.665
       4.805
       5.487
       5.640
       5.292
       4.561
       3.633
       2.701
       1.913
       1.328
       0.915
       0.590
       0.279
      -0.041
      -0.336
      -0.546
      -0.638
      -0.621
      -0.528
      -0.391
      -0.222
      -0.021
       0.203
       0.421
       0.579
       0.604
       0.423
       0.002
      -0.633
      -1.377
      -2.080
      -2.600
      -2.856
      -2.858
      -2.685
      -2.437
      -2.190
      -1.966
      -1.734
      -1.441
      -1.041
      -0.522
       0.078
       0.692
       1.242
       1.657
       1.888
       1.909
       1.721
       1.340
       0.793
       0.098
      -0.725
      -1.632
      -2.537
      -3.318
      -3.852
      -4.056
      -3.900
      -3.407
      -2.629
      -1.643
      -0.540
       0.576
       1.617
       2.533
       3.316
       3.993
       4.586
       5.078
       5.402
       5.454
       5.141
       4.431
       3.379
       2.114
       0.802
      -0.411
      -1.427
      -2.189
      -2.663
      -2.828
      -2.700
      -2.356
      -1.944
      -1.629
      -1.519
      -1.608
      -1.781
      -1.877
      -1.760
      -1.363
      -0.708
       0.109
       0.945
       1.659
       2.146
       2.352
       2.275
       1.969
       1.542
       1.140
       0.890
       0.857
       1.025
       1.313
       1.617
       1.850
       1.954
       1.893
       1.626
       1.117
       0.352
      -0.633
      -1.738
      -2.817
      -3.715
      -4.307
      -4.530
      -4.391
      -3.951
      -3.304
      -2.539
      -1.723
      -0.897
      -0.083
       0.687
       1.346
       1.778
       1.869
       1.577
       0.981
       0.238
      -0.490
      -1.098
      -1.552
      -1.869
      -2.076
      -2.175
      -2.119
      -1.818
      -1.178
      -0.145
       1.257
       2.911
       4.636
       6.235
       7.551
       8.489
       9.010
       9.109
       8.779
       7.989
       6.694
       4.872
       2.562
      -0.129
      -3.023
      -5.899
      -8.539
     -10.765
     -12.449
     -13.498
     -13.833
     -13.393
     -12.141
     -10.124
      -7.553
      -4.843
      -2.476
      -0.709
       0.612
       1.810
       2.929
       3.719
       4.099
       4.308
       4.517
       4.618
       4.508
       4.260
       3.906
       3.377
       2.753
       2.302
       2.187
       2.356
       2.778
       3.530
       4.567
       5.640
       6.547
       7.249
       7.662
       7.579
       6.901
       5.749
       4.247
       2.432
       0.411
      -1.591
      -3.420
      -5.054
      -6.433
      -7.395
      -7.862
      -7.903
      -7.565
      -6.804
      -5.644
      -4.239
      -2.726
      -1.192
       0.183
       1.127
       1.503
       1.397
       0.948
       0.232
      -0.673
      -1.661
      -2.699
      -3.831
      -5.025
      -6.123
      -6.968
      -7.461
      -7.466
      -6.816
      -5.467
      -3.554
      -1.252
       1.295
       3.914
       6.398
       8.606
      10.473
      11.892
      12.696
      12.780
      12.151
      10.834
       8.829
       6.203
       3.138
      -0.139
      -3.372
      -6.232
      -8.354
      -9.487
      -9.548
      -8.558
      -6.596
      -3.833
      -0.542
       2.937
       6.207
       8.880
      10.782
      12.023
      12.674
      12.491
      11.216
       8.972
       6.057
       2.552
      -1.544
      -5.979
     -10.353
     -14.419
     -18.012
     -20.857
     -22.674
     -23.292
     -22.457
     -19.775
     -15.224
      -9.602
      -4.037
       1.044
       6.023
      10.986
      15.108
      17.642
      18.826
      19.193
      18.650
      16.958
      14.504
      11.822
       8.887
       5.556
       2.202
      -0.723
      -3.286
      -5.688
      -7.700
      -8.990
      -9.652
      -9.817
      -9.108
      -7.202
      -4.721
      -2.782
      -1.668
      -0.615
       0.843
       2.010
       2.047
       1.189
       0.183
      -0.857
      -2.123
      -3.223
      -3.630
      -3.538
      -3.381
      -2.957
      -1.835
      -0.156
       1.661
       3.589
       5.699
       7.564
       8.644
       9.023
       9.100
       8.723
       7.344
       4.887
       1.809
      -1.581
      -5.221
      -8.834
     -11.901
     -14.086
     -15.295
     -15.369
     -14.112
     -11.642
      -8.380
      -4.651
      -0.626
       3.339
       6.728
       9.283
      11.037
      11.920
      11.725
      10.442
       8.297
       5.460
       2.054
      -1.566
      -4.853
      -7.448
      -9.292
     -10.343
     -10.447
      -9.562
      -7.840
      -5.421
      -2.403
       0.958
       4.301
       7.458
      10.466
      13.276
      15.664
      17.445
      18.544
      18.853
      18.213
      16.619
      14.249
      11.251
       7.692
       3.786
      -0.052
      -3.445
      -6.188
      -8.135
      -9.177
      -9.397
      -9.097
      -8.590
      -8.066
      -7.645
      -7.414
      -7.420
      -7.767
      -8.673
     -10.125
     -11.482
     -11.903
     -11.283
     -10.190
      -8.882
      -7.110
      -4.926
      -2.867
      -1.183
       0.344
       1.729
       2.643
       3.012
       3.120
       3.027
       2.463
       1.420
       0.272
      -0.802
      -1.988
      -3.259
      -4.197
      -4.560
      -4.476
      -3.939
      -2.654
      -0.571
       1.921
       4.470
       6.985
       9.289
      11.001
      11.937
      12.243
      11.982
      10.947
       9.051
       6.526
       3.598
       0.330
      -3.030
      -5.925
      -7.917
      -8.917
      -8.909
      -7.776
      -5.582
      -2.693
       0.537
       3.947
       7.290
      10.085
      11.924
      12.705
      12.423
      11.019
       8.594
       5.530
       2.197
      -1.226
      -4.560
      -7.483
      -9.767
     -11.442
     -12.574
     -13.052
     -12.735
     -11.611
      -9.688
      -6.906
      -3.346
       0.623
       4.571
       8.230
      11.405
      13.844
      15.356
      15.908
      15.497
      14.054
      11.599
       8.367
       4.678
       0.778
      -3.094
      -6.641
      -9.641
     -12.035
     -13.801
     -14.851
     -15.185
     -14.995
     -14.474
     -13.625
     -12.364
     -10.783
      -9.210
      -8.007
      -7.266
      -6.691
      -5.935
      -5.098
      -4.548
      -4.252
      -3.737
      -2.742
      -1.428
       0.109
       2.002
       4.249
       6.639
       9.087
      11.661
      14.225
      16.427
      18.082
      19.270
      19.976
      19.975
      19.158
      17.643
      15.480
      12.611
       9.216
       5.749
       2.528
      -0.414
      -3.039
      -5.154
      -6.639
      -7.557
      -7.987
      -7.978
      -7.743
      -7.618
      -7.725
      -7.875
      -7.916
      -7.914
      -7.888
      -7.596
      -6.756
      -5.377
      -3.717
      -1.996
      -0.338
       1.036
       1.831
       1.953
       1.562
       0.826
      -0.153
      -1.197
      -2.071
      -2.696
      -3.181
      -3.630
      -4.099
      -4.699
      -5.578
      -6.759
      -8.112
      -9.480
     -10.695
     -11.472
     -11.509
     -10.756
      -9.400
      -7.477
      -4.701
      -0.883
       3.627
       8.181
      12.405
      16.230
      19.479
      21.874
      23.380
      24.148
      24.144
      23.200
      21.374
      18.906
      15.913
      12.413
       8.590
       4.731
       0.952
      -2.766
      -6.298
      -9.422
     -12.114
     -14.453
     -16.185
     -16.765
     -16.007
     -14.493
     -13.118
     -12.188
     -11.108
      -9.321
      -7.384
      -6.338
      -6.259
      -6.398
      -6.525
      -7.010
      -7.732
      -8.055
      -7.787
      -7.176
      -6.088
      -4.081
      -1.223
       1.944
       5.217
       8.793
      12.498
      15.680
      17.993
      19.561
      20.261
      19.627
      17.622
      14.760
      11.374
       7.431
       3.130
      -0.992
      -4.633
      -7.878
     -10.659
     -12.594
     -13.484
     -13.481
     -12.629
     -10.768
      -8.047
      -5.041
      -2.147
       0.666
       3.400
       5.810
       7.735
       9.185
      10.003
       9.894
       8.889
       7.347
       5.428
       3.034
       0.350
      -2.090
      -3.993
      -5.486
      -6.623
      -7.241
      -7.369
      -7.284
      -7.071
      -6.559
      -5.733
      -4.810
      -3.831
      -2.586
      -1.068
       0.403
       1.624
       2.705
       3.673
       4.247
       4.159
       3.433
       2.228
       0.660
      -1.113
      -2.806
      -4.149
      -5.045
      -5.526
      -5.620
      -5.356
      -4.834
      -4.168
      -3.399
      -2.566
      -1.767
      -1.061
      -0.377
       0.380
       1.217
       2.118
       3.126
       4.253
       5.371
       6.256
       6.716
       6.638
       5.974
       4.786
       3.302
       1.823
       0.575
      -0.315
      -0.782
      -0.860
      -0.695
      -0.435
      -0.150
       0.102
       0.201
       0.022
      -0.452
      -1.121
      -1.844
      -2.436
      -2.652
      -2.275
      -1.245
       0.332
       2.265
       4.313
       6.218
       7.782
       8.939
       9.699
      10.040
       9.878
       9.110
       7.639
       5.397
       2.416
      -1.130
      -4.966
      -8.787
     -12.257
     -14.988
     -16.617
     -16.918
     -15.849
     -13.545
     -10.305
      -6.511
      -2.483
       1.604
       5.615
       9.288
      12.267
      14.305
      15.386
      15.617
      15.036
      13.617
      11.401
       8.504
       5.022
       1.076
      -3.082
      -7.111
     -10.741
     -13.768
     -15.947
     -17.020
     -16.890
     -15.692
     -13.675
     -11.059
      -7.987
      -4.615
      -1.282
       1.462
       3.230
       4.259
       5.084
       5.591
       5.088
       3.481
       1.583
       0.037
      -1.205
      -2.126
      -2.326
      -1.727
      -0.793
       0.241
       1.643
       3.484
       5.311
       6.758
       7.924
       8.854
       9.223
       8.891
       8.202
       7.387
       6.200
       4.479
       2.520
       0.586
      -1.423
      -3.532
      -5.413
      -6.832
      -7.931
      -8.787
      -9.098
      -8.594
      -7.401
      -5.716
      -3.494
      -0.771
       2.064
       4.649
       6.955
       8.944
      10.281
      10.656
      10.087
       8.670
       6.356
       3.254
      -0.135
      -3.239
      -5.783
      -7.652
      -8.676
      -8.854
      -8.522
      -8.011
      -7.315
      -6.299
      -5.002
      -3.514
      -1.820
       0.006
       1.668
       2.967
       4.087
       5.291
       6.519
       7.548
       8.371
       9.076
       9.530
       9.527
       9.114
       8.467
       7.549
       6.206
       4.455
       2.399
       0.006
      -2.732
      -5.525
      -7.932
      -9.744
     -10.971
     -11.556
     -11.352
     -10.319
      -8.565
      -6.304
      -3.956
      -2.021
      -0.555
       0.863
       2.262
       2.949
       2.514
       1.482
       0.444
      -0.711
      -2.161
      -3.508
      -4.384
      -5.029
      -5.718
      -6.191
      -6.135
      -5.722
      -5.177
      -4.299
      -2.899
      -1.277
       0.238
       1.808
       3.589
       5.175
       6.154
       6.830
       7.696
       8.501
       8.567
       7.826
       6.776
       5.606
       4.150
       2.590
       1.379
       0.504
      -0.418
      -1.378
      -2.012
      -2.298
      -2.516
      -2.602
      -2.216
      -1.426
      -0.689
      -0.118
       0.641
       1.777
       3.065
       4.265
       5.266
       5.870
       5.953
       5.694
       5.222
       4.317
       2.873
       1.245
      -0.233
      -1.675
      -3.231
      -4.657
      -5.673
      -6.385
      -7.005
      -7.432
      -7.467
      -7.203
      -6.845
      -6.340
      -5.526
      -4.437
      -3.146
      -1.599
       0.086
       1.502
       2.521
       3.533
       4.677
       5.374
       5.129
       4.258
       3.259
       2.054
       0.454
      -1.200
      -2.494
      -3.544
      -4.565
      -5.299
      -5.411
      -5.031
      -4.406
      -3.422
      -1.980
      -0.480
       0.624
       1.454
       2.400
       3.434
       4.233
       4.725
       5.086
       5.398
       5.584
       5.508
       4.994
       3.916
       2.353
       0.582
      -1.114
      -2.555
      -3.611
      -4.162
      -4.173
      -3.739
      -2.966
      -1.874
      -0.491
       1.046
       2.574
       3.994
       5.212
       6.119
       6.692
       7.009
       7.120
       6.975
       6.520
       5.822
       5.021
       4.149
       3.086
       1.757
       0.266
      -1.223
      -2.625
      -3.906
      -5.023
      -5.961
      -6.716
      -7.206
      -7.259
      -6.779
      -5.848
      -4.620
      -3.195
      -1.669
      -0.222
       0.946
       1.713
       2.017
       1.803
       1.051
      -0.171
      -1.719
      -3.371
      -4.854
