Origin Time       19/12/2012 22:32:00
Lat.              28.6 N 
Long.             76.8 E 
Depth (Km)         10.0
Magnitude         2.9
 Region           Jhajjar-Haryana                                                  
 Above details taken from IMD 
   
Station Code      VCD
Station Lat.       28.589
Station Long.      77.168
Station Height(m)  272.0
Site Class        C   Vs30 between 200 m/sec to 375 m/sec *  
Record Time       19.12.2012 22:31:35.894
Sampling Rate     200. Hz
 Record Duration   80.270 Sec.
 Direction         Vert. (Up positive)
Max. Acceleration      5.484 cm/sec**2
     
  * For reference see Site Classification link of website 
     
 Base Line Corrected and Low Pass Filtered (Cut Off at 35 Hz) Time History
 Acceleration data in cm/sec**2
    
[...]
      -0.011
       0.000
       0.010
       0.011
       0.005
      -0.004
      -0.010
      -0.011
      -0.007
      -0.002
       0.001
       0.001
      -0.001
      -0.002
      -0.002
      -0.003
      -0.007
      -0.014
      -0.020
      -0.019
      -0.012
      -0.003
       0.003
       0.005
       0.004
       0.002
       0.000
       0.000
       0.001
       0.004
       0.008
       0.008
       0.003
      -0.007
      -0.015
      -0.017
      -0.012
      -0.006
      -0.001
       0.002
       0.008
       0.013
       0.013
       0.007
      -0.001
      -0.007
      -0.006
       0.000
       0.006
       0.008
       0.004
      -0.003
      -0.009
      -0.013
      -0.013
      -0.009
      -0.003
       0.001
       0.001
      -0.003
      -0.008
      -0.007
      -0.001
       0.006
       0.009
       0.007
       0.004
       0.003
       0.003
       0.000
      -0.005
      -0.011
      -0.015
      -0.013
      -0.007
       0.001
       0.008
       0.011
       0.007
       0.001
      -0.004
      -0.004
       0.000
       0.004
       0.004
      -0.001
      -0.006
      -0.010
      -0.010
      -0.008
      -0.006
      -0.006
      -0.005
      -0.003
       0.001
       0.004
       0.005
       0.004
       0.001
      -0.003
      -0.006
      -0.006
      -0.001
       0.006
       0.008
       0.002
      -0.007
      -0.015
      -0.015
      -0.009
      -0.001
       0.003
       0.003
       0.001
      -0.001
       0.000
       0.002
       0.005
       0.008
       0.011
       0.013
       0.015
       0.014
       0.008
      -0.001
      -0.008
      -0.008
      -0.002
       0.005
       0.010
       0.010
       0.008
       0.006
       0.005
       0.005
       0.005
       0.005
       0.006
       0.009
       0.012
       0.013
       0.010
       0.004
      -0.001
      -0.001
       0.002
       0.003
      -0.001
      -0.007
      -0.010
      -0.006
       0.001
       0.007
       0.008
       0.007
       0.008
       0.011
       0.015
       0.015
       0.008
      -0.003
      -0.014
      -0.020
      -0.018
      -0.011
      -0.001
       0.007
       0.011
       0.010
       0.007
       0.004
       0.000
      -0.003
      -0.006
      -0.007
      -0.006
      -0.002
       0.003
       0.005
       0.004
       0.002
       0.001
       0.000
      -0.001
      -0.004
      -0.008
      -0.009
      -0.009
      -0.006
      -0.003
       0.000
       0.001
       0.001
      -0.001
      -0.002
      -0.002
      -0.001
      -0.001
      -0.003
      -0.005
      -0.009
      -0.011
      -0.013
      -0.012
      -0.010
      -0.009
      -0.009
      -0.009
      -0.007
      -0.003
       0.003
       0.008
       0.009
       0.006
       0.000
      -0.004
      -0.003
       0.000
       0.000
      -0.004
      -0.013
      -0.019
      -0.022
      -0.019
      -0.013
      -0.006
       0.000
       0.005
       0.006
       0.004
       0.000
      -0.005
      -0.008
      -0.007
      -0.002
       0.004
       0.006
       0.003
      -0.005
      -0.014
      -0.017
      -0.015
      -0.007
       0.000
       0.003
       0.002
      -0.001
      -0.003
      -0.001
       0.001
       0.004
       0.007
       0.007
       0.004
      -0.003
      -0.009
      -0.011
      -0.009
      -0.007
      -0.006
      -0.005
      -0.001
       0.007
       0.014
       0.016
       0.011
       0.002
      -0.004
      -0.004
       0.000
       0.003
       0.001
      -0.002
      -0.004
      -0.005
      -0.005
      -0.009
      -0.014
      -0.018
      -0.017
      -0.011
      -0.004
       0.001
       0.005
       0.006
       0.007
       0.008
       0.007
       0.004
       0.001
       0.000
       0.002
       0.005
       0.008
       0.009
       0.010
       0.012
       0.015
       0.014
       0.008
      -0.002
      -0.010
      -0.012
      -0.009
      -0.005
      -0.001
       0.002
       0.007
       0.012
       0.015
       0.015
       0.008
      -0.001
      -0.009
      -0.012
      -0.012
      -0.008
      -0.005
      -0.003
      -0.004
      -0.007
      -0.012
      -0.016
      -0.017
      -0.016
      -0.014
      -0.011
      -0.010
      -0.011
      -0.011
      -0.009
      -0.004
       0.003
       0.008
       0.006
       0.001
      -0.005
      -0.007
      -0.006
      -0.004
      -0.003
      -0.006
      -0.011
      -0.016
      -0.019
      -0.020
      -0.019
      -0.015
      -0.009
      -0.002
       0.005
       0.007
       0.006
       0.003
       0.002
       0.002
       0.000
      -0.006
      -0.017
      -0.026
      -0.027
      -0.021
      -0.017
      -0.022
      -0.037
      -0.056
      -0.070
      -0.079
      -0.085
      -0.092
      -0.085
      -0.041
       0.052
       0.173
       0.276
       0.321
       0.305
       0.251
       0.170
       0.048
      -0.118
      -0.279
      -0.347
      -0.279
      -0.140
      -0.050
      -0.070
      -0.137
      -0.145
      -0.077
      -0.026
      -0.078
      -0.197
      -0.252
      -0.157
       0.051
       0.275
       0.447
       0.540
       0.523
       0.365
       0.103
      -0.141
      -0.240
      -0.178
      -0.061
      -0.026
      -0.114
      -0.241
      -0.278
      -0.183
      -0.038
       0.026
      -0.049
      -0.186
      -0.239
      -0.125
       0.087
       0.228
       0.175
      -0.019
      -0.178
      -0.159
       0.016
       0.203
       0.294
       0.303
       0.305
       0.319
       0.273
       0.102
      -0.154
      -0.366
      -0.432
      -0.370
      -0.269
      -0.182
      -0.084
       0.059
       0.206
       0.253
       0.139
      -0.071
      -0.214
      -0.172
       0.021
       0.190
       0.178
      -0.006
      -0.180
      -0.164
       0.046
       0.267
       0.310
       0.165
      -0.010
      -0.068
      -0.034
      -0.061
      -0.242
      -0.469
      -0.514
      -0.258
       0.179
       0.530
       0.601
       0.409
       0.114
      -0.134
      -0.282
      -0.340
      -0.309
      -0.179
       0.023
       0.211
       0.292
       0.236
       0.102
      -0.014
      -0.057
      -0.048
      -0.044
      -0.078
      -0.127
      -0.137
      -0.081
       0.015
       0.089
       0.097
       0.048
      -0.011
      -0.036
      -0.016
       0.030
       0.082
       0.121
       0.132
       0.093
      -0.003
      -0.146
      -0.305
      -0.427
      -0.437
      -0.272
       0.061
       0.434
       0.639
       0.524
       0.128
      -0.315
      -0.537
      -0.431
      -0.117
       0.178
       0.302
       0.256
       0.148
       0.079
       0.079
       0.100
       0.068
      -0.051
      -0.212
      -0.321
      -0.317
      -0.229
      -0.137
      -0.081
      -0.009
       0.147
       0.355
       0.466
       0.362
       0.100
      -0.114
      -0.127
       0.007
       0.085
      -0.031
      -0.266
      -0.399
      -0.295
      -0.039
       0.151
       0.137
      -0.013
      -0.132
      -0.133
      -0.073
      -0.035
      -0.011
       0.068
       0.209
       0.310
       0.255
       0.047
      -0.179
      -0.265
      -0.151
       0.081
       0.274
       0.287
       0.089
      -0.210
      -0.420
      -0.394
      -0.145
       0.156
       0.311
       0.240
       0.022
      -0.182
      -0.258
      -0.200
      -0.079
       0.038
       0.138
       0.224
       0.250
       0.134
      -0.130
      -0.389
      -0.412
      -0.106
       0.361
       0.659
       0.575
       0.184
      -0.232
      -0.440
      -0.411
      -0.267
      -0.126
      -0.026
       0.048
       0.091
       0.076
       0.005
      -0.062
      -0.057
       0.027
       0.121
       0.146
       0.083
      -0.016
      -0.097
      -0.142
      -0.153
      -0.117
      -0.013
       0.126
       0.205
       0.128
      -0.095
      -0.321
      -0.364
      -0.141
       0.231
       0.488
       0.412
       0.029
      -0.377
      -0.480
      -0.204
       0.202
       0.377
       0.191
      -0.136
      -0.254
      -0.032
       0.314
       0.443
       0.220
      -0.168
      -0.418
      -0.392
      -0.195
      -0.012
       0.077
       0.111
       0.121
       0.068
      -0.078
      -0.245
      -0.286
      -0.126
       0.129
       0.270
       0.174
      -0.067
      -0.230
      -0.154
       0.120
       0.389
       0.458
       0.283
      -0.013
      -0.254
      -0.342
      -0.306
      -0.224
      -0.128
      -0.004
       0.134
       0.204
       0.113
      -0.129
      -0.382
      -0.468
      -0.321
      -0.039
       0.215
       0.347
       0.367
       0.319
       0.222
       0.087
      -0.047
      -0.128
      -0.147
      -0.141
      -0.135
      -0.110
      -0.030
       0.106
       0.237
       0.283
       0.200
       0.022
      -0.163
      -0.264
      -0.253
      -0.168
      -0.078
      -0.021
       0.006
       0.011
      -0.014
      -0.070
      -0.108
      -0.060
       0.073
       0.184
       0.156
      -0.001
      -0.143
      -0.130
       0.038
       0.213
       0.245
       0.112
      -0.064
      -0.139
      -0.072
       0.049
       0.098
       0.014
      -0.163
      -0.325
      -0.368
      -0.250
      -0.023
       0.189
       0.267
       0.187
       0.054
       0.012
       0.098
       0.190
       0.121
      -0.140
      -0.430
      -0.525
      -0.330
       0.046
       0.378
       0.471
       0.279
      -0.055
      -0.293
      -0.256
       0.028
       0.340
       0.437
       0.232
      -0.156
      -0.509
      -0.658
      -0.546
      -0.217
       0.210
       0.557
       0.652
       0.444
       0.051
      -0.305
      -0.453
      -0.363
      -0.125
       0.123
       0.262
       0.230
       0.055
      -0.141
      -0.202
      -0.053
       0.224
       0.422
       0.353
       0.015
      -0.391
      -0.593
      -0.452
      -0.073
       0.275
       0.358
       0.154
      -0.153
      -0.331
      -0.291
      -0.124
       0.029
       0.124
       0.213
       0.323
       0.379
       0.274
       0.002
      -0.293
      -0.430
      -0.348
      -0.135
       0.073
       0.206
       0.244
       0.169
      -0.007
      -0.190
      -0.227
      -0.056
       0.191
       0.280
       0.101
      -0.208
      -0.367
      -0.214
       0.129
       0.355
       0.237
      -0.172
      -0.576
      -0.649
      -0.284
       0.297
       0.691
       0.615
       0.142
      -0.357
      -0.523
      -0.288
       0.113
       0.385
       0.410
       0.276
       0.130
       0.034
      -0.047
      -0.156
      -0.276
      -0.344
      -0.312
      -0.188
      -0.042
       0.042
       0.041
       0.019
       0.078
       0.248
       0.432
       0.450
       0.185
      -0.282
      -0.678
      -0.726
      -0.353
       0.234
       0.680
       0.718
       0.320
      -0.292
      -0.781
      -0.877
      -0.521
       0.101
       0.657
       0.853
       0.606
       0.091
      -0.390
      -0.597
      -0.467
      -0.100
       0.316
       0.584
       0.558
       0.225
      -0.258
      -0.611
      -0.605
      -0.251
       0.173
       0.340
       0.154
      -0.171
      -0.325
      -0.173
       0.174
       0.473
       0.527
       0.274
      -0.188
      -0.620
      -0.746
      -0.429
       0.185
       0.705
       0.760
       0.303
      -0.329
      -0.691
      -0.596
      -0.222
       0.111
       0.243
       0.245
       0.262
       0.321
       0.320
       0.156
      -0.154
      -0.458
      -0.560
      -0.330
       0.187
       0.724
       0.900
       0.495
      -0.296
      -0.931
      -0.930
      -0.311
       0.385
       0.553
       0.071
      -0.575
      -0.731
      -0.171
       0.694
       1.187
       0.931
       0.137
      -0.614
      -0.834
      -0.463
       0.142
       0.505
       0.378
      -0.117
      -0.604
      -0.744
      -0.464
       0.025
       0.423
       0.539
       0.372
       0.047
      -0.260
      -0.374
      -0.202
       0.181
       0.540
       0.633
       0.388
      -0.042
      -0.390
      -0.467
      -0.290
      -0.042
       0.087
       0.055
      -0.028
      -0.043
       0.005
       0.012
      -0.077
      -0.173
      -0.148
      -0.003
       0.095
      -0.005
      -0.245
      -0.387
      -0.254
       0.071
       0.321
       0.318
       0.151
       0.079
       0.251
       0.549
       0.709
       0.586
       0.264
      -0.091
      -0.435
      -0.843
      -1.310
      -1.609
      -1.430
      -0.659
       0.453
       1.411
       1.773
       1.446
       0.785
       0.378
       0.616
       1.332
       1.870
       1.599
       0.489
      -0.803
      -1.488
      -1.359
      -0.968
      -1.082
      -1.932
      -3.005
      -3.520
      -3.116
      -2.076
      -0.970
      -0.116
       0.597
       1.444
       2.474
       3.412
       3.916
       3.880
       3.489
       2.973
       2.330
       1.322
      -0.199
      -1.957
      -3.280
      -3.560
      -2.776
      -1.583
      -0.859
      -1.058
      -1.887
      -2.532
      -2.238
      -0.828
       1.131
       2.599
       2.676
       1.265
      -0.697
      -1.732
      -0.848
       1.666
       4.335
       5.484
       4.373
       1.665
      -1.095
      -2.546
      -2.337
      -1.199
      -0.272
      -0.298
      -1.252
      -2.559
      -3.530
      -3.664
      -2.763
      -1.020
       0.943
       2.270
       2.375
       1.411
       0.212
      -0.346
      -0.037
       0.644
       1.057
       1.015
       0.814
       0.770
       0.848
       0.787
       0.492
       0.174
       0.084
       0.162
       0.051
      -0.508
      -1.317
      -1.804
      -1.521
      -0.581
       0.420
       0.923
       0.836
       0.483
       0.237
       0.228
       0.323
       0.280
      -0.073
      -0.697
      -1.330
      -1.648
      -1.505
      -1.033
      -0.483
       0.020
       0.540
       1.139
       1.688
       1.945
       1.810
       1.421
       0.944
       0.357
      -0.444
      -1.321
      -1.814
      -1.522
      -0.573
       0.366
       0.646
       0.201
      -0.436
      -0.685
      -0.447
      -0.131
      -0.188
      -0.669
      -1.156
      -1.087
      -0.203
       1.175
       2.273
       2.373
       1.394
       0.036
      -0.721
      -0.391
       0.638
       1.422
       1.194
      -0.083
      -1.700
      -2.692
      -2.473
      -1.218
       0.276
       1.180
       1.206
       0.714
       0.275
       0.155
       0.192
       0.104
      -0.175
      -0.468
      -0.578
      -0.469
      -0.255
      -0.085
      -0.048
      -0.124
      -0.188
      -0.082
       0.236
       0.613
       0.801
       0.662
       0.283
      -0.120
      -0.367
      -0.384
      -0.161
       0.252
       0.672
       0.785
       0.364
      -0.438
      -1.071
      -0.978
      -0.116
       0.894
       1.223
       0.551
      -0.625
      -1.422
      -1.353
      -0.707
      -0.193
      -0.254
      -0.725
      -1.089
      -0.971
      -0.371
       0.457
       1.236
       1.766
       1.936
       1.730
       1.252
       0.692
       0.236
      -0.001
      -0.022
       0.049
       0.025
      -0.213
      -0.614
      -0.987
      -1.152
      -1.065
      -0.802
      -0.476
      -0.193
      -0.046
      -0.070
      -0.198
      -0.301
      -0.286
      -0.166
      -0.005
       0.181
       0.404
       0.611
       0.648
       0.399
      -0.028
      -0.299
      -0.111
       0.500
       1.109
       1.209
       0.637
      -0.268
      -0.923
      -0.959
      -0.487
       0.033
       0.203
       0.007
      -0.216
      -0.121
       0.282
       0.585
       0.356
      -0.431
      -1.299
      -1.619
      -1.109
      -0.046
       0.935
       1.262
       0.795
      -0.089
      -0.733
      -0.661
       0.065
       0.899
       1.256
       0.974
       0.369
      -0.116
      -0.292
      -0.273
      -0.243
      -0.272
      -0.324
      -0.363
      -0.363
      -0.260
       0.013
       0.398
       0.652
       0.489
      -0.137
      -0.906
      -1.304
      -1.004
      -0.141
       0.753
       1.132
       0.835
       0.177
      -0.343
      -0.432
      -0.160
       0.213
       0.477
       0.552
       0.405
       0.024
      -0.484
      -0.855
      -0.812
      -0.298
       0.432
       0.962
       0.988
       0.508
      -0.174
      -0.641
      -0.615
      -0.134
       0.461
       0.728
       0.411
      -0.361
      -1.121
      -1.354
      -0.855
       0.106
       0.955
       1.209
       0.789
       0.044
      -0.522
      -0.612
      -0.315
       0.031
       0.162
       0.085
      -0.009
       0.006
       0.057
       0.003
      -0.135
      -0.150
       0.107
       0.486
       0.631
       0.344
      -0.168
      -0.450
      -0.218
       0.350
       0.745
       0.562
      -0.119
      -0.786
      -0.930
      -0.492
       0.107
       0.345
       0.041
      -0.531
      -0.910
      -0.807
      -0.270
       0.416
       0.925
       1.042
       0.754
       0.277
      -0.056
      -0.031
       0.255
       0.466
       0.320
      -0.147
      -0.629
      -0.824
      -0.683
      -0.382
      -0.124
       0.028
       0.116
       0.136
      -0.004
      -0.341
      -0.691
      -0.711
      -0.194
       0.668
       1.351
       1.377
       0.693
      -0.261
      -0.858
      -0.725
      -0.008
       0.753
       1.031
       0.680
      -0.022
      -0.628
      -0.845
      -0.681
      -0.363
      -0.149
      -0.146
      -0.272
      -0.327
      -0.168
       0.146
       0.375
       0.304
      -0.033
      -0.354
      -0.380
      -0.087
       0.283
       0.462
       0.384
       0.185
       0.028
      -0.028
      -0.015
       0.034
       0.097
       0.123
       0.037
      -0.166
      -0.357
      -0.349
      -0.083
       0.267
       0.410
       0.213
      -0.151
      -0.353
      -0.215
       0.132
       0.395
       0.393
       0.181
      -0.060
      -0.213
      -0.292
      -0.357
      -0.405
      -0.370
      -0.197
       0.072
       0.306
       0.382
       0.292
       0.136
       0.025
      -0.025
      -0.065
      -0.121
      -0.145
      -0.102
      -0.063
      -0.141
      -0.308
      -0.342
      -0.045
       0.470
       0.781
       0.537
      -0.148
      -0.725
      -0.687
      -0.028
       0.733
       0.982
       0.521
      -0.290
      -0.845
      -0.802
      -0.316
       0.158
       0.313
       0.208
       0.107
       0.153
       0.251
       0.230
       0.072
      -0.084
      -0.138
      -0.163
      -0.287
      -0.486
      -0.564
      -0.362
       0.047
       0.415
       0.551
       0.456
       0.258
       0.054
      -0.130
      -0.248
      -0.198
       0.080
       0.465
       0.676
       0.488
      -0.034
      -0.534
      -0.651
      -0.347
       0.047
