Origin Time       19/12/2012 22:32:00 UTC
Lat.              28.6 N 
Long.             76.8 E 
Depth (Km)         10.0
Magnitude         2.9
 Region           Jhajjar-Haryana                                                  
 Above details taken from IMD 
    
Station Code      VCD
Station Lat.       28.589  N
Station Long.      77.168  E
Station Height(m)  272.0
Site Class        C   Vs30 between 200 m/sec to 375 m/sec *  
Record Time       19.12.2012 22:31:35.894 UTC
Sampling Rate     200. Hz
 Record Duration   80.270 Sec.
 Direction         N-S (N positive)
Max. Acceleration     -4.070 cm/sec**2
     
  * For reference see Site Classification link of website 
     
 Base Line Corrected and Low Pass Filtered (Cut Off at 35 Hz) Time History
 Acceleration data in cm/sec**2
    
[...]
      -0.006
      -0.005
      -0.008
      -0.012
      -0.012
      -0.006
      -0.001
      -0.001
      -0.005
      -0.008
      -0.004
       0.006
       0.016
       0.019
       0.013
       0.002
      -0.005
      -0.005
      -0.002
      -0.001
      -0.001
      -0.002
       0.000
       0.004
       0.006
       0.002
      -0.005
      -0.011
      -0.010
       0.000
       0.014
       0.022
       0.018
       0.001
      -0.018
      -0.029
      -0.026
      -0.014
      -0.001
       0.004
       0.005
       0.004
       0.004
       0.006
       0.006
       0.004
       0.000
      -0.004
      -0.005
      -0.001
       0.005
       0.012
       0.016
       0.013
       0.007
       0.001
      -0.001
       0.000
      -0.001
      -0.004
      -0.008
      -0.008
      -0.005
       0.004
       0.012
       0.016
       0.012
       0.006
       0.002
       0.001
       0.000
      -0.002
      -0.003
      -0.004
      -0.003
      -0.003
      -0.004
      -0.007
      -0.009
      -0.009
      -0.005
       0.001
       0.007
       0.011
       0.014
       0.016
       0.013
       0.007
       0.000
      -0.006
      -0.010
      -0.011
      -0.010
      -0.008
      -0.006
      -0.005
      -0.006
      -0.007
      -0.008
      -0.005
       0.000
       0.003
       0.005
       0.006
       0.006
       0.003
      -0.002
      -0.008
      -0.009
      -0.006
      -0.001
       0.000
      -0.003
      -0.007
      -0.007
      -0.003
       0.001
       0.002
       0.001
       0.001
       0.004
       0.006
       0.005
       0.002
       0.002
       0.004
       0.008
       0.011
       0.011
       0.007
       0.000
      -0.007
      -0.013
      -0.016
      -0.015
      -0.010
      -0.003
       0.002
       0.004
       0.006
       0.009
       0.014
       0.018
       0.016
       0.008
      -0.004
      -0.015
      -0.021
      -0.021
      -0.020
      -0.018
      -0.016
      -0.012
      -0.007
      -0.004
      -0.001
       0.002
       0.005
       0.009
       0.010
       0.009
       0.006
       0.003
       0.001
      -0.003
      -0.011
      -0.021
      -0.027
      -0.026
      -0.021
      -0.014
      -0.008
      -0.004
       0.002
       0.009
       0.014
       0.014
       0.009
       0.002
      -0.002
      -0.002
      -0.003
      -0.005
      -0.009
      -0.013
      -0.015
      -0.013
      -0.008
      -0.002
       0.003
       0.006
       0.006
       0.003
      -0.002
      -0.005
      -0.005
      -0.004
      -0.004
      -0.004
       0.000
       0.009
       0.019
       0.022
       0.018
       0.009
       0.003
       0.003
       0.006
       0.007
       0.003
      -0.004
      -0.008
      -0.006
      -0.003
       0.000
      -0.002
      -0.006
      -0.009
      -0.007
       0.001
       0.010
       0.015
       0.013
       0.006
      -0.004
      -0.012
      -0.015
      -0.013
      -0.005
       0.001
       0.005
       0.004
       0.002
       0.004
       0.011
       0.018
       0.017
       0.006
      -0.006
      -0.012
      -0.011
      -0.007
      -0.007
      -0.010
      -0.015
      -0.016
      -0.010
       0.001
       0.012
       0.019
       0.022
       0.022
       0.019
       0.014
       0.010
       0.007
       0.006
       0.002
      -0.005
      -0.011
      -0.011
      -0.005
       0.003
       0.008
       0.005
      -0.002
      -0.007
      -0.010
      -0.012
      -0.012
      -0.010
      -0.007
      -0.004
      -0.005
      -0.010
      -0.014
      -0.015
      -0.009
       0.000
       0.008
       0.011
       0.009
       0.004
      -0.001
      -0.006
      -0.008
      -0.007
      -0.003
       0.003
       0.007
       0.009
       0.006
       0.001
      -0.005
      -0.008
      -0.008
      -0.006
      -0.004
      -0.004
      -0.005
      -0.004
       0.000
       0.006
       0.009
       0.006
      -0.002
      -0.009
      -0.010
      -0.006
      -0.001
       0.001
      -0.003
      -0.009
      -0.014
      -0.013
      -0.005
       0.004
       0.009
       0.010
       0.010
       0.009
       0.009
       0.010
       0.010
       0.007
       0.001
      -0.007
      -0.015
      -0.019
      -0.017
      -0.011
      -0.006
      -0.006
      -0.010
      -0.014
      -0.012
      -0.006
       0.003
       0.010
       0.013
       0.013
       0.013
       0.013
       0.012
       0.009
       0.004
       0.001
       0.003
       0.012
       0.023
       0.028
       0.025
       0.017
       0.014
       0.017
       0.011
      -0.023
      -0.085
      -0.142
      -0.157
      -0.117
      -0.050
       0.013
       0.073
       0.157
       0.254
       0.294
       0.214
       0.056
      -0.055
      -0.048
       0.002
      -0.040
      -0.190
      -0.324
      -0.326
      -0.230
      -0.160
      -0.162
      -0.148
      -0.032
       0.145
       0.274
       0.317
       0.334
       0.364
       0.351
       0.212
      -0.048
      -0.312
      -0.423
      -0.299
      -0.012
       0.244
       0.295
       0.146
      -0.036
      -0.099
      -0.065
      -0.077
      -0.212
      -0.377
      -0.398
      -0.216
       0.038
       0.166
       0.108
      -0.001
       0.012
       0.159
       0.295
       0.313
       0.271
       0.295
       0.370
       0.318
       0.013
      -0.411
      -0.651
      -0.536
      -0.202
       0.066
       0.128
       0.095
       0.138
       0.267
       0.317
       0.140
      -0.213
      -0.513
      -0.541
      -0.283
       0.065
       0.266
       0.231
       0.066
      -0.043
      -0.002
       0.126
       0.200
       0.144
       0.016
      -0.059
      -0.020
       0.069
       0.087
      -0.017
      -0.168
      -0.234
      -0.144
       0.057
       0.251
       0.327
       0.233
      -0.009
      -0.307
      -0.520
      -0.525
      -0.299
       0.050
       0.343
       0.448
       0.359
       0.178
       0.026
      -0.054
      -0.110
      -0.194
      -0.272
      -0.238
      -0.044
       0.215
       0.353
       0.267
       0.035
      -0.151
      -0.153
       0.001
       0.154
       0.172
       0.050
      -0.119
      -0.252
      -0.319
      -0.314
      -0.218
      -0.040
       0.140
       0.220
       0.174
       0.089
       0.075
       0.141
       0.164
       0.023
      -0.250
      -0.468
      -0.456
      -0.215
       0.108
       0.362
       0.488
       0.499
       0.416
       0.267
       0.081
      -0.113
      -0.298
      -0.441
      -0.486
      -0.390
      -0.197
      -0.020
       0.052
       0.034
       0.013
       0.055
       0.148
       0.231
       0.247
       0.174
       0.026
      -0.138
      -0.245
      -0.250
      -0.164
      -0.032
       0.112
       0.240
       0.304
       0.257
       0.125
      -0.001
      -0.068
      -0.137
      -0.283
      -0.447
      -0.461
      -0.222
       0.167
       0.480
       0.545
       0.350
       0.026
      -0.245
      -0.329
      -0.213
      -0.002
       0.161
       0.184
       0.066
      -0.116
      -0.259
      -0.267
      -0.092
       0.223
       0.527
       0.634
       0.448
       0.043
      -0.391
      -0.667
      -0.691
      -0.458
      -0.044
       0.375
       0.579
       0.447
       0.072
      -0.285
      -0.396
      -0.227
       0.056
       0.254
       0.282
       0.190
       0.074
      -0.018
      -0.101
      -0.191
      -0.244
      -0.178
       0.025
       0.261
       0.373
       0.288
       0.077
      -0.117
      -0.202
      -0.204
      -0.194
      -0.201
      -0.174
      -0.068
       0.077
       0.153
       0.116
       0.056
       0.086
       0.175
       0.161
      -0.052
      -0.315
      -0.346
      -0.045
       0.342
       0.430
       0.110
      -0.309
      -0.385
       0.004
       0.522
       0.683
       0.316
      -0.289
      -0.668
      -0.602
      -0.241
       0.118
       0.303
       0.329
       0.250
       0.075
      -0.165
      -0.336
      -0.279
       0.007
       0.298
       0.318
       0.010
      -0.391
      -0.556
      -0.348
       0.062
       0.355
       0.351
       0.136
      -0.051
      -0.059
       0.063
       0.148
       0.100
      -0.009
      -0.039
       0.053
       0.137
       0.054
      -0.180
      -0.349
      -0.259
       0.045
       0.309
       0.312
       0.072
      -0.196
      -0.303
      -0.253
      -0.171
      -0.110
       0.001
       0.198
       0.350
       0.275
      -0.017
      -0.273
      -0.230
       0.117
       0.515
       0.682
       0.506
       0.097
      -0.320
      -0.555
      -0.559
      -0.424
      -0.279
      -0.169
      -0.057
       0.074
       0.165
       0.155
       0.087
       0.063
       0.100
       0.082
      -0.084
      -0.302
      -0.349
      -0.134
       0.166
       0.284
       0.149
      -0.041
      -0.039
       0.166
       0.337
       0.244
      -0.073
      -0.328
      -0.289
      -0.011
       0.235
       0.239
       0.022
      -0.240
      -0.387
      -0.370
      -0.216
       0.024
       0.278
       0.434
       0.394
       0.166
      -0.116
      -0.288
      -0.287
      -0.174
      -0.060
      -0.032
      -0.097
      -0.152
      -0.048
       0.238
       0.515
       0.549
       0.305
      -0.012
      -0.182
      -0.183
      -0.149
      -0.171
      -0.211
      -0.200
      -0.159
      -0.170
      -0.239
      -0.247
      -0.071
       0.260
       0.574
       0.696
       0.570
       0.243
      -0.185
      -0.566
      -0.727
      -0.568
      -0.174
       0.216
       0.384
       0.283
       0.042
      -0.143
      -0.137
       0.051
       0.271
       0.332
       0.153
      -0.162
      -0.405
      -0.422
      -0.225
       0.039
       0.212
       0.228
       0.120
      -0.043
      -0.210
      -0.323
      -0.299
      -0.095
       0.214
       0.460
       0.510
       0.351
       0.073
      -0.217
      -0.420
      -0.422
      -0.131
       0.372
       0.764
       0.693
       0.119
      -0.583
      -0.927
      -0.724
      -0.185
       0.306
       0.483
       0.326
       0.025
      -0.164
      -0.103
       0.132
       0.297
       0.183
      -0.171
      -0.484
      -0.483
      -0.172
       0.181
       0.314
       0.202
       0.006
      -0.120
      -0.133
      -0.044
       0.144
       0.381
       0.524
       0.413
       0.033
      -0.431
      -0.712
      -0.657
      -0.327
       0.075
       0.343
       0.373
       0.186
      -0.095
      -0.295
      -0.277
      -0.035
       0.277
       0.434
       0.316
       0.017
      -0.236
      -0.292
      -0.158
       0.073
       0.324
       0.522
       0.550
       0.307
      -0.157
      -0.616
      -0.806
      -0.620
      -0.182
       0.249
       0.474
       0.454
       0.261
      -0.020
      -0.300
      -0.456
      -0.365
      -0.021
       0.393
       0.594
       0.413
      -0.039
      -0.436
      -0.507
      -0.256
       0.084
       0.283
       0.268
       0.118
      -0.020
      -0.014
       0.145
       0.291
       0.196
      -0.199
      -0.648
      -0.769
      -0.369
       0.347
       0.894
       0.908
       0.459
      -0.045
      -0.271
      -0.252
      -0.262
      -0.442
      -0.629
      -0.583
      -0.274
       0.101
       0.340
       0.399
       0.354
       0.266
       0.164
       0.121
       0.243
       0.521
       0.728
       0.563
      -0.058
      -0.847
      -1.330
      -1.227
      -0.692
      -0.163
       0.064
       0.082
       0.192
       0.512
       0.843
       0.908
       0.640
       0.206
      -0.168
      -0.340
      -0.279
      -0.075
       0.083
       0.013
      -0.297
      -0.648
      -0.757
      -0.467
       0.145
       0.796
       1.122
       0.878
       0.146
      -0.643
      -0.984
      -0.709
      -0.105
       0.383
       0.511
       0.318
      -0.016
      -0.292
      -0.360
      -0.185
       0.113
       0.343
       0.402
       0.351
       0.301
       0.233
      -0.011
      -0.505
      -1.016
      -1.111
      -0.567
       0.328
       0.959
       0.942
       0.455
       0.015
      -0.058
       0.103
       0.170
       0.011
      -0.218
      -0.334
      -0.345
      -0.370
      -0.437
      -0.445
      -0.333
      -0.200
      -0.222
      -0.450
      -0.680
      -0.543
       0.199
       1.373
       2.371
       2.500
       1.538
       0.016
      -1.100
      -1.158
      -0.376
       0.335
       0.187
      -0.756
      -1.648
      -1.681
      -0.841
       0.112
       0.388
      -0.139
      -0.900
      -1.223
      -0.938
      -0.471
      -0.391
      -0.821
      -1.240
      -0.886
       0.520
       2.366
       3.524
       3.286
       2.033
       0.945
       0.942
       1.850
       2.626
       2.383
       1.223
       0.058
      -0.347
      -0.125
      -0.113
      -0.936
      -2.316
      -3.303
      -3.210
      -2.306
      -1.590
      -1.835
      -2.805
      -3.404
      -2.634
      -0.518
       1.867
       3.273
       3.271
       2.461
       1.789
       1.673
       1.782
       1.583
       0.998
       0.441
       0.237
       0.125
      -0.528
      -1.951
      -3.498
      -4.070
      -3.079
      -1.015
       0.908
       1.727
       1.454
       0.862
       0.555
       0.347
      -0.301
      -1.338
      -1.884
      -1.099
       0.802
       2.574
       3.049
       2.204
       1.081
       0.673
       0.947
       0.992
       0.093
      -1.443
      -2.501
      -2.173
      -0.607
       1.028
       1.468
       0.415
      -1.151
      -1.747
      -0.669
       1.319
       2.563
       1.950
      -0.125
      -2.200
      -3.102
      -2.790
      -1.995
      -1.268
      -0.551
       0.441
       1.608
       2.377
       2.262
       1.439
       0.643
       0.406
       0.512
       0.349
      -0.238
      -0.670
      -0.317
       0.683
       1.459
       1.264
       0.167
      -1.105
      -1.884
      -2.037
      -1.852
      -1.651
      -1.544
      -1.415
      -1.027
      -0.193
       1.023
       2.201
       2.727
       2.228
       0.946
      -0.326
      -0.790
      -0.244
       0.805
       1.585
       1.647
       1.103
       0.389
      -0.171
      -0.581
      -1.012
      -1.478
      -1.740
      -1.538
      -0.902
      -0.204
       0.085
      -0.259
      -1.017
      -1.624
      -1.545
      -0.636
       0.776
       2.143
       3.002
       3.110
       2.452
       1.227
      -0.172
      -1.238
      -1.563
      -1.098
      -0.281
       0.196
      -0.106
      -0.965
      -1.624
      -1.410
      -0.315
       0.984
       1.672
       1.406
       0.475
      -0.500
      -1.025
      -1.013
      -0.773
      -0.684
      -0.793
      -0.727
      -0.084
       1.040
       1.957
       1.927
       0.849
      -0.582
      -1.423
      -1.240
      -0.360
       0.515
       0.909
       0.827
       0.538
       0.210
      -0.192
      -0.692
      -1.078
      -0.995
      -0.334
       0.527
       0.990
       0.765
       0.103
      -0.480
      -0.623
      -0.292
       0.304
       0.815
       0.873
       0.334
      -0.525
      -1.150
      -1.134
      -0.544
       0.163
       0.532
       0.413
      -0.034
      -0.534
      -0.845
      -0.782
      -0.244
       0.659
       1.516
       1.790
       1.218
       0.104
      -0.799
      -0.826
       0.039
       1.083
       1.407
       0.660
      -0.658
      -1.582
      -1.429
      -0.309
       0.956
       1.432
       0.739
      -0.676
      -1.878
      -2.131
      -1.359
      -0.084
       0.992
       1.371
       0.952
       0.048
      -0.783
      -1.072
      -0.711
       0.037
       0.762
       1.133
       1.002
       0.425
      -0.351
      -0.986
      -1.217
      -0.991
      -0.450
       0.203
       0.797
       1.183
       1.205
       0.779
       0.011
      -0.764
      -1.128
      -0.857
      -0.132
       0.561
       0.796
       0.539
       0.131
      -0.048
       0.113
       0.424
       0.604
       0.518
       0.252
      -0.016
      -0.208
      -0.392
      -0.633
      -0.847
      -0.880
      -0.693
      -0.403
      -0.156
      -0.031
      -0.046
      -0.170
      -0.297
      -0.256
       0.065
       0.564
       0.946
       0.940
       0.530
      -0.023
      -0.364
      -0.263
       0.255
       0.922
       1.353
       1.211
       0.392
      -0.820
      -1.795
      -1.934
      -1.144
       0.040
       0.844
       0.827
       0.170
      -0.530
      -0.731
      -0.327
       0.326
       0.704
       0.511
      -0.137
      -0.803
      -1.014
      -0.553
       0.396
       1.324
       1.674
       1.191
       0.129
      -0.852
      -1.127
      -0.591
       0.216
       0.527
      -0.005
      -0.984
      -1.576
      -1.223
      -0.128
       0.946
       1.341
       1.003
       0.370
      -0.077
      -0.144
       0.079
       0.389
       0.606
       0.619
       0.389
      -0.022
      -0.426
      -0.572
      -0.342
       0.100
       0.390
       0.262
      -0.219
      -0.717
      -0.926
      -0.813
      -0.565
      -0.331
      -0.075
       0.293
       0.696
       0.876
       0.639
       0.118
      -0.273
      -0.209
       0.203
       0.508
       0.359
      -0.122
      -0.460
      -0.293
       0.272
       0.732
       0.631
      -0.038
      -0.808
      -1.111
      -0.733
       0.020
       0.583
       0.595
       0.149
      -0.359
      -0.595
      -0.491
      -0.191
       0.112
       0.287
       0.290
       0.144
      -0.071
      -0.224
      -0.185
       0.049
       0.275
       0.216
      -0.182
      -0.612
      -0.623
      -0.046
       0.805
       1.370
       1.293
       0.678
      -0.041
      -0.449
      -0.399
      -0.039
       0.335
       0.480
       0.342
       0.063
      -0.176
      -0.343
      -0.563
      -0.887
      -1.123
      -0.983
      -0.427
       0.229
       0.595
       0.563
       0.332
       0.132
       0.017
      -0.067
      -0.138
      -0.180
      -0.238
      -0.372
      -0.499
      -0.392
       0.093
       0.772
       1.167
       0.883
       0.021
      -0.811
      -0.946
      -0.224
       0.836
       1.429
       1.103
       0.120
      -0.756
      -0.894
      -0.325
       0.325
       0.463
       0.072
      -0.378
      -0.485
      -0.296
      -0.138
      -0.195
      -0.334
      -0.301
      -0.026
       0.300
       0.410
       0.206
      -0.187
      -0.537
      -0.643
      -0.416
       0.086
       0.646
       0.947
       0.757
       0.156
      -0.427
      -0.503
       0.033
       0.755
       1.056
       0.692
      -0.028
      -0.578
      -0.678
      -0.459
      -0.271
      -0.374
      -0.714
      -0.969
      -0.829
      -0.286
       0.343
       0.693
       0.652
       0.406
       0.237
       0.292
       0.506
