Origin Time       11/11/2013 20:25:02 UTC
Lat.              28.4 N	
Long.             77.2 E	
Depth (Km)         10.0
Magnitude         2.5
 Region           DELHI                                                            
 Above details taken from IMD 
    
Station Code      VCD
Station Lat.       28.589  N
Station Long.      77.168  E
Station Height(m)  272.0
Site Class        C   Vs30 between 200 m/sec to 375 m/sec *  
Record Time       11.11.2013 20:29:07.929 UTC
Sampling Rate     200. Hz
 Record Duration   80.110 Sec.
 Direction         N-S (N positive)
Max. Acceleration      2.866 cm/sec**2
     
  * For reference see Site Classification link of website 
     
 Base Line Corrected and Low Pass Filtered (Cut Off at 35 Hz) Time History
 Acceleration data in cm/sec**2
    
[...]
      -0.046
      -0.026
      -0.001
       0.019
       0.030
       0.034
       0.034
       0.026
       0.004
      -0.034
      -0.075
      -0.099
      -0.092
      -0.056
      -0.007
       0.033
       0.050
       0.044
       0.023
      -0.001
      -0.018
      -0.024
      -0.027
      -0.036
      -0.053
      -0.068
      -0.066
      -0.041
       0.001
       0.042
       0.064
       0.061
       0.041
       0.019
       0.004
      -0.007
      -0.020
      -0.038
      -0.056
      -0.067
      -0.062
      -0.043
      -0.018
      -0.001
       0.007
       0.012
       0.021
       0.033
       0.036
       0.022
      -0.004
      -0.027
      -0.036
      -0.032
      -0.026
      -0.028
      -0.034
      -0.032
      -0.018
       0.006
       0.028
       0.044
       0.050
       0.046
       0.029
       0.003
      -0.027
      -0.051
      -0.061
      -0.054
      -0.034
      -0.009
       0.010
       0.016
       0.012
       0.006
       0.004
       0.005
       0.000
      -0.017
      -0.040
      -0.055
      -0.052
      -0.033
      -0.008
       0.012
       0.024
       0.027
       0.026
       0.021
       0.015
       0.006
      -0.006
      -0.020
      -0.032
      -0.040
      -0.041
      -0.034
      -0.021
      -0.006
       0.006
       0.012
       0.014
       0.012
       0.011
       0.012
       0.016
       0.015
       0.006
      -0.008
      -0.019
      -0.021
      -0.014
      -0.005
      -0.003
      -0.011
      -0.026
      -0.036
      -0.036
      -0.023
      -0.002
       0.017
       0.025
       0.018
       0.001
      -0.017
      -0.030
      -0.036
      -0.037
      -0.035
      -0.032
      -0.026
      -0.017
      -0.002
       0.016
       0.032
       0.042
       0.047
       0.046
       0.035
       0.012
      -0.019
      -0.048
      -0.066
      -0.066
      -0.050
      -0.028
      -0.007
       0.010
       0.025
       0.036
       0.039
       0.035
       0.024
       0.007
      -0.013
      -0.031
      -0.040
      -0.034
      -0.015
       0.007
       0.021
       0.019
       0.006
      -0.007
      -0.010
      -0.003
       0.007
       0.012
       0.011
       0.011
       0.015
       0.020
       0.019
       0.006
      -0.017
      -0.044
      -0.065
      -0.073
      -0.065
      -0.039
       0.000
       0.040
       0.068
       0.072
       0.054
       0.021
      -0.017
      -0.050
      -0.065
      -0.060
      -0.037
      -0.007
       0.017
       0.025
       0.015
      -0.006
      -0.021
      -0.024
      -0.016
      -0.006
      -0.002
      -0.004
      -0.007
      -0.007
      -0.001
       0.007
       0.009
      -0.002
      -0.021
      -0.040
      -0.045
      -0.034
      -0.011
       0.012
       0.026
       0.034
       0.037
       0.032
       0.018
      -0.005
      -0.028
      -0.043
      -0.044
      -0.034
      -0.018
      -0.004
       0.000
      -0.005
      -0.011
      -0.013
      -0.008
      -0.001
       0.007
       0.012
       0.011
       0.003
      -0.009
      -0.017
      -0.018
      -0.012
      -0.003
       0.001
       0.001
      -0.001
       0.000
       0.003
       0.003
      -0.002
      -0.010
      -0.015
      -0.016
      -0.012
      -0.008
      -0.006
      -0.008
      -0.010
      -0.010
      -0.010
      -0.013
      -0.018
      -0.022
      -0.022
      -0.020
      -0.014
      -0.003
       0.009
       0.017
       0.019
       0.018
       0.015
       0.010
       0.001
      -0.015
      -0.034
      -0.051
      -0.055
      -0.043
      -0.020
       0.006
       0.025
       0.032
       0.026
       0.014
       0.004
      -0.001
      -0.009
      -0.023
      -0.038
      -0.047
      -0.045
      -0.037
      -0.030
      -0.024
      -0.020
      -0.013
      -0.004
       0.008
       0.020
       0.031
       0.038
       0.039
       0.030
       0.014
      -0.005
      -0.023
      -0.037
      -0.049
      -0.054
      -0.050
      -0.034
      -0.008
       0.023
       0.048
       0.055
       0.037
       0.006
      -0.022
      -0.033
      -0.023
       0.001
       0.025
       0.033
       0.021
      -0.001
      -0.017
      -0.015
      -0.001
       0.011
       0.009
      -0.004
      -0.021
      -0.030
      -0.029
      -0.024
      -0.018
      -0.011
      -0.001
       0.014
       0.029
       0.035
       0.029
       0.010
      -0.014
      -0.033
      -0.039
      -0.033
      -0.017
       0.004
       0.021
       0.027
       0.017
      -0.001
      -0.015
      -0.019
      -0.013
      -0.006
      -0.006
      -0.012
      -0.019
      -0.017
      -0.007
       0.006
       0.015
       0.020
       0.022
       0.019
       0.010
      -0.001
      -0.010
      -0.015
      -0.017
      -0.020
      -0.025
      -0.027
      -0.023
      -0.014
      -0.003
       0.007
       0.016
       0.021
       0.018
       0.007
      -0.004
      -0.004
       0.006
       0.015
       0.008
      -0.010
      -0.027
      -0.030
      -0.021
      -0.009
      -0.003
      -0.005
      -0.010
      -0.013
      -0.015
      -0.015
      -0.015
      -0.011
       0.001
       0.019
       0.038
       0.049
       0.041
       0.014
      -0.023
      -0.053
      -0.063
      -0.050
      -0.022
       0.007
       0.023
       0.019
      -0.001
      -0.021
      -0.029
      -0.021
      -0.004
       0.012
       0.021
       0.021
       0.013
       0.003
      -0.008
      -0.020
      -0.031
      -0.038
      -0.041
      -0.039
      -0.033
      -0.021
      -0.003
       0.012
       0.015
       0.007
      -0.009
      -0.022
      -0.022
      -0.009
       0.012
       0.025
       0.023
       0.008
      -0.009
      -0.021
      -0.022
      -0.014
      -0.003
       0.003
      -0.001
      -0.015
      -0.029
      -0.034
      -0.027
      -0.014
      -0.005
      -0.007
      -0.015
      -0.019
      -0.013
       0.002
       0.015
       0.019
       0.011
      -0.004
      -0.019
      -0.027
      -0.023
      -0.013
      -0.007
      -0.012
      -0.025
      -0.035
      -0.033
      -0.016
       0.005
       0.017
       0.013
      -0.002
      -0.019
      -0.026
      -0.018
       0.002
       0.021
       0.030
       0.028
       0.018
       0.006
      -0.009
      -0.022
      -0.031
      -0.033
      -0.031
      -0.026
      -0.015
       0.003
       0.019
       0.023
       0.016
       0.006
       0.004
       0.010
       0.019
       0.021
       0.010
      -0.009
      -0.025
      -0.030
      -0.021
      -0.005
       0.011
       0.023
       0.028
       0.027
       0.020
       0.007
      -0.008
      -0.019
      -0.027
      -0.035
      -0.043
      -0.042
      -0.019
       0.016
       0.032
       0.006
      -0.044
      -0.065
      -0.021
       0.068
       0.130
       0.113
       0.035
      -0.037
      -0.055
      -0.036
      -0.029
      -0.045
      -0.044
       0.006
       0.076
       0.098
       0.042
      -0.044
      -0.078
      -0.025
       0.065
       0.108
       0.065
      -0.029
      -0.107
      -0.133
      -0.115
      -0.074
      -0.020
       0.040
       0.088
       0.097
       0.056
      -0.014
      -0.076
      -0.096
      -0.053
       0.051
       0.166
       0.200
       0.091
      -0.106
      -0.243
      -0.208
      -0.038
       0.120
       0.162
       0.103
       0.028
      -0.030
      -0.092
      -0.152
      -0.142
      -0.013
       0.163
       0.236
       0.124
      -0.095
      -0.254
      -0.249
      -0.119
       0.014
       0.069
       0.071
       0.090
       0.136
       0.135
       0.014
      -0.189
      -0.310
      -0.207
       0.083
       0.342
       0.350
       0.081
      -0.264
      -0.425
      -0.289
       0.041
       0.337
       0.419
       0.257
      -0.039
      -0.303
      -0.404
      -0.296
      -0.025
       0.285
       0.470
       0.410
       0.124
      -0.214
      -0.407
      -0.383
      -0.227
      -0.068
       0.044
       0.135
       0.218
       0.236
       0.129
      -0.064
      -0.207
      -0.190
      -0.037
       0.114
       0.142
       0.037
      -0.108
      -0.189
      -0.168
      -0.085
      -0.003
       0.055
       0.104
       0.159
       0.204
       0.199
       0.119
      -0.031
      -0.206
      -0.330
      -0.331
      -0.192
       0.018
       0.168
       0.165
       0.029
      -0.117
      -0.149
      -0.047
       0.101
       0.191
       0.197
       0.153
       0.085
      -0.007
      -0.123
      -0.217
      -0.220
      -0.107
       0.071
       0.222
       0.274
       0.203
       0.040
      -0.135
      -0.225
      -0.176
      -0.036
       0.075
       0.063
      -0.054
      -0.155
      -0.135
      -0.004
       0.125
       0.147
       0.055
      -0.059
      -0.093
      -0.025
       0.063
       0.062
      -0.062
      -0.223
      -0.280
      -0.157
       0.083
       0.280
       0.305
       0.172
       0.018
      -0.041
      -0.009
       0.018
      -0.021
      -0.094
      -0.126
      -0.090
      -0.033
      -0.017
      -0.065
      -0.140
      -0.166
      -0.089
       0.055
       0.157
       0.138
       0.014
      -0.119
      -0.170
      -0.106
       0.034
       0.173
       0.230
       0.157
      -0.019
      -0.188
      -0.212
      -0.046
       0.195
       0.313
       0.197
      -0.078
      -0.318
      -0.369
      -0.225
      -0.008
       0.146
       0.204
       0.211
       0.197
       0.120
      -0.055
      -0.266
      -0.367
      -0.266
      -0.024
       0.174
       0.186
       0.037
      -0.118
      -0.141
      -0.026
       0.123
       0.202
       0.180
       0.101
       0.017
      -0.058
      -0.136
      -0.194
      -0.174
      -0.048
       0.136
       0.273
       0.275
       0.129
      -0.092
      -0.279
      -0.348
      -0.274
      -0.090
       0.131
       0.287
       0.294
       0.150
      -0.049
      -0.184
      -0.197
      -0.129
      -0.061
      -0.023
       0.021
       0.092
       0.133
       0.067
      -0.091
      -0.212
      -0.171
       0.029
       0.247
       0.314
       0.164
      -0.115
      -0.335
      -0.332
      -0.083
       0.261
       0.468
       0.395
       0.095
      -0.227
      -0.378
      -0.301
      -0.101
       0.060
       0.083
      -0.003
      -0.073
      -0.040
       0.046
       0.051
      -0.087
      -0.258
      -0.267
      -0.033
       0.304
       0.474
       0.312
      -0.094
      -0.458
      -0.519
      -0.249
       0.127
       0.336
       0.288
       0.110
      -0.027
      -0.058
      -0.023
       0.015
       0.020
      -0.028
      -0.118
      -0.174
      -0.100
       0.087
       0.216
       0.115
      -0.163
      -0.349
      -0.213
       0.184
       0.523
       0.516
       0.147
      -0.326
      -0.591
      -0.502
      -0.151
       0.234
       0.442
       0.384
       0.128
      -0.168
      -0.358
      -0.381
      -0.264
      -0.078
       0.099
       0.214
       0.257
       0.244
       0.172
       0.036
      -0.111
      -0.160
      -0.076
       0.037
       0.040
      -0.086
      -0.218
      -0.222
      -0.070
       0.134
       0.250
       0.206
       0.040
      -0.148
      -0.266
      -0.255
      -0.086
       0.210
       0.491
       0.555
       0.296
      -0.164
      -0.531
      -0.572
      -0.306
       0.036
       0.231
       0.234
       0.141
       0.042
      -0.045
      -0.131
      -0.196
      -0.196
      -0.116
       0.008
       0.122
       0.192
       0.228
       0.259
       0.291
       0.262
       0.080
      -0.264
      -0.622
      -0.775
      -0.602
      -0.172
       0.324
       0.699
       0.844
       0.716
       0.335
      -0.201
      -0.716
      -1.024
      -0.998
      -0.610
       0.034
       0.686
       1.028
       0.845
       0.185
      -0.601
      -1.022
      -0.746
       0.145
       1.143
       1.606
       1.164
       0.025
      -1.110
      -1.505
      -0.936
       0.129
       0.884
       0.813
       0.061
      -0.719
      -0.882
      -0.245
       0.792
       1.515
       1.352
       0.255
      -1.247
      -2.362
      -2.482
      -1.500
       0.164
       1.778
       2.638
       2.398
       1.222
      -0.325
      -1.561
      -1.986
      -1.479
      -0.345
       0.809
       1.360
       1.015
       0.042
      -0.850
      -0.994
      -0.286
       0.714
       1.202
       0.777
      -0.236
      -1.062
      -1.102
      -0.377
       0.533
       0.965
       0.657
      -0.091
      -0.680
      -0.684
      -0.162
       0.441
       0.685
       0.477
       0.099
      -0.089
       0.017
       0.201
       0.185
      -0.072
      -0.338
      -0.380
      -0.238
      -0.194
      -0.428
      -0.776
      -0.879
      -0.556
      -0.006
       0.355
       0.229
      -0.338
      -0.959
      -1.128
      -0.544
       0.649
       1.878
       2.430
       1.902
       0.508
      -0.991
      -1.745
      -1.372
      -0.203
       0.960
       1.421
       1.055
       0.321
      -0.162
      -0.107
       0.266
       0.447
       0.031
      -0.955
      -1.993
      -2.352
      -1.576
       0.132
       1.937
       2.866
       2.431
       0.905
      -0.924
      -2.228
      -2.506
      -1.709
      -0.217
       1.294
       2.137
       1.957
       0.945
      -0.263
      -1.000
      -1.019
      -0.607
      -0.254
      -0.191
      -0.237
      -0.106
       0.206
       0.416
       0.305
      -0.047
      -0.393
      -0.566
      -0.544
      -0.352
      -0.004
       0.436
       0.762
       0.694
       0.119
      -0.700
      -1.225
      -1.048
      -0.245
       0.668
       1.133
       0.976
       0.486
       0.122
       0.114
       0.333
       0.509
       0.499
       0.341
       0.131
      -0.082
      -0.281
      -0.441
      -0.543
      -0.572
      -0.506
      -0.326
      -0.087
       0.068
       0.041
      -0.084
      -0.094
       0.148
       0.547
       0.816
       0.687
       0.128
      -0.612
      -1.153
      -1.220
      -0.799
      -0.122
       0.492
       0.796
       0.694
       0.254
      -0.292
      -0.618
      -0.499
      -0.015
       0.448
       0.509
       0.151
      -0.262
      -0.347
      -0.060
       0.310
       0.467
       0.353
       0.098
      -0.162
      -0.340
      -0.354
      -0.154
       0.190
       0.492
       0.554
       0.288
      -0.206
      -0.646
      -0.708
      -0.276
       0.417
       0.940
       0.989
       0.601
       0.064
      -0.376
      -0.672
      -0.859
      -0.884
      -0.640
      -0.151
       0.358
       0.619
       0.545
       0.293
       0.103
       0.070
       0.100
       0.044
      -0.130
      -0.300
      -0.296
      -0.080
       0.201
       0.330
       0.207
      -0.103
      -0.434
      -0.605
      -0.467
       0.005
       0.620
       1.012
       0.889
       0.288
      -0.420
      -0.821
      -0.756
      -0.384
       0.016
       0.252
       0.281
       0.140
      -0.106
      -0.369
      -0.521
      -0.426
      -0.038
       0.520
       0.991
       1.102
       0.735
       0.012
      -0.739
      -1.154
      -1.040
      -0.493
       0.156
       0.541
       0.513
       0.235
       0.004
      -0.028
       0.042
       0.050
      -0.050
      -0.177
      -0.243
      -0.223
      -0.124
       0.060
       0.299
       0.487
       0.483
       0.229
      -0.169
      -0.463
      -0.418
      -0.011
       0.511
       0.799
       0.647
       0.120
      -0.526
      -0.993
      -1.060
      -0.669
       0.002
       0.603
       0.821
       0.592
       0.120
      -0.297
      -0.466
      -0.392
      -0.205
      -0.023
       0.119
       0.236
       0.325
       0.345
       0.245
      -0.006
      -0.372
      -0.727
      -0.866
      -0.623
      -0.015
       0.686
       1.094
       0.981
       0.456
      -0.138
      -0.493
      -0.511
      -0.291
       0.002
       0.225
       0.288
       0.175
      -0.043
      -0.245
      -0.343
      -0.317
      -0.194
      -0.023
       0.120
       0.157
       0.081
      -0.024
      -0.044
       0.040
       0.121
       0.073
      -0.099
      -0.250
      -0.242
      -0.067
       0.155
       0.280
       0.237
       0.077
      -0.073
      -0.109
      -0.047
      -0.008
      -0.096
      -0.272
      -0.356
      -0.188
       0.176
       0.465
       0.427
       0.070
      -0.309
      -0.357
       0.029
       0.574
       0.839
       0.596
       0.034
      -0.427
      -0.509
      -0.291
      -0.059
       0.009
      -0.033
      -0.055
      -0.034
      -0.020
      -0.016
       0.029
       0.108
       0.119
       0.005
      -0.138
      -0.144
       0.003
       0.100
      -0.067
      -0.450
      -0.739
      -0.638
      -0.152
       0.426
       0.764
       0.728
       0.411
       0.025
      -0.234
      -0.280
      -0.183
      -0.116
      -0.192
      -0.334
      -0.328
      -0.058
       0.341
       0.580
       0.485
       0.155
      -0.141
      -0.224
      -0.135
      -0.026
       0.038
       0.118
       0.270
       0.429
       0.444
       0.223
      -0.182
      -0.593
      -0.804
      -0.700
      -0.322
       0.142
       0.460
       0.500
       0.311
       0.069
      -0.064
      -0.058
       0.003
       0.015
      -0.044
      -0.100
      -0.074
       0.014
       0.047
      -0.066
      -0.264
      -0.370
      -0.243
       0.082
       0.417
       0.553
       0.397
       0.031
      -0.322
      -0.429
      -0.208
       0.193
       0.482
       0.437
       0.071
      -0.370
      -0.600
      -0.500
      -0.181
       0.118
       0.214
       0.105
      -0.055
      -0.108
      -0.027
       0.080
       0.096
       0.014
      -0.062
      -0.014
       0.178
       0.408
       0.492
       0.291
      -0.158
      -0.608
      -0.754
      -0.463
       0.088
       0.524
       0.557
       0.204
      -0.249
      -0.476
      -0.334
       0.076
       0.484
       0.609
       0.329
      -0.226
      -0.735
      -0.884
      -0.561
       0.073
       0.691
       0.992
       0.853
       0.369
      -0.220
      -0.658
      -0.776
      -0.549
      -0.101
       0.333
       0.525
       0.383
       0.004
      -0.401
      -0.628
      -0.562
      -0.211
       0.275
       0.636
       0.648
       0.303
      -0.148
      -0.401
      -0.350
      -0.132
       0.057
       0.150
       0.193
       0.225
       0.207
       0.085
      -0.122
      -0.299
      -0.296
      -0.052
       0.318
       0.565
       0.480
       0.080
      -0.371
      -0.557
      -0.352
       0.084
       0.422
       0.413
       0.073
      -0.343
      -0.552
      -0.459
      -0.190
       0.061
       0.200
       0.238
       0.193
       0.057
      -0.128
      -0.244
      -0.203
      -0.045
