Origin Time       11/11/2013 20:25:02
Lat.              28.4 N	
Long.             77.2 E	
Depth (Km)         10.0
Magnitude         2.5
 Region           DELHI                                                            
 Above details taken from IMD 
     
Station Code      VCD
Station Lat.       28.589  N
Station Long.      77.168  E
Station Height(m)  272.0
Site Class        C   Vs30 between 200 m/sec to 375 m/sec *  
Record Time       11.11.2013 20:29:07.929
Sampling Rate     200. Hz
 Record Duration   80.110 Sec.
 Direction         E-W (E positive)
Max. Acceleration     -1.759 cm/sec**2
     
  * For reference see Site Classification link of website 
     
 Base Line Corrected and Low Pass Filtered (Cut Off at 35 Hz) Time History
 Acceleration data in cm/sec**2
    
[...]
       0.019
       0.033
       0.053
       0.075
       0.089
       0.082
       0.053
       0.011
      -0.030
      -0.059
      -0.076
      -0.078
      -0.062
      -0.026
       0.021
       0.062
       0.083
       0.081
       0.066
       0.049
       0.034
       0.020
       0.004
      -0.009
      -0.017
      -0.018
      -0.015
      -0.014
      -0.018
      -0.025
      -0.031
      -0.032
      -0.024
      -0.008
       0.012
       0.031
       0.046
       0.057
       0.065
       0.067
       0.058
       0.039
       0.013
      -0.009
      -0.021
      -0.022
      -0.018
      -0.014
      -0.010
      -0.005
       0.007
       0.025
       0.045
       0.060
       0.062
       0.048
       0.019
      -0.016
      -0.049
      -0.065
      -0.059
      -0.034
      -0.001
       0.029
       0.049
       0.060
       0.063
       0.056
       0.034
      -0.004
      -0.049
      -0.083
      -0.087
      -0.052
       0.016
       0.094
       0.154
       0.177
       0.155
       0.099
       0.025
      -0.046
      -0.099
      -0.128
      -0.131
      -0.112
      -0.072
      -0.014
       0.053
       0.112
       0.150
       0.159
       0.143
       0.106
       0.052
      -0.013
      -0.079
      -0.132
      -0.157
      -0.147
      -0.108
      -0.053
       0.006
       0.066
       0.124
       0.172
       0.194
       0.180
       0.128
       0.052
      -0.027
      -0.090
      -0.126
      -0.138
      -0.129
      -0.103
      -0.062
      -0.007
       0.055
       0.112
       0.151
       0.163
       0.149
       0.115
       0.069
       0.017
      -0.038
      -0.087
      -0.119
      -0.122
      -0.094
      -0.043
       0.014
       0.060
       0.089
       0.099
       0.092
       0.069
       0.032
      -0.012
      -0.051
      -0.075
      -0.080
      -0.064
      -0.036
      -0.005
       0.023
       0.046
       0.063
       0.075
       0.076
       0.063
       0.038
       0.006
      -0.025
      -0.048
      -0.057
      -0.046
      -0.015
       0.025
       0.060
       0.078
       0.077
       0.065
       0.050
       0.037
       0.022
       0.003
      -0.020
      -0.045
      -0.069
      -0.089
      -0.099
      -0.094
      -0.070
      -0.031
       0.014
       0.056
       0.090
       0.114
       0.127
       0.126
       0.106
       0.064
       0.005
      -0.060
      -0.112
      -0.141
      -0.139
      -0.108
      -0.053
       0.012
       0.073
       0.115
       0.131
       0.123
       0.099
       0.068
       0.035
       0.001
      -0.032
      -0.058
      -0.073
      -0.074
      -0.059
      -0.030
       0.008
       0.041
       0.060
       0.061
       0.049
       0.034
       0.016
      -0.005
      -0.027
      -0.042
      -0.043
      -0.029
      -0.005
       0.016
       0.031
       0.037
       0.037
       0.031
       0.019
       0.002
      -0.017
      -0.032
      -0.037
      -0.029
      -0.015
      -0.001
       0.007
       0.008
       0.008
       0.013
       0.025
       0.042
       0.054
       0.055
       0.039
       0.012
      -0.019
      -0.047
      -0.066
      -0.072
      -0.066
      -0.047
      -0.021
       0.008
       0.038
       0.067
       0.092
       0.107
       0.099
       0.065
       0.012
      -0.043
      -0.080
      -0.087
      -0.068
      -0.038
      -0.009
       0.014
       0.031
       0.042
       0.048
       0.042
       0.026
       0.005
      -0.014
      -0.024
      -0.023
      -0.015
      -0.004
       0.005
       0.010
       0.008
       0.000
      -0.008
      -0.012
      -0.011
      -0.008
      -0.008
      -0.011
      -0.012
      -0.007
       0.005
       0.016
       0.020
       0.019
       0.019
       0.025
       0.032
       0.037
       0.034
       0.024
       0.009
      -0.009
      -0.027
      -0.038
      -0.035
      -0.016
       0.010
       0.032
       0.043
       0.042
       0.033
       0.021
       0.010
       0.002
       0.000
      -0.001
      -0.006
      -0.018
      -0.035
      -0.045
      -0.040
      -0.020
       0.006
       0.028
       0.040
       0.040
       0.032
       0.024
       0.018
       0.018
       0.023
       0.030
       0.035
       0.032
       0.020
       0.002
      -0.015
      -0.029
      -0.039
      -0.049
      -0.058
      -0.065
      -0.061
      -0.041
      -0.001
       0.052
       0.102
       0.126
       0.111
       0.057
      -0.014
      -0.077
      -0.112
      -0.114
      -0.091
      -0.058
      -0.025
       0.007
       0.042
       0.082
       0.116
       0.128
       0.110
       0.067
       0.011
      -0.044
      -0.090
      -0.118
      -0.124
      -0.104
      -0.063
      -0.012
       0.036
       0.073
       0.096
       0.104
       0.095
       0.066
       0.019
      -0.031
      -0.067
      -0.079
      -0.067
      -0.041
      -0.012
       0.011
       0.027
       0.039
       0.048
       0.052
       0.048
       0.034
       0.015
      -0.003
      -0.016
      -0.025
      -0.033
      -0.039
      -0.036
      -0.020
       0.008
       0.034
       0.047
       0.043
       0.031
       0.019
       0.009
      -0.005
      -0.025
      -0.045
      -0.054
      -0.040
      -0.007
       0.033
       0.063
       0.074
       0.064
       0.037
       0.001
      -0.032
      -0.055
      -0.065
      -0.061
      -0.047
      -0.023
       0.007
       0.038
       0.058
       0.058
       0.043
       0.023
       0.009
       0.000
      -0.009
      -0.018
      -0.026
      -0.028
      -0.024
      -0.014
       0.001
       0.016
       0.027
       0.029
       0.024
       0.019
       0.024
       0.036
       0.041
       0.027
      -0.002
      -0.030
      -0.043
      -0.040
      -0.033
      -0.033
      -0.038
      -0.041
      -0.030
      -0.004
       0.027
       0.053
       0.064
       0.063
       0.052
       0.035
       0.014
      -0.006
      -0.021
      -0.030
      -0.034
      -0.034
      -0.029
      -0.016
       0.002
       0.019
       0.027
       0.029
       0.028
       0.029
       0.029
       0.022
       0.006
      -0.011
      -0.021
      -0.021
      -0.015
      -0.006
       0.006
       0.019
       0.028
       0.030
       0.020
       0.005
      -0.003
      -0.001
       0.007
       0.009
       0.003
      -0.004
       0.000
       0.013
       0.027
       0.033
       0.027
       0.016
       0.003
      -0.006
      -0.011
      -0.016
      -0.021
      -0.024
      -0.020
      -0.012
      -0.002
       0.005
       0.012
       0.022
       0.037
       0.050
       0.053
       0.043
       0.025
       0.007
      -0.003
      -0.004
      -0.004
      -0.010
      -0.024
      -0.040
      -0.052
      -0.050
      -0.031
       0.001
       0.034
       0.058
       0.069
       0.070
       0.065
       0.056
       0.037
       0.004
      -0.035
      -0.067
      -0.080
      -0.074
      -0.058
      -0.041
      -0.022
       0.004
       0.038
       0.069
       0.082
       0.070
       0.044
       0.018
      -0.001
      -0.017
      -0.038
      -0.060
      -0.076
      -0.076
      -0.058
      -0.025
       0.016
       0.057
       0.086
       0.094
       0.077
       0.041
      -0.005
      -0.045
      -0.071
      -0.081
      -0.074
      -0.053
      -0.025
       0.003
       0.027
       0.049
       0.067
       0.074
       0.058
       0.014
      -0.038
      -0.062
      -0.038
       0.015
       0.040
       0.001
      -0.077
      -0.118
      -0.068
       0.041
       0.115
       0.089
      -0.009
      -0.085
      -0.072
       0.010
       0.083
       0.093
       0.053
       0.016
       0.008
       0.009
      -0.010
      -0.045
      -0.062
      -0.039
       0.007
       0.032
       0.012
      -0.029
      -0.036
       0.014
       0.085
       0.111
       0.060
      -0.035
      -0.095
      -0.067
       0.021
       0.086
       0.070
      -0.004
      -0.052
      -0.007
       0.116
       0.222
       0.203
       0.034
      -0.194
      -0.338
      -0.304
      -0.114
       0.118
       0.265
       0.257
       0.112
      -0.073
      -0.172
      -0.098
       0.121
       0.329
       0.338
       0.083
      -0.294
      -0.532
      -0.451
      -0.102
       0.268
       0.406
       0.251
      -0.027
      -0.186
      -0.121
       0.058
       0.155
       0.089
      -0.040
      -0.081
       0.003
       0.110
       0.128
       0.051
      -0.036
      -0.054
      -0.011
       0.028
       0.012
      -0.057
      -0.141
      -0.201
      -0.204
      -0.128
       0.018
       0.191
       0.328
       0.382
       0.334
       0.189
      -0.027
      -0.258
      -0.415
      -0.402
      -0.196
       0.097
       0.289
       0.252
       0.026
      -0.213
      -0.276
      -0.100
       0.211
       0.449
       0.441
       0.167
      -0.224
      -0.502
      -0.505
      -0.245
       0.112
       0.372
       0.426
       0.286
       0.049
      -0.149
      -0.203
      -0.109
       0.016
       0.031
      -0.083
      -0.194
      -0.153
       0.037
       0.209
       0.198
       0.015
      -0.157
      -0.142
       0.050
       0.253
       0.315
       0.233
       0.096
      -0.048
      -0.220
      -0.407
      -0.498
      -0.371
      -0.031
       0.357
       0.597
       0.576
       0.311
      -0.063
      -0.361
      -0.431
      -0.268
      -0.026
       0.096
       0.026
      -0.123
      -0.161
      -0.005
       0.236
       0.366
       0.278
       0.048
      -0.152
      -0.199
      -0.106
       0.004
       0.004
      -0.125
      -0.264
      -0.244
      -0.012
       0.295
       0.457
       0.365
       0.117
      -0.091
      -0.141
      -0.079
      -0.034
      -0.077
      -0.155
      -0.164
      -0.069
       0.061
       0.134
       0.116
       0.050
       0.006
       0.015
       0.046
       0.044
      -0.017
      -0.108
      -0.154
      -0.093
       0.058
       0.195
       0.194
       0.033
      -0.178
      -0.265
      -0.135
       0.133
       0.326
       0.273
      -0.004
      -0.293
      -0.376
      -0.199
       0.111
       0.358
       0.403
       0.243
      -0.008
      -0.218
      -0.314
      -0.298
      -0.193
      -0.030
       0.150
       0.277
       0.281
       0.136
      -0.097
      -0.285
      -0.315
      -0.170
       0.059
       0.250
       0.325
       0.267
       0.104
      -0.107
      -0.296
      -0.379
      -0.296
      -0.062
       0.202
       0.343
       0.285
       0.077
      -0.153
      -0.274
      -0.228
      -0.053
       0.143
       0.248
       0.205
       0.054
      -0.091
      -0.123
      -0.027
       0.096
       0.117
      -0.008
      -0.202
      -0.319
      -0.247
      -0.002
       0.264
       0.370
       0.255
       0.020
      -0.161
      -0.191
      -0.106
      -0.022
      -0.010
      -0.045
      -0.047
       0.031
       0.160
       0.248
       0.202
      -0.002
      -0.274
      -0.436
      -0.343
      -0.022
       0.307
       0.394
       0.189
      -0.109
      -0.240
      -0.132
       0.044
       0.078
      -0.060
      -0.195
      -0.155
       0.049
       0.226
       0.206
      -0.001
      -0.216
      -0.259
      -0.098
       0.148
       0.303
       0.266
       0.078
      -0.113
      -0.174
      -0.082
       0.065
       0.135
       0.061
      -0.107
      -0.241
      -0.222
      -0.036
       0.178
       0.224
       0.040
      -0.207
      -0.263
      -0.041
       0.280
       0.409
       0.202
      -0.193
      -0.454
      -0.355
       0.041
       0.445
       0.577
       0.359
      -0.071
      -0.458
      -0.581
      -0.394
      -0.062
       0.174
       0.197
       0.089
       0.010
       0.045
       0.147
       0.200
       0.130
      -0.026
      -0.147
      -0.138
      -0.021
       0.096
       0.109
      -0.006
      -0.172
      -0.261
      -0.179
       0.048
       0.266
       0.296
       0.081
      -0.236
      -0.409
      -0.277
       0.088
       0.426
       0.488
       0.230
      -0.155
      -0.387
      -0.316
      -0.034
       0.233
       0.323
       0.245
       0.110
       0.022
       0.014
       0.053
       0.077
       0.038
      -0.071
      -0.226
      -0.385
      -0.506
      -0.542
      -0.448
      -0.218
       0.082
       0.322
       0.406
       0.350
       0.258
       0.198
       0.129
      -0.040
      -0.315
      -0.557
      -0.586
      -0.328
       0.111
       0.524
       0.732
       0.677
       0.420
       0.082
      -0.179
      -0.213
       0.028
       0.403
       0.642
       0.529
       0.055
      -0.571
      -1.044
      -1.128
      -0.795
      -0.228
       0.296
       0.562
       0.492
       0.152
      -0.263
      -0.493
      -0.373
       0.016
       0.380
       0.424
       0.078
      -0.468
      -0.888
      -0.903
      -0.428
       0.352
       1.038
       1.232
       0.788
      -0.065
      -0.842
      -1.101
      -0.694
       0.177
       1.089
       1.605
       1.461
       0.689
      -0.373
      -1.219
      -1.434
      -0.900
       0.130
       1.147
       1.617
       1.251
       0.190
      -1.029
      -1.759
      -1.654
      -0.908
      -0.108
       0.205
      -0.061
      -0.514
      -0.609
      -0.079
       0.848
       1.600
       1.672
       0.993
      -0.015
      -0.728
      -0.753
      -0.190
       0.466
       0.687
       0.275
      -0.540
      -1.290
      -1.573
      -1.280
      -0.612
       0.092
       0.590
       0.839
       0.907
       0.803
       0.470
      -0.074
      -0.611
      -0.804
      -0.438
       0.358
       1.163
       1.525
       1.250
       0.459
      -0.531
      -1.358
      -1.709
      -1.432
      -0.659
       0.225
       0.812
       0.935
       0.718
       0.403
       0.132
      -0.125
      -0.433
      -0.719
      -0.752
      -0.324
       0.513
       1.358
       1.657
       1.105
      -0.064
      -1.207
      -1.729
      -1.449
      -0.604
       0.380
       1.094
       1.253
       0.809
      -0.004
      -0.772
      -1.112
      -0.885
      -0.280
       0.294
       0.473
       0.201
      -0.243
      -0.485
      -0.329
       0.134
       0.614
       0.767
       0.408
      -0.303
      -0.863
      -0.766
       0.042
       1.002
       1.319
       0.651
      -0.524
      -1.285
      -1.086
      -0.224
       0.540
       0.731
       0.492
       0.250
       0.211
       0.241
       0.138
      -0.080
      -0.190
      -0.045
       0.210
       0.248
      -0.113
      -0.697
      -1.106
      -1.047
      -0.529
       0.215
       0.894
       1.254
       1.126
       0.518
      -0.323
      -0.998
      -1.186
      -0.866
      -0.315
       0.127
       0.324
       0.385
       0.459
       0.545
       0.514
       0.264
      -0.146
      -0.511
      -0.594
      -0.278
       0.330
       0.919
       1.122
       0.736
      -0.111
      -0.976
      -1.348
      -0.986
      -0.114
       0.710
       0.970
       0.540
      -0.252
      -0.887
      -1.009
      -0.605
       0.040
       0.540
       0.643
       0.376
      -0.003
      -0.221
      -0.189
      -0.005
       0.174
       0.243
       0.164
      -0.038
      -0.254
      -0.297
      -0.029
       0.463
       0.862
       0.859
       0.393
      -0.319
      -0.941
      -1.197
      -0.982
      -0.394
       0.318
       0.872
       1.054
       0.787
       0.188
      -0.428
      -0.707
      -0.526
      -0.115
       0.158
       0.133
      -0.035
      -0.104
      -0.010
       0.129
       0.211
       0.266
       0.348
       0.394
       0.255
      -0.119
      -0.581
      -0.886
      -0.885
      -0.587
      -0.116
       0.356
       0.641
       0.620
       0.361
       0.086
      -0.015
       0.046
       0.109
       0.064
      -0.053
      -0.130
      -0.116
      -0.061
      -0.073
      -0.222
      -0.456
      -0.588
      -0.446
      -0.049
       0.368
       0.554
       0.443
       0.184
       0.013
       0.073
       0.305
       0.491
       0.428
       0.110
      -0.252
      -0.403
      -0.262
       0.009
       0.162
       0.092
      -0.092
      -0.197
      -0.152
      -0.054
      -0.039
      -0.121
      -0.196
      -0.177
      -0.099
      -0.036
       0.020
       0.144
       0.332
       0.450
       0.349
       0.017
      -0.396
      -0.679
      -0.683
      -0.402
       0.045
       0.493
       0.790
       0.828
       0.564
       0.076
      -0.424
      -0.695
      -0.614
      -0.257
       0.159
       0.418
       0.429
       0.261
       0.057
      -0.090
      -0.191
      -0.278
      -0.315
      -0.243
      -0.065
       0.147
       0.340
       0.504
       0.594
       0.478
       0.054
      -0.561
      -1.005
      -0.925
      -0.321
       0.403
       0.777
       0.652
       0.257
      -0.089
      -0.258
      -0.334
      -0.412
      -0.455
      -0.347
      -0.055
       0.316
       0.587
       0.618
       0.397
       0.059
      -0.201
      -0.274
      -0.197
      -0.091
      -0.038
      -0.020
       0.026
       0.102
       0.103
      -0.059
      -0.298
      -0.386
      -0.193
       0.146
       0.352
       0.277
       0.053
      -0.055
       0.078
       0.332
       0.467
       0.329
      -0.030
      -0.408
      -0.603
      -0.547
      -0.328
      -0.078
       0.127
       0.280
       0.367
       0.346
       0.202
      -0.006
      -0.177
      -0.251
      -0.234
      -0.164
      -0.072
       0.016
       0.078
       0.119
       0.175
       0.266
       0.335
       0.268
       0.018
      -0.313
      -0.543
      -0.572
      -0.458
      -0.311
      -0.165
       0.016
       0.254
       0.500
       0.660
       0.648
       0.435
       0.078
      -0.292
      -0.520
      -0.508
      -0.258
       0.116
       0.437
       0.537
       0.345
      -0.059
      -0.456
      -0.593
      -0.366
       0.062
       0.371
       0.355
       0.091
      -0.155
      -0.171
       0.033
       0.256
       0.292
       0.089
      -0.217
      -0.405
      -0.339
      -0.082
       0.162
       0.217
       0.063
      -0.179
      -0.360
      -0.385
      -0.227
       0.070
       0.400
       0.622
       0.636
       0.451
       0.163
      -0.117
      -0.313
      -0.393
      -0.351
      -0.224
      -0.093
      -0.035
      -0.052
      -0.063
       0.009
       0.142
       0.225
       0.180
       0.043
      -0.083
      -0.129
      -0.087
       0.022
       0.153
       0.230
       0.185
       0.026
      -0.156
      -0.258
      -0.237
      -0.121
       0.026
       0.134
       0.160
       0.109
       0.044
       0.052
       0.164
       0.305
       0.329
       0.146
      -0.177
      -0.442
      -0.476
      -0.267
       0.045
       0.297
       0.411
       0.391
