Origin Time       11/11/2013 20:25:02
Lat.              28.4 N	
Long.             77.2 E	
Depth (Km)         10.0
Magnitude         2.5
 Region           DELHI                                                            
 Above details taken from IMD 
   
Station Code      VCD
Station Lat.       28.589
Station Long.      77.168
Station Height(m)  272.0
Site Class        C   Vs30 between 200 m/sec to 375 m/sec *  
Record Time       11.11.2013 20:29:07.929
Sampling Rate     200. Hz
 Record Duration   80.110 Sec.
 Direction         Vert. (Up positive)
Max. Acceleration     -1.759 cm/sec**2
     
  * For reference see Site Classification link of website 
     
 Base Line Corrected and Low Pass Filtered (Cut Off at 35 Hz) Time History
 Acceleration data in cm/sec**2
    
[...]
      -0.002
       0.004
       0.006
       0.008
       0.011
       0.013
       0.012
       0.005
      -0.004
      -0.013
      -0.015
      -0.010
       0.003
       0.021
       0.039
       0.045
       0.033
       0.003
      -0.035
      -0.066
      -0.077
      -0.068
      -0.045
      -0.021
      -0.002
       0.013
       0.029
       0.046
       0.059
       0.062
       0.052
       0.032
       0.006
      -0.020
      -0.039
      -0.049
      -0.050
      -0.046
      -0.040
      -0.031
      -0.017
       0.000
       0.016
       0.027
       0.035
       0.042
       0.049
       0.052
       0.043
       0.022
      -0.002
      -0.020
      -0.028
      -0.029
      -0.030
      -0.033
      -0.034
      -0.030
      -0.016
       0.003
       0.023
       0.037
       0.044
       0.043
       0.035
       0.020
       0.001
      -0.022
      -0.043
      -0.057
      -0.057
      -0.045
      -0.028
      -0.014
      -0.006
       0.000
       0.008
       0.018
       0.026
       0.029
       0.027
       0.022
       0.012
      -0.003
      -0.020
      -0.036
      -0.047
      -0.050
      -0.046
      -0.036
      -0.020
      -0.003
       0.010
       0.015
       0.015
       0.014
       0.015
       0.016
       0.014
       0.011
       0.010
       0.016
       0.026
       0.031
       0.025
       0.007
      -0.018
      -0.040
      -0.053
      -0.056
      -0.049
      -0.037
      -0.023
      -0.008
       0.009
       0.029
       0.050
       0.067
       0.075
       0.068
       0.048
       0.017
      -0.020
      -0.057
      -0.089
      -0.110
      -0.112
      -0.091
      -0.047
       0.006
       0.051
       0.079
       0.089
       0.087
       0.074
       0.051
       0.017
      -0.024
      -0.064
      -0.093
      -0.107
      -0.107
      -0.092
      -0.062
      -0.021
       0.025
       0.063
       0.086
       0.091
       0.081
       0.059
       0.031
       0.002
      -0.024
      -0.042
      -0.052
      -0.055
      -0.055
      -0.053
      -0.046
      -0.032
      -0.010
       0.012
       0.027
       0.032
       0.027
       0.020
       0.016
       0.016
       0.016
       0.014
       0.008
       0.002
      -0.004
      -0.008
      -0.012
      -0.019
      -0.026
      -0.033
      -0.040
      -0.045
      -0.044
      -0.036
      -0.019
       0.006
       0.032
       0.054
       0.066
       0.067
       0.057
       0.041
       0.020
      -0.005
      -0.030
      -0.051
      -0.066
      -0.070
      -0.065
      -0.053
      -0.037
      -0.022
      -0.007
       0.008
       0.027
       0.049
       0.071
       0.086
       0.084
       0.062
       0.024
      -0.019
      -0.055
      -0.079
      -0.087
      -0.079
      -0.058
      -0.029
       0.002
       0.029
       0.048
       0.059
       0.063
       0.061
       0.051
       0.035
       0.013
      -0.009
      -0.029
      -0.045
      -0.053
      -0.049
      -0.032
      -0.009
       0.013
       0.023
       0.018
       0.005
      -0.008
      -0.012
      -0.002
       0.013
       0.025
       0.027
       0.019
       0.011
       0.007
       0.007
       0.005
      -0.004
      -0.018
      -0.033
      -0.040
      -0.040
      -0.037
      -0.036
      -0.033
      -0.024
      -0.007
       0.013
       0.027
       0.029
       0.025
       0.022
       0.025
       0.028
       0.025
       0.015
       0.000
      -0.015
      -0.031
      -0.047
      -0.061
      -0.065
      -0.054
      -0.028
       0.007
       0.039
       0.060
       0.066
       0.054
       0.031
       0.004
      -0.015
      -0.022
      -0.022
      -0.023
      -0.031
      -0.041
      -0.047
      -0.043
      -0.031
      -0.014
       0.005
       0.021
       0.031
       0.033
       0.028
       0.020
       0.012
       0.007
       0.002
      -0.005
      -0.014
      -0.022
      -0.027
      -0.027
      -0.023
      -0.016
      -0.007
       0.001
       0.005
       0.005
      -0.001
      -0.009
      -0.015
      -0.015
      -0.008
       0.003
       0.012
       0.016
       0.016
       0.012
       0.006
      -0.001
      -0.007
      -0.012
      -0.013
      -0.011
      -0.009
      -0.008
      -0.010
      -0.009
      -0.003
       0.010
       0.025
       0.036
       0.038
       0.029
       0.014
      -0.004
      -0.022
      -0.038
      -0.049
      -0.051
      -0.042
      -0.024
      -0.004
       0.009
       0.013
       0.012
       0.012
       0.016
       0.024
       0.029
       0.027
       0.020
       0.010
       0.000
      -0.009
      -0.017
      -0.027
      -0.038
      -0.047
      -0.049
      -0.042
      -0.026
      -0.001
       0.026
       0.049
       0.059
       0.051
       0.025
      -0.007
      -0.033
      -0.045
      -0.045
      -0.038
      -0.032
      -0.028
      -0.023
      -0.010
       0.014
       0.044
       0.071
       0.082
       0.071
       0.039
      -0.003
      -0.043
      -0.072
      -0.082
      -0.075
      -0.053
      -0.026
      -0.002
       0.015
       0.029
       0.040
       0.049
       0.050
       0.039
       0.016
      -0.010
      -0.030
      -0.039
      -0.037
      -0.029
      -0.019
      -0.010
      -0.002
       0.008
       0.021
       0.033
       0.039
       0.033
       0.015
      -0.010
      -0.031
      -0.043
      -0.042
      -0.032
      -0.016
       0.000
       0.013
       0.017
       0.013
       0.002
      -0.009
      -0.015
      -0.012
      -0.002
       0.010
       0.016
       0.016
       0.012
       0.010
       0.012
       0.014
       0.011
      -0.003
      -0.021
      -0.034
      -0.036
      -0.028
      -0.019
      -0.014
      -0.011
      -0.006
       0.000
       0.006
       0.009
       0.010
       0.013
       0.017
       0.020
       0.016
       0.004
      -0.011
      -0.023
      -0.030
      -0.031
      -0.028
      -0.020
      -0.010
      -0.001
       0.006
       0.009
       0.013
       0.018
       0.023
       0.023
       0.017
       0.005
      -0.009
      -0.020
      -0.028
      -0.030
      -0.030
      -0.028
      -0.025
      -0.017
      -0.003
       0.013
       0.026
       0.028
       0.021
       0.007
      -0.005
      -0.014
      -0.017
      -0.017
      -0.014
      -0.008
       0.000
       0.004
       0.002
      -0.003
      -0.005
      -0.001
       0.008
       0.016
       0.021
       0.021
       0.016
       0.005
      -0.009
      -0.021
      -0.025
      -0.019
      -0.008
       0.002
       0.005
       0.000
      -0.007
      -0.010
      -0.007
      -0.003
       0.000
       0.002
       0.003
       0.005
       0.006
       0.005
       0.003
       0.000
      -0.002
       0.000
       0.006
       0.014
       0.019
       0.015
       0.001
      -0.016
      -0.027
      -0.026
      -0.018
      -0.007
       0.000
       0.005
       0.011
       0.019
       0.025
       0.025
       0.018
       0.009
       0.002
      -0.001
      -0.002
      -0.004
      -0.008
      -0.013
      -0.015
      -0.013
      -0.008
       0.002
       0.013
       0.024
       0.029
       0.025
       0.013
      -0.002
      -0.014
      -0.019
      -0.019
      -0.015
      -0.009
      -0.003
      -0.001
      -0.001
       0.000
       0.003
       0.009
       0.013
       0.010
       0.001
      -0.008
      -0.010
      -0.002
       0.008
       0.013
       0.008
      -0.002
      -0.010
      -0.013
      -0.010
      -0.004
       0.002
       0.008
       0.015
       0.020
       0.021
       0.012
      -0.005
      -0.024
      -0.035
      -0.034
      -0.023
      -0.011
      -0.004
       0.003
       0.020
       0.046
       0.068
       0.064
       0.025
      -0.028
      -0.059
      -0.047
      -0.008
       0.011
      -0.021
      -0.082
      -0.107
      -0.047
       0.070
       0.155
       0.136
       0.028
      -0.079
      -0.102
      -0.037
       0.051
       0.097
       0.091
       0.064
       0.037
       0.003
      -0.041
      -0.068
      -0.044
       0.019
       0.053
      -0.003
      -0.136
      -0.252
      -0.249
      -0.098
       0.129
       0.306
       0.335
       0.206
       0.002
      -0.150
      -0.172
      -0.088
       0.010
       0.039
      -0.002
      -0.051
      -0.053
      -0.014
       0.019
       0.024
       0.027
       0.059
       0.102
       0.104
       0.037
      -0.061
      -0.128
      -0.137
      -0.105
      -0.053
       0.031
       0.153
       0.258
       0.243
       0.056
      -0.212
      -0.370
      -0.285
      -0.013
       0.231
       0.255
       0.058
      -0.179
      -0.247
      -0.088
       0.171
       0.334
       0.294
       0.106
      -0.087
      -0.181
      -0.179
      -0.146
      -0.119
      -0.075
       0.020
       0.132
       0.174
       0.092
      -0.064
      -0.173
      -0.145
       0.003
       0.162
       0.221
       0.147
       0.003
      -0.106
      -0.116
      -0.044
       0.038
       0.055
      -0.008
      -0.093
      -0.118
      -0.044
       0.089
       0.187
       0.174
       0.031
      -0.178
      -0.340
      -0.340
      -0.143
       0.158
       0.384
       0.390
       0.189
      -0.056
      -0.164
      -0.092
       0.042
       0.087
      -0.006
      -0.159
      -0.246
      -0.197
      -0.035
       0.148
       0.257
       0.245
       0.142
       0.024
      -0.058
      -0.116
      -0.182
      -0.247
      -0.239
      -0.101
       0.121
       0.293
       0.308
       0.187
       0.048
      -0.022
      -0.041
      -0.080
      -0.153
      -0.188
      -0.113
       0.048
       0.185
       0.201
       0.093
      -0.052
      -0.128
      -0.084
       0.048
       0.172
       0.190
       0.071
      -0.113
      -0.229
      -0.204
      -0.085
       0.009
       0.023
       0.017
       0.079
       0.196
       0.244
       0.117
      -0.150
      -0.380
      -0.395
      -0.166
       0.157
       0.364
       0.341
       0.138
      -0.084
      -0.181
      -0.122
       0.018
       0.122
       0.122
       0.034
      -0.074
      -0.137
      -0.135
      -0.086
      -0.027
       0.005
      -0.003
      -0.032
      -0.045
      -0.019
       0.037
       0.089
       0.106
       0.081
       0.026
      -0.036
      -0.084
      -0.099
      -0.071
      -0.001
       0.096
       0.182
       0.196
       0.092
      -0.100
      -0.260
      -0.263
      -0.096
       0.119
       0.227
       0.173
       0.029
      -0.089
      -0.127
      -0.111
      -0.082
      -0.053
      -0.019
       0.007
       0.003
      -0.035
      -0.082
      -0.100
      -0.061
       0.039
       0.161
       0.232
       0.192
       0.056
      -0.089
      -0.144
      -0.083
       0.033
       0.114
       0.117
       0.063
       0.000
      -0.041
      -0.052
      -0.048
      -0.052
      -0.074
      -0.097
      -0.081
      -0.010
       0.083
       0.129
       0.089
      -0.002
      -0.061
      -0.042
       0.019
       0.030
      -0.058
      -0.188
      -0.229
      -0.103
       0.129
       0.298
       0.270
       0.059
      -0.177
      -0.265
      -0.144
       0.094
       0.269
       0.249
       0.055
      -0.152
      -0.195
      -0.029
       0.215
       0.332
       0.211
      -0.080
      -0.351
      -0.432
      -0.293
      -0.041
       0.173
       0.256
       0.215
       0.115
       0.002
      -0.122
      -0.255
      -0.337
      -0.262
       0.011
       0.364
       0.563
       0.438
       0.052
      -0.330
      -0.451
      -0.256
       0.078
       0.303
       0.283
       0.077
      -0.139
      -0.201
      -0.076
       0.129
       0.247
       0.171
      -0.064
      -0.304
      -0.378
      -0.224
       0.057
       0.273
       0.291
       0.138
      -0.040
      -0.104
      -0.036
       0.072
       0.109
       0.044
      -0.055
      -0.090
      -0.023
       0.092
       0.159
       0.120
      -0.003
      -0.127
      -0.171
      -0.116
      -0.022
       0.029
       0.012
      -0.023
      -0.004
       0.078
       0.161
       0.163
       0.061
      -0.085
      -0.177
      -0.160
      -0.053
       0.075
       0.152
       0.136
       0.030
      -0.113
      -0.203
      -0.162
       0.002
       0.177
       0.228
       0.117
      -0.046
      -0.095
       0.035
       0.232
       0.292
       0.108
      -0.218
      -0.447
      -0.400
      -0.101
       0.249
       0.434
       0.366
       0.117
      -0.158
      -0.332
      -0.364
      -0.287
      -0.152
       0.012
       0.183
       0.323
       0.383
       0.338
       0.213
       0.056
      -0.104
      -0.262
      -0.416
      -0.522
      -0.500
      -0.284
       0.103
       0.524
       0.781
       0.737
       0.400
      -0.082
      -0.503
      -0.700
      -0.610
      -0.281
       0.142
       0.458
       0.500
       0.256
      -0.091
      -0.275
      -0.140
       0.228
       0.555
       0.579
       0.231
      -0.326
      -0.800
      -0.923
      -0.578
       0.107
       0.774
       0.991
       0.543
      -0.355
      -1.121
      -1.180
      -0.405
       0.732
       1.448
       1.208
       0.122
      -1.124
      -1.759
      -1.447
      -0.447
       0.636
       1.273
       1.287
       0.846
       0.264
      -0.202
      -0.429
      -0.384
      -0.107
       0.256
       0.458
       0.288
      -0.219
      -0.736
      -0.844
      -0.375
       0.407
       0.970
       0.911
       0.250
      -0.592
      -1.096
      -0.979
      -0.352
       0.377
       0.776
       0.659
       0.189
      -0.260
      -0.399
      -0.221
       0.031
       0.112
      -0.009
      -0.127
      -0.007
       0.384
       0.802
       0.908
       0.553
      -0.084
      -0.633
      -0.804
      -0.588
      -0.210
       0.081
       0.199
       0.222
       0.235
       0.186
      -0.063
      -0.537
      -1.000
      -1.075
      -0.563
       0.315
       1.037
       1.172
       0.726
       0.116
      -0.191
      -0.056
       0.269
       0.382
       0.078
      -0.489
      -0.918
      -0.852
      -0.241
       0.586
       1.108
       0.958
       0.193
      -0.717
      -1.207
      -0.997
      -0.249
       0.594
       1.105
       1.089
       0.606
      -0.100
      -0.714
      -0.974
      -0.787
      -0.277
       0.291
       0.658
       0.710
       0.497
       0.147
      -0.208
      -0.429
      -0.386
      -0.071
       0.318
       0.482
       0.281
      -0.111
      -0.341
      -0.205
       0.156
       0.378
       0.202
      -0.302
      -0.801
      -0.968
      -0.703
      -0.153
       0.426
       0.800
       0.824
       0.475
      -0.109
      -0.651
      -0.865
      -0.641
      -0.119
       0.419
       0.733
       0.737
       0.485
       0.102
      -0.250
      -0.390
      -0.212
       0.201
       0.561
       0.571
       0.184
      -0.327
      -0.593
      -0.449
      -0.045
       0.306
       0.373
       0.145
      -0.201
      -0.448
      -0.456
      -0.221
       0.143
       0.440
       0.475
       0.178
      -0.310
      -0.681
      -0.663
      -0.223
       0.383
       0.782
       0.732
       0.287
      -0.243
      -0.508
      -0.355
       0.074
       0.461
       0.528
       0.230
      -0.232
      -0.542
      -0.494
      -0.144
       0.216
       0.286
       0.006
      -0.377
      -0.509
      -0.243
       0.235
       0.569
       0.537
       0.211
      -0.148
      -0.326
      -0.291
      -0.144
       0.002
       0.108
       0.192
       0.279
       0.337
       0.295
       0.113
      -0.144
      -0.328
      -0.328
      -0.175
      -0.010
       0.042
      -0.022
      -0.116
      -0.154
      -0.107
       0.000
       0.121
       0.207
       0.218
       0.131
      -0.015
      -0.121
      -0.088
       0.069
       0.208
       0.182
      -0.016
      -0.238
      -0.321
      -0.216
      -0.005
       0.190
       0.283
       0.242
       0.077
      -0.156
      -0.355
      -0.403
      -0.242
       0.062
       0.342
       0.432
       0.279
      -0.018
      -0.266
      -0.308
      -0.129
       0.149
       0.368
       0.432
       0.325
       0.076
      -0.247
      -0.525
      -0.606
      -0.396
       0.040
       0.463
       0.610
       0.403
       0.018
      -0.254
      -0.256
      -0.073
       0.075
       0.038
      -0.140
      -0.280
      -0.228
       0.022
       0.322
       0.483
       0.398
       0.099
      -0.262
      -0.490
      -0.433
      -0.088
       0.364
       0.651
       0.605
       0.283
      -0.086
      -0.298
      -0.308
      -0.213
      -0.132
      -0.114
      -0.131
      -0.134
      -0.106
      -0.063
      -0.022
       0.017
       0.056
       0.087
       0.106
       0.130
       0.179
       0.232
       0.225
       0.100
      -0.131
      -0.360
      -0.436
      -0.263
       0.110
       0.494
       0.668
       0.526
       0.155
      -0.228
      -0.437
      -0.428
      -0.286
      -0.122
       0.018
       0.138
       0.228
       0.235
       0.114
      -0.084
      -0.219
      -0.182
      -0.016
       0.124
       0.121
       0.013
      -0.053
       0.024
       0.187
       0.259
       0.116
      -0.173
      -0.387
      -0.339
      -0.060
       0.228
       0.307
       0.149
      -0.081
      -0.186
      -0.107
       0.054
       0.145
       0.098
      -0.035
      -0.138
      -0.133
      -0.029
       0.087
       0.114
       0.022
      -0.116
      -0.178
      -0.104
       0.046
       0.141
       0.100
      -0.023
      -0.094
      -0.020
       0.162
       0.318
       0.320
       0.146
      -0.102
      -0.271
      -0.266
      -0.124
       0.019
       0.040
      -0.063
      -0.165
      -0.122
       0.072
       0.264
       0.266
       0.025
      -0.314
      -0.514
      -0.429
      -0.103
       0.269
       0.478
       0.426
       0.178
      -0.093
      -0.215
      -0.138
       0.034
       0.129
       0.054
      -0.121
      -0.223
      -0.140
       0.069
       0.221
       0.174
      -0.038
      -0.236
      -0.244
      -0.041
       0.232
       0.385
       0.331
       0.132
      -0.066
      -0.156
      -0.136
      -0.092
      -0.104
      -0.172
      -0.213
      -0.139
       0.042
       0.212
       0.237
       0.096
      -0.079
      -0.116
       0.029
       0.210
       0.224
       0.016
      -0.253
      -0.352
      -0.202
       0.046
       0.158
       0.035
      -0.199
      -0.320
      -0.213
       0.047
       0.279
       0.356
       0.271
       0.116
       0.009
       0.023
       0.132
       0.216
       0.152
      -0.071
      -0.307
      -0.366
      -0.190
       0.071
       0.195
       0.079
      -0.171
      -0.351
      -0.325
      -0.108
       0.166
       0.338
       0.318
       0.129
      -0.087
      -0.153
