Origin Time       19/12/2012 22:32:00
Lat.              28.6 N 
Long.             76.8 E 
Depth (Km)         10.0
Magnitude         2.9
 Region           Jhajjar-Haryana                                                  
 Above details taken from IMD 
     
Station Code      VCD
Station Lat.       28.589  N
Station Long.      77.168  E
Station Height(m)  272.0
Site Class        C   Vs30 between 200 m/sec to 375 m/sec *  
Record Time       19.12.2012 22:31:35.894
Sampling Rate     200. Hz
 Record Duration   80.270 Sec.
 Direction         E-W (E positive)
Max. Acceleration      5.564 cm/sec**2
     
  * For reference see Site Classification link of website 
     
 Base Line Corrected and Low Pass Filtered (Cut Off at 35 Hz) Time History
 Acceleration data in cm/sec**2
    
[...]
      -0.018
      -0.021
      -0.020
      -0.012
       0.002
       0.016
       0.025
       0.024
       0.015
       0.005
      -0.002
      -0.003
       0.001
       0.006
       0.013
       0.017
       0.016
       0.009
       0.000
      -0.005
      -0.005
      -0.001
       0.000
      -0.003
      -0.007
      -0.008
      -0.006
      -0.002
      -0.001
      -0.002
      -0.003
      -0.003
       0.000
       0.006
       0.014
       0.020
       0.020
       0.012
       0.000
      -0.010
      -0.011
      -0.006
       0.002
       0.005
       0.003
      -0.004
      -0.011
      -0.013
      -0.011
      -0.007
      -0.002
       0.001
       0.003
       0.005
       0.011
       0.017
       0.021
       0.021
       0.016
       0.008
       0.003
       0.003
       0.006
       0.007
       0.002
      -0.008
      -0.017
      -0.020
      -0.016
      -0.010
      -0.005
      -0.002
       0.001
       0.006
       0.011
       0.013
       0.010
       0.004
      -0.001
      -0.001
       0.001
       0.002
       0.001
      -0.002
      -0.005
      -0.007
      -0.009
      -0.009
      -0.005
       0.001
       0.007
       0.010
       0.008
       0.004
       0.003
       0.009
       0.018
       0.023
       0.019
       0.007
      -0.006
      -0.013
      -0.011
      -0.004
       0.003
       0.008
       0.014
       0.023
       0.030
       0.031
       0.023
       0.010
      -0.001
      -0.006
      -0.004
       0.001
       0.004
       0.001
      -0.005
      -0.009
      -0.009
      -0.005
       0.002
       0.007
       0.011
       0.014
       0.016
       0.016
       0.014
       0.014
       0.015
       0.016
       0.014
       0.010
       0.007
       0.005
       0.004
       0.002
      -0.002
      -0.006
      -0.007
      -0.005
       0.000
       0.004
       0.006
       0.006
       0.003
      -0.002
      -0.009
      -0.015
      -0.016
      -0.012
      -0.003
       0.005
       0.008
       0.005
      -0.003
      -0.007
      -0.005
       0.002
       0.008
       0.008
       0.003
      -0.005
      -0.012
      -0.015
      -0.013
      -0.005
       0.003
       0.008
       0.007
       0.002
      -0.001
       0.001
       0.004
       0.003
      -0.005
      -0.015
      -0.023
      -0.022
      -0.013
      -0.001
       0.007
       0.008
       0.003
      -0.002
      -0.003
       0.001
       0.006
       0.006
       0.001
      -0.005
      -0.007
      -0.005
      -0.002
      -0.003
      -0.007
      -0.008
      -0.004
       0.001
       0.002
      -0.001
      -0.004
      -0.004
       0.002
       0.011
       0.016
       0.016
       0.011
       0.005
       0.000
      -0.003
      -0.006
      -0.005
      -0.001
       0.003
       0.004
       0.001
      -0.003
      -0.004
      -0.001
       0.003
       0.003
      -0.004
      -0.013
      -0.019
      -0.015
      -0.004
       0.009
       0.018
       0.020
       0.017
       0.013
       0.008
       0.004
       0.000
      -0.004
      -0.009
      -0.011
      -0.011
      -0.010
      -0.012
      -0.017
      -0.022
      -0.021
      -0.012
       0.000
       0.009
       0.012
       0.009
       0.000
      -0.009
      -0.015
      -0.016
      -0.011
      -0.005
      -0.001
       0.000
      -0.004
      -0.009
      -0.011
      -0.006
       0.006
       0.016
       0.018
       0.011
       0.000
      -0.005
      -0.002
       0.000
      -0.002
      -0.010
      -0.016
      -0.014
      -0.005
       0.007
       0.015
       0.019
       0.021
       0.021
       0.017
       0.010
       0.001
      -0.006
      -0.011
      -0.011
      -0.009
      -0.007
      -0.008
      -0.010
      -0.011
      -0.007
       0.002
       0.014
       0.022
       0.022
       0.012
       0.000
      -0.008
      -0.007
      -0.001
       0.004
       0.006
       0.004
       0.000
       0.000
       0.002
       0.006
       0.008
       0.006
       0.003
       0.002
       0.006
       0.012
       0.013
       0.004
      -0.013
      -0.028
      -0.030
      -0.018
      -0.001
       0.011
       0.011
       0.003
      -0.003
      -0.001
       0.007
       0.014
       0.013
       0.004
      -0.008
      -0.014
      -0.015
      -0.013
      -0.010
      -0.006
       0.000
       0.005
       0.009
       0.009
       0.006
       0.001
      -0.007
      -0.015
      -0.019
      -0.018
      -0.011
      -0.001
       0.006
       0.009
       0.007
       0.003
      -0.003
      -0.007
      -0.007
      -0.004
       0.001
       0.004
       0.004
       0.002
       0.003
       0.006
       0.009
       0.007
       0.002
      -0.002
      -0.002
       0.002
       0.005
       0.002
      -0.004
      -0.008
      -0.007
      -0.001
       0.006
       0.012
       0.014
       0.014
       0.011
       0.005
      -0.003
      -0.010
      -0.014
      -0.012
      -0.009
      -0.007
      -0.006
      -0.004
      -0.001
       0.002
       0.003
       0.001
       0.002
       0.007
       0.013
       0.014
       0.006
      -0.007
      -0.020
      -0.033
      -0.055
      -0.095
      -0.140
      -0.158
      -0.124
      -0.048
       0.038
       0.115
       0.196
       0.298
       0.390
       0.403
       0.303
       0.142
       0.010
      -0.062
      -0.140
      -0.295
      -0.500
      -0.635
      -0.593
      -0.387
      -0.143
       0.010
       0.053
       0.066
       0.127
       0.229
       0.314
       0.351
       0.346
       0.298
       0.194
       0.060
      -0.022
       0.006
       0.090
       0.095
      -0.067
      -0.329
      -0.504
      -0.451
      -0.209
       0.026
       0.075
      -0.061
      -0.216
      -0.230
      -0.100
       0.039
       0.069
       0.014
       0.005
       0.145
       0.392
       0.579
       0.557
       0.331
       0.055
      -0.116
      -0.160
      -0.178
      -0.251
      -0.335
      -0.312
      -0.152
       0.023
       0.049
      -0.091
      -0.233
      -0.204
      -0.019
       0.131
       0.083
      -0.108
      -0.216
      -0.084
       0.202
       0.391
       0.312
       0.049
      -0.142
      -0.082
       0.162
       0.357
       0.331
       0.136
      -0.031
      -0.040
       0.035
       0.000
      -0.232
      -0.519
      -0.622
      -0.443
      -0.127
       0.085
       0.085
      -0.024
      -0.062
       0.038
       0.186
       0.253
       0.207
       0.132
       0.126
       0.193
       0.236
       0.168
       0.017
      -0.086
      -0.043
       0.095
       0.163
       0.049
      -0.198
      -0.412
      -0.467
      -0.371
      -0.219
      -0.085
       0.041
       0.193
       0.339
       0.364
       0.178
      -0.150
      -0.402
      -0.376
      -0.066
       0.324
       0.528
       0.417
       0.081
      -0.252
      -0.395
      -0.335
      -0.206
      -0.151
      -0.195
      -0.246
      -0.194
      -0.010
       0.235
       0.433
       0.514
       0.469
       0.315
       0.080
      -0.161
      -0.286
      -0.223
      -0.042
       0.081
       0.035
      -0.125
      -0.256
      -0.280
      -0.230
      -0.162
      -0.068
       0.091
       0.294
       0.419
       0.354
       0.124
      -0.109
      -0.188
      -0.098
       0.032
       0.078
       0.032
      -0.029
      -0.051
      -0.063
      -0.124
      -0.230
      -0.293
      -0.226
      -0.061
       0.062
       0.037
      -0.071
      -0.092
       0.066
       0.299
       0.409
       0.296
       0.056
      -0.109
      -0.068
       0.121
       0.259
       0.172
      -0.145
      -0.512
      -0.687
      -0.538
      -0.125
       0.334
       0.600
       0.558
       0.268
      -0.095
      -0.365
      -0.456
      -0.362
      -0.118
       0.204
       0.479
       0.547
       0.334
      -0.054
      -0.364
      -0.384
      -0.117
       0.220
       0.372
       0.257
       0.008
      -0.182
      -0.244
      -0.248
      -0.265
      -0.261
      -0.156
       0.051
       0.232
       0.250
       0.104
      -0.066
      -0.119
      -0.033
       0.103
       0.173
       0.114
      -0.052
      -0.243
      -0.348
      -0.280
      -0.035
       0.280
       0.498
       0.485
       0.230
      -0.126
      -0.371
      -0.360
      -0.114
       0.188
       0.313
       0.133
      -0.247
      -0.534
      -0.466
      -0.060
       0.374
       0.491
       0.227
      -0.132
      -0.220
       0.054
       0.423
       0.535
       0.287
      -0.112
      -0.383
      -0.424
      -0.312
      -0.137
       0.076
       0.275
       0.316
       0.068
      -0.384
      -0.723
      -0.650
      -0.168
       0.388
       0.636
       0.463
       0.093
      -0.148
      -0.109
       0.116
       0.331
       0.402
       0.307
       0.103
      -0.112
      -0.253
      -0.290
      -0.260
      -0.223
      -0.214
      -0.220
      -0.192
      -0.100
       0.031
       0.139
       0.179
       0.145
       0.064
      -0.022
      -0.066
      -0.041
       0.038
       0.107
       0.118
       0.102
       0.154
       0.314
       0.473
       0.442
       0.128
      -0.354
      -0.753
      -0.867
      -0.672
      -0.291
       0.107
       0.389
       0.491
       0.421
       0.250
       0.074
      -0.039
      -0.076
      -0.070
      -0.075
      -0.118
      -0.162
      -0.120
       0.030
       0.181
       0.180
      -0.009
      -0.240
      -0.309
      -0.137
       0.153
       0.350
       0.338
       0.179
       0.031
      -0.016
       0.002
      -0.006
      -0.094
      -0.240
      -0.367
      -0.384
      -0.250
      -0.008
       0.233
       0.367
       0.342
       0.177
      -0.040
      -0.191
      -0.204
      -0.123
      -0.053
      -0.042
      -0.041
       0.036
       0.209
       0.392
       0.439
       0.256
      -0.095
      -0.411
      -0.493
      -0.322
      -0.067
       0.067
      -0.007
      -0.210
      -0.374
      -0.354
      -0.105
       0.290
       0.651
       0.776
       0.566
       0.106
      -0.366
      -0.606
      -0.528
      -0.244
       0.051
       0.221
       0.241
       0.150
       0.002
      -0.124
      -0.128
       0.033
       0.274
       0.398
       0.255
      -0.104
      -0.434
      -0.485
      -0.234
       0.087
       0.202
       0.043
      -0.204
      -0.294
      -0.157
       0.056
       0.148
       0.064
      -0.063
      -0.062
       0.114
       0.342
       0.440
       0.316
       0.050
      -0.170
      -0.211
      -0.090
       0.065
       0.121
      -0.002
      -0.295
      -0.618
      -0.727
      -0.439
       0.154
       0.675
       0.761
       0.392
      -0.084
      -0.256
       0.002
       0.426
       0.598
       0.312
      -0.255
      -0.703
      -0.740
      -0.405
       0.001
       0.176
       0.054
      -0.183
      -0.293
      -0.176
       0.078
       0.307
       0.428
       0.464
       0.452
       0.377
       0.193
      -0.078
      -0.318
      -0.390
      -0.251
      -0.009
       0.141
       0.053
      -0.254
      -0.581
      -0.660
      -0.347
       0.250
       0.797
       0.935
       0.546
      -0.113
      -0.573
      -0.511
      -0.015
       0.503
       0.640
       0.296
      -0.295
      -0.766
      -0.874
      -0.612
      -0.172
       0.199
       0.343
       0.264
       0.105
       0.032
       0.103
       0.235
       0.326
       0.372
       0.425
       0.448
       0.304
      -0.090
      -0.608
      -0.960
      -0.914
      -0.490
       0.040
       0.364
       0.369
       0.197
       0.067
       0.065
       0.108
       0.087
       0.005
      -0.063
      -0.079
      -0.067
      -0.056
      -0.028
       0.052
       0.159
       0.199
       0.093
      -0.130
      -0.344
      -0.443
      -0.425
      -0.347
      -0.228
      -0.050
       0.149
       0.267
       0.245
       0.160
       0.154
       0.277
       0.442
       0.554
       0.607
       0.600
       0.419
      -0.086
      -0.842
      -1.444
      -1.431
      -0.736
       0.165
       0.631
       0.446
       0.012
      -0.063
       0.409
       1.014
       1.170
       0.716
       0.051
      -0.296
      -0.186
       0.035
      -0.060
      -0.534
      -1.048
      -1.218
      -0.944
      -0.419
       0.085
       0.395
       0.480
       0.418
       0.328
       0.302
       0.338
       0.350
       0.246
       0.020
      -0.214
      -0.293
      -0.156
       0.077
       0.199
       0.104
      -0.113
      -0.233
      -0.115
       0.162
       0.351
       0.250
      -0.137
      -0.602
      -0.880
      -0.794
      -0.331
       0.347
       0.948
       1.172
       0.932
       0.451
       0.090
       0.023
       0.105
       0.085
      -0.088
      -0.224
      -0.148
       0.062
       0.142
      -0.067
      -0.474
      -0.859
      -1.078
      -1.120
      -1.027
      -0.799
      -0.367
       0.321
       1.167
       1.847
       1.962
       1.387
       0.507
      -0.017
       0.159
       0.635
       0.532
      -0.700
      -2.662
      -4.242
      -4.553
      -3.684
      -2.504
      -1.755
      -1.337
      -0.523
       1.165
       3.345
       5.044
       5.564
       5.040
       4.166
       3.436
       2.754
       1.767
       0.452
      -0.734
      -1.264
      -1.043
      -0.519
      -0.321
      -0.759
      -1.602
      -2.338
      -2.652
      -2.666
      -2.735
      -3.023
      -3.273
      -2.982
      -1.824
      -0.008
       1.731
       2.607
       2.429
       1.822
       1.691
       2.363
       3.243
       3.367
       2.297
       0.522
      -0.998
      -1.631
      -1.506
      -1.281
      -1.552
      -2.400
      -3.345
      -3.672
      -2.948
      -1.419
       0.134
       1.074
       1.437
       1.734
       2.258
       2.683
       2.412
       1.279
      -0.138
      -0.960
      -0.786
       0.007
       0.746
       1.141
       1.376
       1.616
       1.599
       0.877
      -0.571
      -2.088
      -2.826
      -2.491
      -1.549
      -0.684
      -0.170
       0.130
       0.318
       0.261
      -0.093
      -0.434
      -0.331
       0.251
       0.853
       1.005
       0.677
       0.211
      -0.056
       0.015
       0.396
       0.920
       1.293
       1.274
       0.879
       0.349
      -0.112
      -0.515
      -0.985
      -1.534
      -1.947
      -1.946
      -1.486
      -0.878
      -0.529
      -0.497
      -0.394
       0.173
       1.082
       1.760
       1.788
       1.341
       0.934
       0.785
       0.590
      -0.061
      -1.128
      -2.059
      -2.217
      -1.379
       0.077
       1.371
       1.790
       1.192
       0.137
      -0.531
      -0.322
       0.600
       1.655
       2.291
       2.227
       1.433
       0.096
      -1.349
      -2.313
      -2.386
      -1.643
      -0.594
       0.186
       0.379
       0.018
      -0.608
      -1.117
      -1.224
      -0.888
      -0.299
       0.281
       0.672
       0.803
       0.676
       0.349
      -0.022
      -0.223
      -0.157
       0.023
       0.056
      -0.110
      -0.202
       0.105
       0.779
       1.352
       1.323
       0.690
       0.013
      -0.119
       0.299
       0.649
       0.315
      -0.660
      -1.559
      -1.672
      -0.964
      -0.076
       0.335
       0.220
       0.070
       0.268
       0.646
       0.716
       0.251
      -0.472
      -0.964
      -0.950
      -0.514
       0.062
       0.523
       0.744
       0.709
       0.429
      -0.048
      -0.535
      -0.715
      -0.366
       0.390
       1.102
       1.306
       0.884
       0.168
      -0.322
      -0.309
       0.022
       0.215
      -0.008
      -0.522
      -0.992
      -1.212
      -1.217
      -1.124
      -0.951
      -0.631
      -0.168
       0.294
       0.599
       0.750
       0.883
       1.062
       1.150
       0.946
       0.454
      -0.020
      -0.125
       0.194
       0.613
       0.720
       0.362
      -0.262
      -0.817
      -1.094
      -1.092
      -0.909
      -0.633
      -0.316
       0.002
       0.271
       0.403
       0.268
      -0.188
      -0.742
      -0.900
      -0.285
       0.900
       1.868
       1.849
       0.772
      -0.620
      -1.348
      -0.965
       0.138
       1.110
       1.329
       0.788
      -0.031
      -0.597
      -0.681
      -0.422
      -0.137
      -0.068
      -0.274
      -0.652
      -1.001
      -1.097
      -0.799
      -0.207
       0.306
       0.337
      -0.123
      -0.538
      -0.270
       0.725
       1.701
       1.775
       0.805
      -0.431
      -0.955
      -0.457
       0.529
       1.191
       1.106
       0.445
      -0.310
      -0.776
      -0.858
      -0.678
      -0.406
      -0.165
      -0.020
       0.017
      -0.007
      -0.030
      -0.045
      -0.117
      -0.274
      -0.392
      -0.262
       0.167
       0.635
       0.735
       0.296
      -0.403
      -0.827
      -0.677
      -0.188
       0.127
       0.042
      -0.148
       0.018
       0.623
       1.234
       1.286
       0.620
      -0.361
      -1.040
      -1.100
      -0.686
      -0.157
       0.229
       0.399
       0.350
       0.099
      -0.265
      -0.540
      -0.501
      -0.075
       0.564
       1.062
       1.099
       0.614
      -0.117
      -0.648
      -0.702
      -0.405
      -0.159
      -0.239
      -0.523
      -0.644
      -0.402
       0.045
       0.398
       0.544
       0.597
       0.652
       0.615
       0.344
      -0.064
      -0.254
       0.041
       0.614
       0.868
       0.355
      -0.737
      -1.709
      -1.946
      -1.395
      -0.506
       0.203
       0.510
       0.516
       0.405
       0.272
       0.159
       0.170
       0.442
       0.961
       1.443
       1.468
       0.813
      -0.292
      -1.252
      -1.518
      -0.998
      -0.136
       0.423
       0.327
      -0.245
      -0.773
      -0.830
      -0.365
       0.311
       0.757
       0.673
       0.082
      -0.660
      -1.046
      -0.762
       0.051
       0.856
       1.124
       0.736
       0.035
      -0.460
      -0.435
       0.017
       0.493
       0.611
       0.314
      -0.126
      -0.362
      -0.231
       0.163
       0.519
       0.506
       0.007
      -0.719
      -1.161
      -0.955
      -0.211
       0.560
       0.901
       0.783
       0.527
       0.375
       0.261
      -0.002
      -0.390
      -0.647
      -0.578
      -0.286
      -0.060
      -0.096
      -0.315
      -0.452
      -0.287
       0.160
       0.628
       0.813
       0.637
       0.330
       0.174
       0.172
       0.038
      -0.427
      -1.014
      -1.235
      -0.806
       0.051
       0.777
       0.948
       0.587
       0.060
      -0.268
      -0.296
      -0.157
       0.004
       0.153
       0.276
       0.266
       0.010
      -0.398
      -0.620
      -0.355
       0.306
       0.861
       0.817
