Origin Time       18/01/2011 20:23:27
Lat.              28.9 N	
Long.             64.0 E	
Depth (Km)          5.0
Magnitude         7.4
 Region           Southwestern-Pakistan                                            
 Above details taken from IMD 
     
Station Code       IGI 
Station Lat.       28.631  N
Station Long.      77.072  E
Station Height(m)   80.0
Site Class        C   Vs30 between 200 m/sec to 375 m/sec *  
Record Time        1/18/2011 ) 20:27:53.0
Sampling Rate     200. Hz
 Record Duration   94.000 Sec.
 Direction         E-W (E positive)
Max. Acceleration  -9.858 cm/sec**2
     
  * For reference see Site Classification link of website 
     
 Base Line Corrected and Low Pass Filtered (Cut Off at 35 Hz) Time History
 Acceleration data in cm/sec**2
    
[...]
   -0.092
   -0.130
   -0.214
   -0.345
   -0.505
   -0.667
   -0.812
   -0.938
   -1.061
   -1.209
   -1.402
   -1.643
   -1.913
   -2.178
   -2.402
   -2.557
   -2.632
   -2.639
   -2.605
   -2.560
   -2.523
   -2.492
   -2.450
   -2.379
   -2.275
   -2.153
   -2.042
   -1.971
   -1.954
   -1.986
   -2.056
   -2.153
   -2.267
   -2.380
   -2.477
   -2.550
   -2.600
   -2.623
   -2.612
   -2.558
   -2.455
   -2.298
   -2.081
   -1.806
   -1.488
   -1.153
   -0.832
   -0.547
   -0.303
   -0.095
    0.084
    0.245
    0.403
    0.577
    0.772
    0.978
    1.177
    1.339
    1.434
    1.440
    1.359
    1.213
    1.040
    0.887
    0.799
    0.795
    0.850
    0.915
    0.958
    0.968
    0.957
    0.941
    0.937
    0.960
    1.003
    1.049
    1.081
    1.091
    1.084
    1.074
    1.081
    1.124
    1.207
    1.315
    1.416
    1.475
    1.472
    1.413
    1.321
    1.216
    1.095
    0.940
    0.731
    0.458
    0.118
   -0.277
   -0.708
   -1.153
   -1.594
   -2.014
   -2.398
   -2.725
   -2.975
   -3.127
   -3.166
   -3.089
   -2.901
   -2.607
   -2.220
   -1.775
   -1.322
   -0.906
   -0.542
   -0.216
    0.097
    0.413
    0.732
    1.037
    1.300
    1.503
    1.642
    1.725
    1.759
    1.759
    1.743
    1.733
    1.747
    1.803
    1.912
    2.077
    2.288
    2.527
    2.774
    3.015
    3.242
    3.450
    3.638
    3.802
    3.937
    4.029
    4.046
    3.955
    3.740
    3.411
    2.992
    2.510
    1.991
    1.458
    0.928
    0.411
   -0.091
   -0.582
   -1.055
   -1.492
   -1.865
   -2.152
   -2.355
   -2.488
   -2.570
   -2.604
   -2.580
   -2.490
   -2.328
   -2.103
   -1.827
   -1.516
   -1.187
   -0.854
   -0.538
   -0.250
    0.007
    0.241
    0.459
    0.663
    0.846
    0.989
    1.068
    1.072
    1.005
    0.885
    0.729
    0.553
    0.375
    0.209
    0.060
   -0.070
   -0.175
   -0.242
   -0.252
   -0.194
   -0.078
    0.055
    0.144
    0.137
    0.009
   -0.232
   -0.554
   -0.912
   -1.250
   -1.524
   -1.724
   -1.864
   -1.967
   -2.042
   -2.087
   -2.107
   -2.115
   -2.126
   -2.142
   -2.155
   -2.156
   -2.146
   -2.131
   -2.114
   -2.096
   -2.086
   -2.099
   -2.151
   -2.255
   -2.416
   -2.630
   -2.882
   -3.155
   -3.431
   -3.695
   -3.931
   -4.117
   -4.227
   -4.239
   -4.138
   -3.922
   -3.598
   -3.174
   -2.662
   -2.066
   -1.385
   -0.618
    0.220
    1.088
    1.932
    2.692
    3.320
    3.775
    4.036
    4.101
    4.003
    3.792
    3.529
    3.256
    2.994
    2.744
    2.503
    2.281
    2.095
    1.965
    1.897
    1.873
    1.863
    1.842
    1.815
    1.803
    1.835
    1.927
    2.078
    2.264
    2.437
    2.531
    2.487
    2.266
    1.863
    1.306
    0.652
   -0.042
   -0.738
   -1.413
   -2.054
   -2.645
   -3.173
   -3.616
   -3.949
   -4.151
   -4.208
   -4.122
   -3.901
   -3.562
   -3.124
   -2.614
   -2.072
   -1.554
   -1.122
   -0.813
   -0.636
   -0.564
   -0.557
   -0.571
   -0.578
   -0.558
   -0.502
   -0.412
   -0.295
   -0.166
   -0.033
    0.109
    0.272
    0.466
    0.691
    0.937
    1.185
    1.411
    1.610
    1.798
    2.008
    2.262
    2.545
    2.813
    3.008
    3.089
    3.040
    2.876
    2.634
    2.356
    2.081
    1.830
    1.608
    1.403
    1.203
    1.003
    0.814
    0.658
    0.563
    0.544
    0.595
    0.694
    0.812
    0.923
    1.018
    1.098
    1.179
    1.279
    1.406
    1.556
    1.706
    1.818
    1.846
    1.759
    1.557
    1.272
    0.948
    0.624
    0.319
    0.036
   -0.236
   -0.505
   -0.770
   -1.013
   -1.207
   -1.318
   -1.330
   -1.246
   -1.088
   -0.891
   -0.686
   -0.496
   -0.336
   -0.203
   -0.072
    0.097
    0.338
    0.660
    1.039
    1.433
    1.794
    2.084
    2.278
    2.369
    2.366
    2.288
    2.159
    2.006
    1.854
    1.714
    1.586
    1.463
    1.339
    1.207
    1.060
    0.900
    0.732
    0.557
    0.362
    0.127
   -0.173
   -0.547
   -0.985
   -1.457
   -1.919
   -2.333
   -2.685
   -2.977
   -3.223
   -3.436
   -3.622
   -3.774
   -3.871
   -3.895
   -3.843
   -3.728
   -3.586
   -3.470
   -3.430
   -3.500
   -3.678
   -3.931
   -4.211
   -4.471
   -4.672
   -4.789
   -4.801
   -4.695
   -4.470
   -4.133
   -3.698
   -3.179
   -2.590
   -1.950
   -1.299
   -0.694
   -0.192
    0.180
    0.435
    0.615
    0.765
    0.908
    1.032
    1.101
    1.075
    0.937
    0.707
    0.430
    0.160
   -0.063
   -0.216
   -0.295
   -0.307
   -0.264
   -0.185
   -0.096
   -0.012
    0.067
    0.158
    0.277
    0.429
    0.607
    0.798
    0.991
    1.169
    1.302
    1.355
    1.297
    1.119
    0.840
    0.510
    0.190
   -0.066
   -0.226
   -0.288
   -0.269
   -0.198
   -0.097
    0.022
    0.161
    0.326
    0.516
    0.713
    0.888
    1.016
    1.085
    1.109
    1.118
    1.146
    1.219
    1.346
    1.519
    1.710
    1.878
    1.981
    1.992
    1.913
    1.776
    1.632
    1.528
    1.488
    1.517
    1.614
    1.781
    2.015
    2.305
    2.631
    2.964
    3.284
    3.573
    3.827
    4.051
    4.267
    4.511
    4.819
    5.199
    5.622
    6.041
    6.414
    6.725
    6.976
    7.171
    7.300
    7.342
    7.275
    7.093
    6.815
    6.476
    6.107
    5.729
    5.350
    4.965
    4.560
    4.122
    3.639
    3.105
    2.508
    1.836
    1.086
    0.271
   -0.584
   -1.448
   -2.294
   -3.104
   -3.869
   -4.577
   -5.211
   -5.756
   -6.206
   -6.555
   -6.786
   -6.883
   -6.845
   -6.695
   -6.466
   -6.190
   -5.893
   -5.594
   -5.293
   -4.981
   -4.657
   -4.332
   -4.015
   -3.699
   -3.366
   -2.994
   -2.563
   -2.068
   -1.529
   -1.007
   -0.584
   -0.332
   -0.283
   -0.420
   -0.698
   -1.062
   -1.466
   -1.873
   -2.254
   -2.593
   -2.889
   -3.163
   -3.439
   -3.728
   -4.023
   -4.299
   -4.526
   -4.681
   -4.760
   -4.781
   -4.772
   -4.745
   -4.686
   -4.570
   -4.374
   -4.091
   -3.729
   -3.309
   -2.861
   -2.406
   -1.954
   -1.506
   -1.056
   -0.587
   -0.081
    0.468
    1.046
    1.623
    2.163
    2.626
    2.984
    3.231
    3.381
    3.456
    3.465
    3.399
    3.239
    2.971
    2.605
    2.171
    1.701
    1.210
    0.706
    0.200
   -0.282
   -0.704
   -1.031
   -1.237
   -1.323
   -1.320
   -1.288
   -1.301
   -1.423
   -1.690
   -2.104
   -2.643
   -3.262
   -3.896
   -4.470
   -4.927
   -5.241
   -5.419
   -5.484
   -5.462
   -5.366
   -5.200
   -4.957
   -4.638
   -4.246
   -3.793
   -3.287
   -2.725
   -2.102
   -1.407
   -0.635
    0.208
    1.102
    2.009
    2.872
    3.615
    4.168
    4.492
    4.589
    4.493
    4.248
    3.894
    3.466
    2.996
    2.524
    2.092
    1.736
    1.470
    1.281
    1.140
    1.005
    0.827
    0.567
    0.213
   -0.222
   -0.710
   -1.225
   -1.738
   -2.211
   -2.588
   -2.806
   -2.826
   -2.657
   -2.351
   -1.972
   -1.551
   -1.076
   -0.502
    0.205
    1.041
    1.959
    2.881
    3.738
    4.494
    5.142
    5.680
    6.080
    6.303
    6.325
    6.157
    5.828
    5.370
    4.811
    4.184
    3.545
    2.958
    2.487
    2.174
    2.023
    2.002
    2.055
    2.133
    2.200
    2.233
    2.216
    2.136
    1.983
    1.769
    1.529
    1.298
    1.086
    0.882
    0.671
    0.446
    0.205
   -0.052
   -0.313
   -0.558
   -0.761
   -0.901
   -0.969
   -0.970
   -0.930
   -0.874
   -0.809
   -0.731
   -0.640
   -0.535
   -0.419
   -0.295
   -0.179
   -0.086
   -0.012
    0.062
    0.147
    0.238
    0.316
    0.348
    0.312
    0.217
    0.101
    0.012
   -0.020
    0.016
    0.116
    0.257
    0.394
    0.481
    0.499
    0.468
    0.426
    0.408
    0.424
    0.457
    0.486
    0.499
    0.496
    0.486
    0.476
    0.477
    0.493
    0.522
    0.561
    0.622
    0.733
    0.932
    1.244
    1.670
    2.194
    2.785
    3.407
    4.014
    4.547
    4.954
    5.200
    5.277
    5.202
    5.013
    4.763
    4.502
    4.260
    4.052
    3.884
    3.759
    3.666
    3.588
    3.503
    3.398
    3.277
    3.159
    3.076
    3.051
    3.076
    3.113
    3.100
    2.978
    2.702
    2.249
    1.627
    0.864
    0.008
   -0.886
   -1.766
   -2.600
   -3.370
   -4.069
   -4.701
   -5.276
   -5.806
   -6.293
   -6.720
   -7.057
   -7.268
   -7.325
   -7.216
   -6.943
   -6.529
   -6.011
   -5.434
   -4.844
   -4.281
   -3.773
   -3.333
   -2.966
   -2.668
   -2.429
   -2.240
   -2.089
   -1.967
   -1.870
   -1.808
   -1.801
   -1.854
   -1.948
   -2.055
   -2.154
   -2.231
   -2.262
   -2.214
   -2.065
   -1.823
   -1.514
   -1.177
   -0.855
   -0.590
   -0.401
   -0.282
   -0.215
   -0.174
   -0.128
   -0.034
    0.143
    0.399
    0.704
    1.026
    1.352
    1.686
    2.031
    2.384
    2.733
    3.056
    3.338
    3.581
    3.804
    4.023
    4.242
    4.454
    4.649
    4.810
    4.918
    4.956
    4.916
    4.801
    4.620
    4.387
    4.115
    3.812
    3.480
    3.133
    2.784
    2.447
    2.131
    1.837
    1.560
    1.284
    0.980
    0.613
    0.159
   -0.390
   -1.027
   -1.724
   -2.426
   -3.060
   -3.557
   -3.865
   -3.960
   -3.845
   -3.548
   -3.116
   -2.602
   -2.046
   -1.464
   -0.857
   -0.218
    0.457
    1.155
    1.856
    2.540
    3.200
    3.825
    4.399
    4.903
    5.315
    5.612
    5.768
    5.753
    5.538
    5.091
    4.396
    3.484
    2.438
    1.369
    0.377
   -0.466
   -1.125
   -1.605
   -1.959
   -2.265
   -2.601
   -3.020
   -3.534
   -4.104
   -4.669
   -5.196
   -5.709
   -6.264
   -6.902
   -7.613
   -8.339
   -8.988
   -9.476
   -9.757
   -9.821
   -9.687
   -9.390
   -8.988
   -8.545
   -8.102
   -7.665
   -7.206
   -6.673
   -6.020
   -5.231
   -4.335
   -3.381
   -2.401
   -1.414
   -0.450
    0.436
    1.173
    1.704
    1.998
    2.062
    1.936
    1.685
    1.375
    1.065
    0.796
    0.582
    0.401
    0.198
   -0.100
   -0.548
   -1.164
   -1.913
   -2.711
   -3.454
   -4.045
   -4.423
   -4.581
   -4.564
   -4.451
   -4.321
   -4.219
   -4.147
   -4.082
   -3.994
   -3.866
   -3.689
   -3.448
   -3.125
   -2.705
   -2.196
   -1.630
   -1.044
   -0.471
    0.064
    0.542
    0.949
    1.278
    1.528
    1.708
    1.840
    1.949
    2.042
    2.107
    2.120
    2.065
    1.931
    1.720
    1.437
    1.093
    0.707
    0.307
   -0.061
   -0.351
   -0.547
   -0.680
   -0.810
   -0.985
   -1.212
   -1.460
   -1.675
   -1.812
   -1.847
   -1.782
   -1.632
   -1.411
   -1.128
   -0.788
   -0.389
    0.069
    0.581
    1.138
    1.733
    2.346
    2.932
    3.440
    3.836
    4.120
    4.322
    4.492
    4.678
    4.901
    5.139
    5.336
    5.434
    5.393
    5.206
    4.904
    4.541
    4.165
    3.788
    3.393
    2.958
    2.481
    1.978
    1.471
    0.974
    0.481
   -0.033
   -0.588
   -1.182
   -1.775
   -2.307
   -2.706
   -2.909
   -2.880
   -2.628
   -2.204
   -1.693
   -1.180
   -0.714
   -0.298
    0.105
    0.543
    1.048
    1.627
    2.267
    2.937
    3.595
    4.205
    4.740
    5.194
    5.562
    5.833
    5.986
    6.010
    5.912
    5.715
    5.442
    5.101
    4.686
    4.186
    3.610
    2.996
    2.402
    1.869
    1.413
    1.033
    0.731
    0.507
    0.356
    0.262
    0.208
    0.182
    0.196
    0.280
    0.462
    0.726
    1.025
    1.308
    1.545
    1.719
    1.830
    1.902
    1.980
    2.099
    2.274
    2.491
    2.714
    2.886
    2.951
    2.881
    2.690
    2.414
    2.107
    1.829
    1.633
    1.546
    1.561
    1.661
    1.827
    2.043
    2.291
    2.545
    2.754
    2.857
    2.813
    2.625
    2.328
    1.951
    1.494
    0.937
    0.266
   -0.502
   -1.327
   -2.154
   -2.942
   -3.679
   -4.384
   -5.085
   -5.797
   -6.509
   -7.189
   -7.804
   -8.326
   -8.724
   -8.965
   -9.016
   -8.862
   -8.502
   -7.959
   -7.272
   -6.484
   -5.616
   -4.680
   -3.706
   -2.750
   -1.875
   -1.114
   -0.457
    0.145
    0.760
    1.445
    2.210
    3.016
    3.790
    4.457
    4.966
    5.299
    5.482
    5.563
    5.598
    5.629
    5.674
    5.707
    5.659
    5.456
    5.072
    4.555
    3.999
    3.503
    3.129
    2.885
    2.725
    2.571
    2.348
    2.011
    1.564
    1.061
    0.582
    0.190
   -0.097
   -0.306
   -0.482
   -0.679
   -0.941
   -1.288
   -1.698
   -2.112
   -2.458
   -2.682
   -2.776
   -2.776
   -2.723
   -2.630
   -2.477
   -2.233
   -1.891
   -1.480
   -1.050
   -0.641
   -0.264
    0.092
    0.434
    0.757
    1.037
    1.239
    1.326
    1.280
    1.115
    0.880
    0.639
    0.454
    0.369
    0.384
    0.458
    0.524
    0.531
    0.458
    0.315
    0.118
   -0.114
   -0.372
   -0.639
   -0.882
   -1.049
   -1.088
   -0.973
   -0.706
   -0.332
    0.079
    0.443
    0.697
    0.810
    0.792
    0.676
    0.515
    0.365
    0.259
    0.194
    0.133
    0.026
   -0.168
   -0.451
   -0.774
   -1.051
   -1.189
   -1.117
   -0.811
   -0.307
    0.303
    0.911
    1.427
    1.807
    2.041
    2.146
    2.152
    2.091
    1.979
    1.825
    1.644
    1.463
    1.313
    1.217
    1.174
    1.163
    1.153
    1.119
    1.055
    0.974
    0.894
    0.826
    0.776
    0.752
    0.761
    0.803
    0.866
    0.931
    0.986
    1.029
    1.057
    1.065
    1.048
    1.021
    1.025
    1.119
    1.350
    1.710
    2.134
    2.526
    2.795
    2.886
    2.797
    2.586
    2.360
    2.221
    2.222
    2.342
    2.515
    2.660
    2.707
    2.604
    2.313
    1.811
    1.088
    0.157
   -0.946
   -2.179
   -3.493
   -4.824
   -6.087
   -7.206
   -8.132
   -8.848
   -9.354
   -9.666
   -9.818
   -9.858
   -9.833
   -9.775
   -9.693
   -9.579
   -9.411
   -9.171
   -8.854
   -8.478
   -8.083
   -7.732
   -7.488
   -7.381
   -7.391
   -7.468
   -7.563
   -7.642
   -7.670
   -7.610
   -7.434
   -7.129
   -6.700
   -6.156
   -5.517
   -4.823
   -4.128
   -3.478
   -2.898
   -2.388
   -1.936
   -1.523
   -1.131
   -0.746
   -0.360
    0.014
    0.342
    0.578
    0.695
    0.694
    0.611
    0.502
    0.433
    0.459
    0.614
    0.888
    1.241
    1.619
    1.981
    2.315
    2.641
    3.001
    3.429
    3.922
    4.436
    4.916
    5.322
    5.635
    5.844
    5.932
    5.871
    5.638
    5.242
    4.742
    4.237
    3.828
    3.571
    3.460
    3.448
    3.483
    3.531
    3.572
    3.580
    3.516
    3.337
    3.022
    2.569
    1.996
    1.328
    0.594
   -0.181
   -0.977
   -1.775
   -2.549
   -3.269
   -3.902
   -4.421
   -4.808
   -5.055
   -5.167
   -5.161
   -5.052
   -4.844
   -4.528
   -4.090
   -3.525
   -2.853
   -2.119
   -1.383
   -0.691
   -0.069
    0.484
    0.980
    1.428
    1.824
    2.158
    2.427
    2.638
    2.802
    2.917
    2.963
    2.933
    2.844
    2.737
    2.659
    2.639
    2.675
    2.730
    2.742
    2.645
    2.394
    1.983
    1.442
    0.829
    0.200
   -0.399
   -0.936
   -1.388
   -1.738
   -1.973
   -2.096
   -2.136
   -2.138
   -2.144
   -2.177
   -2.222
   -2.236
   -2.161
   -1.946
   -1.572
   -1.069
   -0.506
    0.016
    0.401
    0.601
    0.645
    0.629
    0.662
    0.819
    1.113
    1.502
    1.906
    2.239
    2.423
    2.400
    2.140
    1.656
    1.006
    0.300
   -0.321
   -0.733
   -0.873
   -0.767
   -0.508
   -0.195
    0.108
    0.385
    0.642
    0.897
    1.162
    1.445
    1.749
    2.067
    2.380
    2.652
    2.828
    2.853
    2.695
    2.362
    1.900
    1.367
    0.820
    0.297
   -0.179
   -0.588
   -0.907
   -1.109
   -1.179
   -1.125
   -0.977
   -0.792
   -0.648
   -0.638
   -0.837
   -1.248
   -1.794
   -2.344
   -2.774
   -3.003
   -3.026
   -2.910
   -2.782
   -2.779
   -3.006
   -3.483
   -4.138
   -4.832
   -5.410
   -5.758
   -5.819
   -5.579
   -5.058
   -4.301
   -3.373
   -2.358
   -1.355
   -0.443
    0.339
    1.007
    1.598
    2.139
    2.634
    3.058
    3.372
    3.535
    3.519
    3.324
    2.974
    2.511
    1.981
    1.412
    0.819
    0.216
   -0.358
   -0.835
   -1.128
   -1.162
   -0.895
   -0.331
    0.463
    1.371
    2.258
    3.007
    3.539
    3.820
    3.852
    3.671
    3.336
    2.914
    2.478
    2.086
    1.783
    1.586
    1.491
    1.473
    1.490
    1.501
    1.477
    1.424
    1.373
    1.363
    1.421
    1.559
    1.782
    2.087
    2.460
    2.866
    3.258
    3.590
    3.827
    3.946
    3.933
    3.780
    3.491
    3.085
    2.590
    2.040
    1.470
    0.916
    0.415
    0.000
   -0.313
   -0.537
   -0.722
   -0.925
   -1.182
   -1.482
   -1.770
   -1.965
   -1.991
   -1.805
   -1.409
   -0.845
   -0.180
    0.505
    1.137
    1.652
    2.009
    2.200
    2.251
    2.215
    2.155
    2.128
    2.169
    2.283
    2.433
    2.547
    2.541
    2.346
    1.937
    1.348
    0.670
    0.022
   -0.495
   -0.832
   -1.008
   -1.085
   -1.133
   -1.192
   -1.260
   -1.304
   -1.294
   -1.232
   -1.157
   -1.119
   -1.151
   -1.243
   -1.344
   -1.381
   -1.300
   -1.087
   -0.766
   -0.367
    0.092
    0.607
    1.172
    1.776
    2.386
    2.950
    3.407
    3.707
    3.823
    3.753
    3.512
    3.121
    2.610
    2.011
    1.362
    0.711
    0.106
   -0.425
   -0.889
   -1.321
   -1.748
   -2.164
   -2.531
   -2.792
   -2.897
   -2.820
   -2.560
   -2.138
   -1.575
   -0.896
   -0.128
    0.693
    1.526
    2.312
    2.982
    3.472
    3.751
    3.837
    3.774
    3.620
    3.423
    3.218
    3.017
    2.825
    2.654
    2.524
    2.456
    2.470
    2.570
    2.730
    2.886
    2.975
    2.975
    2.916
    2.850
    2.822
    2.868
    3.006
    3.217
    3.437
    3.579
    3.559
    3.337
    2.922
    2.369
    1.742
    1.083
    0.404
   -0.302
   -1.032
   -1.769
   -2.467
   -3.064
   -3.499
   -3.741
   -3.786
   -3.653
   -3.384
   -3.040
   -2.687
   -2.376
   -2.137
   -1.983
   -1.901
   -1.868
   -1.849
   -1.818
   -1.743
   -1.600
   -1.388
   -1.147
   -0.946
   -0.856
   -0.917
   -1.126
   -1.447
   -1.829
   -2.228
   -2.611
   -2.959
   -3.262
   -3.526
   -3.765
   -3.992
   -4.207
   -4.388
   -4.494
   -4.478
   -4.304
   -3.965
   -3.475
   -2.861
   -2.151
   -1.380
   -0.587
    0.171
    0.835
    1.366
    1.763
    2.071
    2.352
    2.657
    2.999
    3.349
    3.652
    3.862
    3.967
    3.984
    3.943
    3.869
    3.770
    3.637
    3.443
    3.160
    2.774
    2.298
    1.770
    1.237
    0.759
    0.384
    0.134
   -0.003
   -0.069
   -0.103
   -0.124
   -0.134
   -0.124
   -0.092
   -0.049
   -0.006
    0.035
    0.085
    0.154
    0.233
    0.287
    0.272
    0.153
   -0.092
   -0.456
   -0.909
   -1.404
   -1.885
   -2.301
   -2.607
   -2.770
   -2.785
   -2.674
   -2.488
   -2.294
   -2.151
   -2.091
   -2.108
   -2.166
   -2.221
   -2.255
   -2.282
   -2.345
   -2.482
   -2.702
   -2.970
   -3.232
   -3.434
   -3.537
   -3.514
   -3.345
   -3.017
   -2.526
   -1.881
   -1.106
   -0.247
    0.629
    1.440
    2.108
    2.579
    2.840
    2.931
    2.926
    2.901
    2.891
    2.876
    2.794
    2.573
    2.162
    1.549
    0.777
   -0.076
   -0.913
   -1.664
   -2.293
   -2.805
   -3.220
   -3.561
   -3.837
   -4.041
   -4.155
   -4.161
   -4.058
   -3.867
   -3.623
   -3.357
   -3.083
   -2.809
   -2.552
   -2.338
   -2.198
   -2.149
   -2.196
   -2.315
   -2.455
   -2.561
   -2.598
   -2.552
   -2.428
   -2.244
   -2.035
   -1.832
   -1.641
   -1.432
   -1.156
   -0.765
   -0.238
    0.417
    1.158
    1.927
    2.662
