Origin Time       18/01/2011 20:23:27
Lat.              28.9 N	
Long.             64.0 E	
Depth (Km)          5.0
Magnitude         7.4
 Region           Southwestern-Pakistan                                            
 Above details taken from IMD 
   
Station Code       IGI 
Station Lat.       28.631
Station Long.      77.072
Station Height(m)   80.0
Site Class        C   Vs30 between 200 m/sec to 375 m/sec *  
Record Time        1/18/2011 ) 20:27:53.0
Sampling Rate     200. Hz
 Record Duration   94.000 Sec.
 Direction         Vert. (Up positive)
Max. Acceleration  -6.953 cm/sec**2
     
  * For reference see Site Classification link of website 
     
 Base Line Corrected and Low Pass Filtered (Cut Off at 35 Hz) Time History
 Acceleration data in cm/sec**2
    
[...]
    0.497
    0.620
    0.704
    0.745
    0.735
    0.673
    0.561
    0.403
    0.207
   -0.017
   -0.256
   -0.494
   -0.720
   -0.923
   -1.093
   -1.208
   -1.236
   -1.154
   -0.963
   -0.700
   -0.423
   -0.185
   -0.006
    0.130
    0.248
    0.350
    0.395
    0.336
    0.151
   -0.131
   -0.446
   -0.731
   -0.943
   -1.069
   -1.109
   -1.069
   -0.951
   -0.765
   -0.527
   -0.258
    0.020
    0.280
    0.494
    0.645
    0.739
    0.792
    0.816
    0.801
    0.723
    0.560
    0.310
    0.004
   -0.303
   -0.559
   -0.728
   -0.804
   -0.791
   -0.698
   -0.528
   -0.288
    0.004
    0.316
    0.600
    0.807
    0.900
    0.871
    0.742
    0.560
    0.375
    0.220
    0.101
    0.009
   -0.068
   -0.131
   -0.174
   -0.187
   -0.158
   -0.084
    0.026
    0.149
    0.265
    0.370
    0.474
    0.592
    0.726
    0.870
    1.008
    1.127
    1.211
    1.242
    1.196
    1.063
    0.851
    0.594
    0.337
    0.116
   -0.044
   -0.144
   -0.201
   -0.234
   -0.254
   -0.256
   -0.234
   -0.182
   -0.095
    0.024
    0.160
    0.280
    0.351
    0.351
    0.278
    0.151
   -0.002
   -0.154
   -0.289
   -0.399
   -0.474
   -0.506
   -0.486
   -0.418
   -0.319
   -0.210
   -0.106
   -0.005
    0.110
    0.251
    0.409
    0.552
    0.646
    0.671
    0.633
    0.562
    0.488
    0.416
    0.328
    0.203
    0.044
   -0.118
   -0.244
   -0.308
   -0.320
   -0.316
   -0.347
   -0.443
   -0.603
   -0.792
   -0.959
   -1.069
   -1.114
   -1.114
   -1.090
   -1.038
   -0.935
   -0.758
   -0.511
   -0.225
    0.053
    0.281
    0.437
    0.518
    0.527
    0.467
    0.341
    0.161
   -0.051
   -0.272
   -0.482
   -0.658
   -0.771
   -0.796
   -0.722
   -0.555
   -0.321
   -0.052
    0.223
    0.481
    0.699
    0.851
    0.918
    0.891
    0.781
    0.614
    0.428
    0.261
    0.130
    0.026
   -0.080
   -0.208
   -0.364
   -0.531
   -0.682
   -0.780
   -0.803
   -0.753
   -0.655
   -0.533
   -0.398
   -0.243
   -0.052
    0.183
    0.447
    0.702
    0.907
    1.029
    1.053
    0.979
    0.823
    0.609
    0.366
    0.119
   -0.102
   -0.268
   -0.350
   -0.335
   -0.222
   -0.020
    0.253
    0.564
    0.866
    1.110
    1.248
    1.255
    1.135
    0.923
    0.665
    0.403
    0.164
   -0.041
   -0.219
   -0.379
   -0.515
   -0.601
   -0.604
   -0.505
   -0.313
   -0.068
    0.173
    0.365
    0.490
    0.552
    0.562
    0.529
    0.457
    0.351
    0.215
    0.061
   -0.098
   -0.247
   -0.374
   -0.465
   -0.498
   -0.461
   -0.361
   -0.223
   -0.079
    0.055
    0.189
    0.347
    0.540
    0.751
    0.937
    1.061
    1.111
    1.104
    1.068
    1.018
    0.943
    0.820
    0.637
    0.416
    0.200
    0.027
   -0.093
   -0.179
   -0.250
   -0.305
   -0.318
   -0.260
   -0.124
    0.065
    0.266
    0.438
    0.556
    0.615
    0.626
    0.603
    0.563
    0.522
    0.494
    0.488
    0.506
    0.538
    0.570
    0.590
    0.594
    0.585
    0.572
    0.557
    0.546
    0.548
    0.579
    0.644
    0.730
    0.810
    0.855
    0.851
    0.808
    0.744
    0.675
    0.594
    0.485
    0.339
    0.165
   -0.008
   -0.146
   -0.217
   -0.205
   -0.123
   -0.002
    0.121
    0.220
    0.285
    0.310
    0.288
    0.225
    0.138
    0.054
   -0.016
   -0.075
   -0.137
   -0.203
   -0.261
   -0.293
   -0.291
   -0.265
   -0.242
   -0.248
   -0.294
   -0.361
   -0.411
   -0.397
   -0.299
   -0.131
    0.068
    0.256
    0.415
    0.542
    0.636
    0.690
    0.700
    0.672
    0.626
    0.579
    0.538
    0.491
    0.424
    0.344
    0.277
    0.252
    0.269
    0.294
    0.284
    0.221
    0.116
   -0.001
   -0.112
   -0.217
   -0.330
   -0.455
   -0.580
   -0.673
   -0.703
   -0.658
   -0.555
   -0.429
   -0.298
   -0.161
   -0.009
    0.151
    0.283
    0.346
    0.321
    0.221
    0.077
   -0.089
   -0.272
   -0.481
   -0.711
   -0.935
   -1.109
   -1.199
   -1.207
   -1.170
   -1.140
   -1.155
   -1.213
   -1.272
   -1.267
   -1.148
   -0.916
   -0.631
   -0.375
   -0.210
   -0.141
   -0.134
   -0.152
   -0.186
   -0.261
   -0.414
   -0.665
   -0.996
   -1.356
   -1.682
   -1.927
   -2.082
   -2.163
   -2.187
   -2.147
   -2.010
   -1.747
   -1.369
   -0.941
   -0.559
   -0.304
   -0.208
   -0.248
   -0.373
   -0.543
   -0.737
   -0.941
   -1.122
   -1.236
   -1.248
   -1.156
   -0.991
   -0.799
   -0.612
   -0.441
   -0.272
   -0.087
    0.126
    0.366
    0.613
    0.838
    1.007
    1.100
    1.117
    1.078
    1.012
    0.943
    0.879
    0.811
    0.720
    0.591
    0.426
    0.241
    0.058
   -0.102
   -0.228
   -0.312
   -0.350
   -0.337
   -0.280
   -0.194
   -0.100
   -0.009
    0.080
    0.171
    0.259
    0.321
    0.343
    0.328
    0.311
    0.327
    0.390
    0.483
    0.582
    0.667
    0.730
    0.770
    0.790
    0.797
    0.804
    0.826
    0.877
    0.961
    1.068
    1.178
    1.267
    1.320
    1.330
    1.303
    1.262
    1.229
    1.212
    1.199
    1.170
    1.113
    1.033
    0.949
    0.876
    0.809
    0.727
    0.608
    0.446
    0.260
    0.091
   -0.019
   -0.045
    0.002
    0.089
    0.184
    0.277
    0.382
    0.526
    0.727
    0.974
    1.216
    1.387
    1.439
    1.365
    1.191
    0.954
    0.689
    0.421
    0.166
   -0.067
   -0.267
   -0.420
   -0.507
   -0.509
   -0.421
   -0.260
   -0.068
    0.100
    0.203
    0.225
    0.183
    0.117
    0.053
   -0.007
   -0.086
   -0.198
   -0.331
   -0.459
   -0.558
   -0.624
   -0.665
   -0.696
   -0.724
   -0.736
   -0.707
   -0.622
   -0.489
   -0.331
   -0.171
   -0.022
    0.113
    0.233
    0.325
    0.366
    0.324
    0.179
   -0.068
   -0.388
   -0.740
   -1.075
   -1.350
   -1.531
   -1.601
   -1.554
   -1.400
   -1.162
   -0.867
   -0.539
   -0.202
    0.111
    0.350
    0.470
    0.452
    0.323
    0.137
   -0.049
   -0.199
   -0.312
   -0.414
   -0.533
   -0.670
   -0.797
   -0.871
   -0.872
   -0.814
   -0.738
   -0.679
   -0.646
   -0.628
   -0.612
   -0.583
   -0.530
   -0.447
   -0.336
   -0.207
   -0.078
    0.035
    0.122
    0.186
    0.233
    0.269
    0.294
    0.295
    0.253
    0.148
   -0.033
   -0.277
   -0.548
   -0.798
   -0.992
   -1.119
   -1.191
   -1.234
   -1.266
   -1.288
   -1.280
   -1.217
   -1.089
   -0.908
   -0.702
   -0.505
   -0.339
   -0.218
   -0.145
   -0.120
   -0.130
   -0.157
   -0.193
   -0.243
   -0.315
   -0.407
   -0.503
   -0.590
   -0.660
   -0.704
   -0.711
   -0.679
   -0.623
   -0.577
   -0.572
   -0.620
   -0.704
   -0.796
   -0.881
   -0.962
   -1.050
   -1.147
   -1.235
   -1.282
   -1.258
   -1.150
   -0.978
   -0.782
   -0.610
   -0.486
   -0.407
   -0.344
   -0.263
   -0.149
   -0.018
    0.101
    0.186
    0.240
    0.276
    0.296
    0.282
    0.208
    0.062
   -0.146
   -0.389
   -0.635
   -0.864
   -1.061
   -1.220
   -1.342
   -1.416
   -1.422
   -1.332
   -1.131
   -0.834
   -0.483
   -0.125
    0.211
    0.525
    0.836
    1.154
    1.457
    1.688
    1.786
    1.721
    1.522
    1.266
    1.038
    0.883
    0.791
    0.719
    0.638
    0.546
    0.457
    0.369
    0.264
    0.117
   -0.079
   -0.296
   -0.489
   -0.622
   -0.686
   -0.691
   -0.653
   -0.580
   -0.480
   -0.365
   -0.250
   -0.143
   -0.029
    0.105
    0.261
    0.416
    0.544
    0.632
    0.690
    0.740
    0.798
    0.867
    0.934
    0.982
    1.000
    0.994
    0.982
    0.979
    0.981
    0.959
    0.875
    0.697
    0.416
    0.048
   -0.372
   -0.796
   -1.172
   -1.443
   -1.560
   -1.496
   -1.264
   -0.917
   -0.533
   -0.172
    0.144
    0.428
    0.698
    0.947
    1.128
    1.171
    1.020
    0.669
    0.171
   -0.381
   -0.900
   -1.339
   -1.692
   -1.972
   -2.176
   -2.285
   -2.272
   -2.128
   -1.867
   -1.525
   -1.142
   -0.762
   -0.428
   -0.172
   -0.004
    0.089
    0.122
    0.103
    0.021
   -0.136
   -0.362
   -0.623
   -0.872
   -1.070
   -1.197
   -1.250
   -1.237
   -1.161
   -1.020
   -0.805
   -0.505
   -0.133
    0.264
    0.619
    0.869
    0.988
    0.982
    0.871
    0.669
    0.369
   -0.036
   -0.537
   -1.100
   -1.662
   -2.158
   -2.537
   -2.770
   -2.847
   -2.768
   -2.541
   -2.182
   -1.717
   -1.177
   -0.597
   -0.020
    0.498
    0.888
    1.096
    1.109
    0.960
    0.703
    0.387
    0.032
   -0.357
   -0.785
   -1.252
   -1.743
   -2.227
   -2.664
   -3.010
   -3.223
   -3.274
   -3.149
   -2.848
   -2.386
   -1.787
   -1.090
   -0.354
    0.355
    0.974
    1.460
    1.800
    1.998
    2.068
    2.023
    1.871
    1.627
    1.309
    0.940
    0.551
    0.186
   -0.095
   -0.233
   -0.183
    0.069
    0.497
    1.048
    1.661
    2.279
    2.855
    3.351
    3.739
    3.991
    4.090
    4.026
    3.802
    3.438
    2.970
    2.453
    1.956
    1.542
    1.253
    1.092
    1.038
    1.051
    1.093
    1.137
    1.178
    1.226
    1.294
    1.382
    1.474
    1.551
    1.611
    1.671
    1.746
    1.837
    1.917
    1.952
    1.928
    1.865
    1.807
    1.796
    1.846
    1.936
    2.028
    2.098
    2.143
    2.183
    2.239
    2.321
    2.424
    2.524
    2.585
    2.575
    2.478
    2.294
    2.035
    1.718
    1.369
    1.014
    0.679
    0.373
    0.100
   -0.133
   -0.303
   -0.381
   -0.364
   -0.279
   -0.179
   -0.105
   -0.067
   -0.043
   -0.007
    0.046
    0.092
    0.095
    0.036
   -0.065
   -0.154
   -0.175
   -0.109
    0.018
    0.155
    0.262
    0.330
    0.379
    0.442
    0.540
    0.671
    0.814
    0.956
    1.104
    1.287
    1.531
    1.831
    2.145
    2.412
    2.574
    2.604
    2.506
    2.310
    2.045
    1.725
    1.344
    0.887
    0.355
   -0.218
   -0.771
   -1.252
   -1.628
   -1.890
   -2.038
   -2.066
   -1.975
   -1.781
   -1.533
   -1.294
   -1.114
   -1.013
   -0.984
   -1.015
   -1.105
   -1.260
   -1.485
   -1.767
   -2.068
   -2.335
   -2.521
   -2.604
   -2.595
   -2.513
   -2.375
   -2.194
   -1.986
   -1.769
   -1.564
   -1.385
   -1.237
   -1.110
   -0.996
   -0.896
   -0.825
   -0.798
   -0.817
   -0.866
   -0.918
   -0.949
   -0.948
   -0.935
   -0.949
   -1.023
   -1.162
   -1.345
   -1.538
   -1.706
   -1.829
   -1.899
   -1.926
   -1.932
   -1.940
   -1.964
   -2.007
   -2.069
   -2.143
   -2.235
   -2.355
   -2.518
   -2.724
   -2.941
   -3.108
   -3.166
   -3.080
   -2.862
   -2.545
   -2.162
   -1.723
   -1.227
   -0.686
   -0.123
    0.434
    0.963
    1.436
    1.826
    2.106
    2.269
    2.321
    2.276
    2.153
    1.975
    1.769
    1.563
    1.382
    1.242
    1.146
    1.076
    1.006
    0.912
    0.790
    0.671
    0.609
    0.655
    0.824
    1.091
    1.402
    1.702
    1.952
    2.125
    2.202
    2.160
    1.977
    1.649
    1.200
    0.680
    0.160
   -0.292
   -0.626
   -0.823
   -0.902
   -0.897
   -0.832
   -0.697
   -0.456
   -0.075
    0.426
    0.958
    1.398
    1.652
    1.707
    1.630
    1.518
    1.436
    1.389
    1.339
    1.248
    1.114
    0.973
    0.871
    0.841
    0.873
    0.934
    0.989
    1.034
    1.088
    1.179
    1.309
    1.461
    1.613
    1.753
    1.882
    1.994
    2.066
    2.067
    1.984
    1.838
    1.681
    1.562
    1.509
    1.523
    1.593
    1.701
    1.828
    1.955
    2.069
    2.173
    2.280
    2.408
    2.556
    2.707
    2.842
    2.960
    3.076
    3.201
    3.333
    3.453
    3.541
    3.590
    3.609
    3.616
    3.621
    3.607
    3.536
    3.371
    3.108
    2.786
    2.466
    2.199
    1.992
    1.812
    1.605
    1.341
    1.041
    0.762
    0.564
    0.465
    0.434
    0.422
    0.395
    0.344
    0.276
    0.198
    0.107
   -0.002
   -0.126
   -0.252
   -0.360
   -0.434
   -0.473
   -0.500
   -0.558
   -0.686
   -0.897
   -1.172
   -1.472
   -1.758
   -2.007
   -2.219
   -2.419
   -2.635
   -2.872
   -3.099
   -3.260
   -3.300
   -3.197
   -2.965
   -2.650
   -2.295
   -1.918
   -1.525
   -1.124
   -0.743
   -0.418
   -0.187
   -0.072
   -0.070
   -0.146
   -0.259
   -0.388
   -0.537
   -0.720
   -0.939
   -1.170
   -1.369
   -1.489
   -1.505
   -1.432
   -1.321
   -1.232
   -1.208
   -1.255
   -1.345
   -1.439
   -1.516
   -1.582
   -1.660
   -1.765
   -1.889
   -1.992
   -2.021
   -1.931
   -1.695
   -1.309
   -0.794
   -0.196
    0.421
    0.994
    1.490
    1.902
    2.230
    2.463
    2.565
    2.509
    2.301
    1.986
    1.625
    1.262
    0.914
    0.580
    0.264
   -0.013
   -0.219
   -0.324
   -0.323
   -0.240
   -0.103
    0.067
    0.263
    0.467
    0.649
    0.765
    0.776
    0.650
    0.385
    0.016
   -0.386
   -0.736
   -0.969
   -1.062
   -1.039
   -0.960
   -0.907
   -0.957
   -1.155
   -1.485
   -1.863
   -2.179
   -2.351
   -2.367
   -2.268
   -2.101
   -1.881
   -1.590
   -1.194
   -0.682
   -0.076
    0.566
    1.181
    1.726
    2.195
    2.600
    2.949
    3.219
    3.367
    3.349
    3.151
    2.799
    2.350
    1.866
    1.389
    0.930
    0.474
    0.003
   -0.479
   -0.946
   -1.366
   -1.726
   -2.035
   -2.307
   -2.549
   -2.741
   -2.850
   -2.843
   -2.711
   -2.464
   -2.119
   -1.686
   -1.177
   -0.622
   -0.074
    0.422
    0.842
    1.197
    1.514
    1.812
    2.076
    2.258
    2.307
    2.210
    2.002
    1.741
    1.470
    1.197
    0.897
    0.540
    0.118
   -0.338
   -0.760
   -1.081
   -1.258
   -1.296
   -1.233
   -1.120
   -1.002
   -0.899
   -0.816
   -0.747
   -0.694
   -0.669
   -0.709
   -0.866
   -1.192
   -1.710
   -2.395
   -3.183
   -3.998
   -4.773
   -5.461
   -6.034
   -6.477
   -6.784
   -6.947
   -6.953
   -6.797
   -6.491
   -6.069
   -5.583
   -5.084
   -4.616
   -4.189
   -3.793
   -3.414
   -3.059
   -2.740
   -2.463
   -2.210
   -1.963
   -1.722
   -1.513
   -1.363
   -1.279
   -1.245
   -1.239
   -1.251
   -1.279
   -1.303
   -1.281
   -1.165
   -0.941
   -0.640
   -0.332
   -0.090
    0.037
    0.042
   -0.054
   -0.228
   -0.459
   -0.716
   -0.955
   -1.143
   -1.281
   -1.400
   -1.534
   -1.695
   -1.869
   -2.025
   -2.133
   -2.182
   -2.178
   -2.128
   -2.044
   -1.932
   -1.799
   -1.652
   -1.507
   -1.398
   -1.352
   -1.374
   -1.436
   -1.514
   -1.602
   -1.711
   -1.850
   -2.001
   -2.130
   -2.203
   -2.210
   -2.163
   -2.067
   -1.897
   -1.618
   -1.223
   -0.758
   -0.297
    0.086
    0.355
    0.499
    0.521
    0.416
    0.175
   -0.187
   -0.614
   -1.025
   -1.358
   -1.603
   -1.798
   -1.989
   -2.192
   -2.375
   -2.481
   -2.461
   -2.302
   -2.030
   -1.692
   -1.339
   -1.002
   -0.675
   -0.317
    0.125
    0.681
    1.329
    2.007
    2.643
    3.191
    3.632
    3.956
    4.135
    4.130
    3.910
    3.475
    2.859
    2.132
    1.385
    0.720
    0.220
   -0.076
   -0.177
   -0.127
    0.026
    0.250
    0.528
    0.849
    1.195
    1.537
    1.850
    2.128
    2.383
    2.640
    2.921
    3.234
    3.564
    3.890
    4.205
    4.526
    4.867
    5.209
    5.500
    5.683
    5.728
    5.640
    5.448
    5.184
    4.871
    4.536
    4.212
    3.945
    3.768
    3.692
    3.708
    3.785
    3.887
    3.975
    4.022
    4.019
    3.965
    3.866
    3.726
    3.544
    3.307
    2.997
    2.610
    2.167
    1.725
    1.363
    1.155
    1.134
    1.254
    1.417
    1.527
    1.549
    1.516
    1.479
    1.441
    1.333
    1.059
    0.567
   -0.106
   -0.858
   -1.589
   -2.232
   -2.763
   -3.161
   -3.394
   -3.421
   -3.215
   -2.785
   -2.181
   -1.473
   -0.738
   -0.041
    0.576
    1.097
    1.515
    1.809
    1.941
    1.877
    1.624
    1.248
    0.844
    0.493
    0.236
    0.081
    0.030
    0.083
    0.214
    0.366
    0.471
    0.489
    0.423
    0.316
    0.213
    0.133
    0.073
    0.036
    0.039
    0.107
    0.254
    0.479
    0.760
    1.068
    1.372
    1.648
    1.876
    2.026
    2.065
    1.971
    1.748
    1.425
    1.045
    0.651
    0.276
   -0.068
   -0.375
   -0.629
   -0.794
   -0.842
   -0.777
   -0.656
   -0.574
   -0.620
   -0.817
   -1.110
   -1.404
   -1.629
   -1.780
   -1.890
   -1.988
   -2.075
   -2.127
   -2.128
   -2.090
   -2.050
   -2.047
   -2.095
   -2.181
   -2.278
   -2.367
   -2.433
   -2.455
   -2.413
   -2.296
   -2.118
   -1.922
   -1.758
   -1.659
   -1.625
   -1.639
   -1.675
   -1.711
   -1.729
   -1.708
   -1.613
   -1.393
   -1.007
   -0.450
    0.229
    0.937
    1.573
    2.071
    2.420
    2.644
    2.746
    2.685
    2.396
    1.858
    1.141
    0.392
   -0.227
   -0.619
   -0.784
   -0.803
   -0.778
   -0.783
   -0.843
   -0.949
   -1.074
   -1.193
   -1.291
   -1.361
   -1.402
   -1.411
   -1.380
   -1.287
   -1.097
   -0.782
   -0.344
    0.186
    0.757
    1.314
    1.804
    2.187
    2.440
    2.558
    2.559
    2.477
    2.349
    2.200
    2.045
    1.893
    1.758
    1.654
    1.590
    1.574
    1.608
    1.682
    1.765
    1.809
    1.774
    1.657
    1.496
    1.350
    1.265
    1.250
    1.275
    1.289
    1.243
    1.116
    0.934
    0.749
    0.604
    0.498
    0.393
    0.239
    0.005
   -0.308
   -0.659
   -0.990
   -1.248
   -1.419
   -1.525
   -1.606
   -1.682
   -1.733
   -1.708
   -1.565
   -1.305
   -0.975
   -0.650
   -0.401
   -0.268
   -0.249
   -0.307
   -0.389
   -0.451
   -0.476
   -0.479
   -0.500
   -0.585
   -0.757
   -0.999
   -1.258
   -1.479
   -1.629
   -1.714
   -1.764
   -1.800
   -1.816
   -1.785
   -1.686
   -1.529
   -1.364
   -1.261
   -1.278
   -1.432
   -1.681
   -1.952
   -2.176
   -2.319
   -2.384
   -2.393
   -2.355
   -2.251
   -2.036
   -1.682
   -1.214
   -0.711
   -0.272
    0.034
    0.192
    0.222
    0.147
   -0.033
   -0.332
   -0.734
   -1.175
   -1.555
   -1.787
   -1.836
   -1.731
   -1.547
   -1.362
   -1.233
   -1.171
   -1.147
   -1.110
   -1.028
   -0.918
   -0.847
   -0.891
   -1.080
   -1.379
   -1.702
   -1.966
   -2.129
   -2.197
   -2.207
   -2.202
   -2.214
   -2.257
   -2.321
   -2.383
   -2.447
   -2.546
   -2.729
   -3.006
   -3.331
   -3.627
   -3.838
   -3.957
   -4.007
   -4.005
   -3.932
   -3.740
   -3.395
   -2.910
   -2.347
   -1.785
   -1.285
   -0.872
   -0.521
   -0.186
    0.168
    0.539
    0.895
    1.203
    1.464
    1.705
    1.959
    2.235
    2.499
    2.687
    2.741
    2.634
    2.382
    2.033
    1.647
    1.279
    0.957
    0.677
    0.418
    0.178
   -0.012
   -0.104
   -0.060
    0.131
    0.459
    0.895
    1.397
    1.915
    2.403
    2.829
    3.167
    3.396
    3.501
    3.478
    3.357
    3.196
    3.062
    2.998
    3.003
    3.043
    3.083
    3.115
    3.161
    3.247
    3.379
    3.527
    3.636
    3.654
    3.568
    3.417
    3.271
    3.185
    3.163
    3.156
    3.100
    2.964
    2.772
    2.582
    2.434
    2.321
    2.191
    1.984
    1.662
    1.227
    0.708
    0.144
   -0.435
   -1.008
   -1.557
   -2.047
   -2.437
   -2.693
   -2.814
   -2.833
   -2.799
   -2.739
   -2.652
   -2.531
   -2.377
   -2.200
   -1.991
   -1.705
   -1.298
   -0.761
   -0.131
    0.534
    1.195
    1.856
    2.541
    3.256
    3.950
    4.536
    4.942
    5.161
    5.255
    5.309
    5.368
    5.407
    5.352
    5.135
    4.738
    4.198
    3.587
    2.975
    2.397
    1.858
    1.347
    0.871
    0.469
    0.193
    0.069
    0.067
    0.116
    0.139
    0.104
    0.030
   -0.039
   -0.083
   -0.124
   -0.200
   -0.323
   -0.468
   -0.595
   -0.683
   -0.739
   -0.771
   -0.767
   -0.704
