Origin Time       18/01/2011 20:23:27
Lat.              28.9 N	
Long.             64.0 E	
Depth (Km)          5.0
Magnitude         7.4
 Region           Southwestern-Pakistan                                            
 Above details taken from IMD 
    
Station Code       IGI 
Station Lat.       28.631  N
Station Long.      77.072  E
Station Height(m)   80.0
Site Class        C   Vs30 between 200 m/sec to 375 m/sec *  
Record Time        1/18/2011 ) 20:27:53.0
Sampling Rate     200. Hz
 Record Duration   94.000 Sec.
 Direction         N-S (N positive)
Max. Acceleration  13.056 cm/sec**2
     
  * For reference see Site Classification link of website 
     
 Base Line Corrected and Low Pass Filtered (Cut Off at 35 Hz) Time History
 Acceleration data in cm/sec**2
    
[...]
   -0.204
   -0.028
    0.192
    0.440
    0.673
    0.850
    0.953
    0.993
    1.001
    1.009
    1.031
    1.055
    1.054
    1.009
    0.928
    0.838
    0.770
    0.747
    0.778
    0.858
    0.971
    1.100
    1.230
    1.348
    1.438
    1.490
    1.506
    1.497
    1.482
    1.474
    1.478
    1.483
    1.468
    1.417
    1.334
    1.227
    1.101
    0.944
    0.733
    0.453
    0.109
   -0.271
   -0.652
   -1.004
   -1.309
   -1.560
   -1.757
   -1.910
   -2.041
   -2.180
   -2.354
   -2.574
   -2.824
   -3.071
   -3.283
   -3.451
   -3.593
   -3.731
   -3.863
   -3.962
   -4.000
   -3.966
   -3.876
   -3.748
   -3.593
   -3.420
   -3.241
   -3.079
   -2.952
   -2.854
   -2.754
   -2.617
   -2.441
   -2.257
   -2.103
   -1.991
   -1.902
   -1.804
   -1.677
   -1.518
   -1.347
   -1.186
   -1.050
   -0.932
   -0.816
   -0.688
   -0.546
   -0.388
   -0.224
   -0.071
    0.050
    0.116
    0.112
    0.038
   -0.088
   -0.233
   -0.368
   -0.480
   -0.572
   -0.650
   -0.719
   -0.786
   -0.856
   -0.933
   -1.021
   -1.124
   -1.239
   -1.353
   -1.453
   -1.534
   -1.606
   -1.684
   -1.783
   -1.908
   -2.052
   -2.196
   -2.323
   -2.410
   -2.428
   -2.353
   -2.189
   -1.976
   -1.770
   -1.612
   -1.516
   -1.471
   -1.448
   -1.410
   -1.332
   -1.208
   -1.056
   -0.908
   -0.795
   -0.733
   -0.722
   -0.745
   -0.784
   -0.820
   -0.834
   -0.807
   -0.728
   -0.598
   -0.432
   -0.245
   -0.040
    0.187
    0.436
    0.705
    0.990
    1.295
    1.628
    1.989
    2.361
    2.707
    2.992
    3.200
    3.340
    3.437
    3.513
    3.576
    3.625
    3.660
    3.670
    3.645
    3.576
    3.468
    3.330
    3.155
    2.922
    2.615
    2.251
    1.882
    1.573
    1.373
    1.297
    1.331
    1.444
    1.609
    1.815
    2.061
    2.348
    2.658
    2.952
    3.183
    3.324
    3.370
    3.324
    3.184
    2.950
    2.630
    2.257
    1.872
    1.511
    1.193
    0.912
    0.660
    0.444
    0.287
    0.217
    0.250
    0.383
    0.609
    0.920
    1.302
    1.731
    2.171
    2.583
    2.935
    3.208
    3.400
    3.523
    3.594
    3.631
    3.661
    3.709
    3.782
    3.857
    3.897
    3.866
    3.752
    3.568
    3.338
    3.078
    2.792
    2.486
    2.184
    1.920
    1.725
    1.607
    1.556
    1.555
    1.594
    1.666
    1.760
    1.853
    1.911
    1.907
    1.834
    1.704
    1.537
    1.347
    1.144
    0.939
    0.755
    0.629
    0.608
    0.715
    0.927
    1.171
    1.359
    1.432
    1.384
    1.251
    1.084
    0.924
    0.786
    0.677
    0.595
    0.535
    0.482
    0.429
    0.391
    0.391
    0.433
    0.490
    0.527
    0.539
    0.553
    0.606
    0.712
    0.853
    0.983
    1.051
    1.044
    0.995
    0.952
    0.939
    0.949
    0.963
    0.977
    0.989
    0.991
    0.972
    0.923
    0.845
    0.752
    0.669
    0.617
    0.594
    0.581
    0.559
    0.523
    0.482
    0.448
    0.438
    0.471
    0.552
    0.663
    0.766
    0.824
    0.821
    0.769
    0.706
    0.667
    0.670
    0.700
    0.726
    0.715
    0.652
    0.535
    0.360
    0.110
   -0.235
   -0.679
   -1.196
   -1.742
   -2.277
   -2.788
   -3.276
   -3.743
   -4.179
   -4.576
   -4.935
   -5.269
   -5.589
   -5.884
   -6.123
   -6.266
   -6.289
   -6.197
   -6.009
   -5.741
   -5.397
   -4.987
   -4.535
   -4.064
   -3.586
   -3.089
   -2.560
   -2.000
   -1.440
   -0.930
   -0.512
   -0.189
    0.079
    0.353
    0.683
    1.084
    1.553
    2.075
    2.632
    3.195
    3.728
    4.190
    4.548
    4.788
    4.921
    4.965
    4.937
    4.849
    4.702
    4.475
    4.121
    3.585
    2.843
    1.915
    0.863
   -0.235
   -1.309
   -2.310
   -3.217
   -4.027
   -4.745
   -5.369
   -5.887
   -6.281
   -6.532
   -6.638
   -6.629
   -6.567
   -6.528
   -6.569
   -6.703
   -6.900
   -7.103
   -7.254
   -7.303
   -7.216
   -6.972
   -6.566
   -6.018
   -5.375
   -4.692
   -4.009
   -3.338
   -2.679
   -2.022
   -1.363
   -0.708
   -0.066
    0.543
    1.093
    1.540
    1.832
    1.948
    1.919
    1.811
    1.692
    1.594
    1.514
    1.437
    1.357
    1.285
    1.243
    1.252
    1.320
    1.446
    1.628
    1.866
    2.149
    2.448
    2.713
    2.888
    2.925
    2.807
    2.553
    2.208
    1.831
    1.468
    1.143
    0.851
    0.571
    0.296
    0.042
   -0.163
   -0.308
   -0.410
   -0.488
   -0.544
   -0.560
   -0.524
   -0.440
   -0.335
   -0.245
   -0.205
   -0.230
   -0.319
   -0.471
   -0.701
   -1.030
   -1.454
   -1.942
   -2.449
   -2.945
   -3.421
   -3.875
   -4.293
   -4.645
   -4.898
   -5.028
   -5.025
   -4.890
   -4.635
   -4.278
   -3.852
   -3.394
   -2.931
   -2.473
   -2.019
   -1.567
   -1.134
   -0.753
   -0.478
   -0.358
   -0.420
   -0.652
   -1.006
   -1.424
   -1.842
   -2.203
   -2.464
   -2.603
   -2.621
   -2.535
   -2.368
   -2.138
   -1.867
   -1.576
   -1.288
   -1.021
   -0.778
   -0.552
   -0.337
   -0.139
    0.031
    0.167
    0.278
    0.373
    0.460
    0.538
    0.601
    0.644
    0.652
    0.610
    0.501
    0.324
    0.095
   -0.159
   -0.418
   -0.680
   -0.946
   -1.208
   -1.447
   -1.652
   -1.822
   -1.957
   -2.036
   -2.025
   -1.889
   -1.612
   -1.201
   -0.683
   -0.095
    0.521
    1.117
    1.650
    2.086
    2.411
    2.630
    2.758
    2.814
    2.804
    2.713
    2.509
    2.168
    1.703
    1.172
    0.652
    0.198
   -0.176
   -0.502
   -0.818
   -1.140
   -1.438
   -1.652
   -1.723
   -1.617
   -1.338
   -0.914
   -0.393
    0.166
    0.716
    1.226
    1.679
    2.064
    2.371
    2.603
    2.777
    2.918
    3.040
    3.139
    3.186
    3.141
    2.970
    2.666
    2.248
    1.760
    1.266
    0.846
    0.572
    0.476
    0.533
    0.679
    0.851
    1.016
    1.187
    1.404
    1.695
    2.039
    2.367
    2.597
    2.673
    2.574
    2.313
    1.928
    1.474
    1.004
    0.559
    0.159
   -0.181
   -0.447
   -0.617
   -0.679
   -0.638
   -0.520
   -0.357
   -0.158
    0.102
    0.467
    0.974
    1.630
    2.401
    3.220
    4.014
    4.737
    5.374
    5.931
    6.413
    6.816
    7.137
    7.374
    7.528
    7.609
    7.632
    7.606
    7.529
    7.387
    7.164
    6.844
    6.412
    5.869
    5.249
    4.600
    3.963
    3.360
    2.810
    2.347
    2.009
    1.808
    1.712
    1.649
    1.541
    1.343
    1.069
    0.761
    0.452
    0.132
   -0.237
   -0.691
   -1.249
   -1.901
   -2.619
   -3.356
   -4.057
   -4.671
   -5.170
   -5.550
   -5.828
   -6.023
   -6.142
   -6.175
   -6.101
   -5.907
   -5.607
   -5.244
   -4.865
   -4.497
   -4.119
   -3.681
   -3.130
   -2.449
   -1.665
   -0.827
    0.021
    0.845
    1.617
    2.311
    2.912
    3.427
    3.884
    4.315
    4.726
    5.092
    5.358
    5.473
    5.419
    5.223
    4.949
    4.672
    4.449
    4.296
    4.191
    4.102
    4.012
    3.925
    3.851
    3.787
    3.711
    3.596
    3.427
    3.206
    2.939
    2.624
    2.247
    1.791
    1.241
    0.598
   -0.119
   -0.865
   -1.579
   -2.200
   -2.688
   -3.029
   -3.222
   -3.268
   -3.164
   -2.922
   -2.579
   -2.198
   -1.847
   -1.581
   -1.417
   -1.342
   -1.331
   -1.381
   -1.512
   -1.750
   -2.106
   -2.555
   -3.042
   -3.501
   -3.881
   -4.160
   -4.346
   -4.463
   -4.530
   -4.548
   -4.492
   -4.324
   -4.025
   -3.599
   -3.070
   -2.465
   -1.815
   -1.152
   -0.525
    0.016
    0.418
    0.643
    0.678
    0.537
    0.254
   -0.124
   -0.541
   -0.940
   -1.287
   -1.575
   -1.806
   -1.969
   -2.031
   -1.955
   -1.729
   -1.372
   -0.934
   -0.463
    0.014
    0.498
    0.993
    1.496
    1.998
    2.491
    2.968
    3.412
    3.789
    4.044
    4.113
    3.945
    3.532
    2.922
    2.195
    1.432
    0.696
    0.028
   -0.556
   -1.054
   -1.473
   -1.818
   -2.083
   -2.257
   -2.319
   -2.243
   -2.020
   -1.678
   -1.283
   -0.912
   -0.618
   -0.412
   -0.280
   -0.197
   -0.157
   -0.164
   -0.235
   -0.375
   -0.576
   -0.811
   -1.050
   -1.265
   -1.442
   -1.588
   -1.724
   -1.869
   -2.020
   -2.141
   -2.181
   -2.108
   -1.941
   -1.754
   -1.637
   -1.642
   -1.761
   -1.940
   -2.132
   -2.313
   -2.475
   -2.610
   -2.708
   -2.777
   -2.847
   -2.942
   -3.053
   -3.132
   -3.134
   -3.059
   -2.965
   -2.938
   -3.057
   -3.362
   -3.840
   -4.423
   -5.008
   -5.492
   -5.807
   -5.932
   -5.886
   -5.715
   -5.467
   -5.185
   -4.896
   -4.612
   -4.326
   -4.025
   -3.688
   -3.304
   -2.872
   -2.399
   -1.905
   -1.435
   -1.054
   -0.827
   -0.795
   -0.960
   -1.299
   -1.771
   -2.331
   -2.943
   -3.591
   -4.279
   -5.016
   -5.792
   -6.564
   -7.259
   -7.789
   -8.084
   -8.122
   -7.925
   -7.541
   -7.028
   -6.440
   -5.823
   -5.196
   -4.537
   -3.813
   -3.014
   -2.168
   -1.330
   -0.549
    0.150
    0.769
    1.326
    1.827
    2.248
    2.551
    2.704
    2.709
    2.596
    2.408
    2.188
    1.961
    1.725
    1.459
    1.129
    0.716
    0.232
   -0.280
   -0.768
   -1.197
   -1.572
   -1.929
   -2.302
   -2.690
   -3.063
   -3.372
   -3.586
   -3.691
   -3.697
   -3.623
   -3.485
   -3.294
   -3.064
   -2.818
   -2.588
   -2.399
   -2.263
   -2.180
   -2.125
   -2.046
   -1.876
   -1.573
   -1.143
   -0.628
   -0.070
    0.520
    1.174
    1.946
    2.878
    3.976
    5.212
    6.530
    7.859
    9.116
   10.221
   11.118
   11.798
   12.289
   12.626
   12.827
   12.887
   12.793
   12.547
   12.177
   11.725
   11.223
   10.686
   10.121
    9.539
    8.955
    8.399
    7.917
    7.557
    7.337
    7.241
    7.242
    7.315
    7.440
    7.590
    7.729
    7.830
    7.891
    7.938
    8.007
    8.116
    8.258
    8.414
    8.567
    8.699
    8.774
    8.742
    8.567
    8.259
    7.873
    7.485
    7.154
    6.902
    6.716
    6.573
    6.467
    6.418
    6.440
    6.517
    6.594
    6.607
    6.516
    6.335
    6.109
    5.881
    5.670
    5.471
    5.278
    5.090
    4.903
    4.695
    4.432
    4.075
    3.603
    3.017
    2.339
    1.602
    0.844
    0.103
   -0.579
   -1.160
   -1.591
   -1.824
   -1.817
   -1.562
   -1.099
   -0.524
    0.040
    0.488
    0.772
    0.903
    0.921
    0.863
    0.749
    0.593
    0.427
    0.301
    0.263
    0.330
    0.476
    0.650
    0.801
    0.905
    0.971
    1.037
    1.151
    1.346
    1.626
    1.967
    2.339
    2.710
    3.049
    3.327
    3.529
    3.676
    3.820
    4.015
    4.263
    4.503
    4.627
    4.536
    4.190
    3.620
    2.904
    2.134
    1.386
    0.709
    0.126
   -0.362
   -0.771
   -1.122
   -1.436
   -1.728
   -2.007
   -2.272
   -2.518
   -2.731
   -2.892
   -2.992
   -3.055
   -3.123
   -3.228
   -3.362
   -3.493
   -3.587
   -3.627
   -3.608
   -3.535
   -3.416
   -3.246
   -3.010
   -2.696
   -2.320
   -1.926
   -1.547
   -1.190
   -0.852
   -0.540
   -0.283
   -0.106
   -0.003
    0.045
    0.041
   -0.058
   -0.321
   -0.793
   -1.444
   -2.179
   -2.882
   -3.474
   -3.950
   -4.374
   -4.833
   -5.387
   -6.042
   -6.763
   -7.501
   -8.220
   -8.882
   -9.449
   -9.886
  -10.183
  -10.364
  -10.480
  -10.594
  -10.759
  -10.991
  -11.256
  -11.491
  -11.645
  -11.695
  -11.644
  -11.497
  -11.246
  -10.873
  -10.359
   -9.693
   -8.891
   -7.993
   -7.067
   -6.181
   -5.380
   -4.656
   -3.968
   -3.280
   -2.599
   -1.961
   -1.396
   -0.911
   -0.493
   -0.119
    0.243
    0.635
    1.083
    1.595
    2.148
    2.690
    3.139
    3.404
    3.420
    3.172
    2.699
    2.071
    1.369
    0.662
   -0.001
   -0.590
   -1.088
   -1.496
   -1.832
   -2.125
   -2.387
   -2.611
   -2.777
   -2.861
   -2.845
   -2.731
   -2.549
   -2.348
   -2.166
   -2.008
   -1.854
   -1.683
   -1.500
   -1.338
   -1.253
   -1.303
   -1.532
   -1.961
   -2.586
   -3.377
   -4.283
   -5.234
   -6.162
   -7.013
   -7.754
   -8.377
   -8.896
   -9.327
   -9.682
   -9.950
  -10.121
  -10.206
  -10.245
  -10.279
  -10.327
  -10.383
  -10.435
  -10.471
  -10.476
  -10.438
  -10.364
  -10.274
  -10.181
  -10.071
   -9.915
   -9.689
   -9.392
   -9.052
   -8.704
   -8.359
   -7.980
   -7.492
   -6.809
   -5.884
   -4.738
   -3.459
   -2.177
   -1.015
   -0.041
    0.742
    1.385
    1.960
    2.527
    3.104
    3.672
    4.197
    4.657
    5.039
    5.332
    5.517
    5.579
    5.512
    5.315
    4.999
    4.582
    4.094
    3.566
    3.023
    2.484
    1.982
    1.568
    1.317
    1.302
    1.563
    2.084
    2.797
    3.603
    4.406
    5.134
    5.745
    6.230
    6.614
    6.932
    7.219
    7.497
    7.768
    8.012
    8.179
    8.209
    8.064
    7.740
    7.259
    6.646
    5.933
    5.159
    4.373
    3.616
    2.909
    2.257
    1.657
    1.108
    0.619
    0.196
   -0.160
   -0.464
   -0.746
   -1.035
   -1.355
   -1.711
   -2.089
   -2.464
   -2.802
   -3.081
   -3.296
   -3.466
   -3.627
   -3.803
   -3.991
   -4.170
   -4.326
   -4.476
   -4.642
   -4.812
   -4.919
   -4.867
   -4.570
   -3.991
   -3.137
   -2.046
   -0.772
    0.619
    2.054
    3.455
    4.756
    5.909
    6.879
    7.635
    8.129
    8.301
    8.116
    7.600
    6.856
    6.031
    5.258
    4.607
    4.083
    3.652
    3.276
    2.931
    2.605
    2.286
    1.965
    1.650
    1.373
    1.181
    1.104
    1.144
    1.287
    1.514
    1.803
    2.129
    2.463
    2.785
    3.094
    3.399
    3.715
    4.054
    4.425
    4.828
    5.251
    5.686
    6.127
    6.572
    7.020
    7.486
    8.008
    8.635
    9.383
   10.218
   11.066
   11.836
   12.453
   12.866
   13.056
   13.030
   12.821
   12.478
   12.053
   11.586
   11.094
   10.579
   10.028
    9.426
    8.773
    8.086
    7.392
    6.697
    5.988
    5.246
    4.465
    3.657
    2.842
    2.053
    1.326
    0.683
    0.127
   -0.359
   -0.797
   -1.202
   -1.579
   -1.927
   -2.253
   -2.583
   -2.938
   -3.304
   -3.622
   -3.824
   -3.878
   -3.808
   -3.679
   -3.567
   -3.531
   -3.597
   -3.742
   -3.905
   -4.021
   -4.047
   -3.984
   -3.871
   -3.758
   -3.678
   -3.618
   -3.535
   -3.394
   -3.192
   -2.952
   -2.693
   -2.410
   -2.071
   -1.633
   -1.067
   -0.383
    0.355
    1.048
    1.595
    1.933
    2.060
    2.022
    1.886
    1.708
    1.530
    1.376
    1.249
    1.110
    0.885
    0.518
    0.004
   -0.593
   -1.167
   -1.613
   -1.855
   -1.864
   -1.659
   -1.286
   -0.784
   -0.167
    0.557
    1.355
    2.161
    2.907
    3.558
    4.122
    4.621
    5.054
    5.389
    5.591
    5.659
    5.628
    5.547
    5.440
    5.297
    5.081
    4.757
    4.315
    3.779
    3.191
    2.577
    1.938
    1.262
    0.551
   -0.173
   -0.869
   -1.495
   -2.005
   -2.358
   -2.526
   -2.505
   -2.325
   -2.040
   -1.712
   -1.395
   -1.137
   -0.985
   -0.982
   -1.154
   -1.510
   -2.044
   -2.737
   -3.552
   -4.418
   -5.244
   -5.939
   -6.450
   -6.770
   -6.914
   -6.881
   -6.636
   -6.145
   -5.420
   -4.547
   -3.648
   -2.816
   -2.068
   -1.339
   -0.531
    0.420
    1.495
    2.593
    3.563
    4.263
    4.603
    4.560
    4.177
    3.530
    2.701
    1.753
    0.719
   -0.384
   -1.537
   -2.687
   -3.753
   -4.636
   -5.253
   -5.557
   -5.551
   -5.287
   -4.844
   -4.300
   -3.725
   -3.174
   -2.690
   -2.293
   -1.973
   -1.697
   -1.435
   -1.187
   -0.976
   -0.822
   -0.719
   -0.649
   -0.604
   -0.599
   -0.650
   -0.751
   -0.870
   -0.965
   -1.016
   -1.047
   -1.116
   -1.268
   -1.496
   -1.753
   -1.992
   -2.197
   -2.370
   -2.509
   -2.610
   -2.681
   -2.756
   -2.888
   -3.126
   -3.493
   -3.968
   -4.501
   -5.029
   -5.491
   -5.824
   -5.972
   -5.918
   -5.696
   -5.364
   -4.959
   -4.485
   -3.941
   -3.350
   -2.767
   -2.252
   -1.843
   -1.542
   -1.343
   -1.248
   -1.278
   -1.444
   -1.714
   -2.002
   -2.203
   -2.251
   -2.139
   -1.913
   -1.617
   -1.270
   -0.868
   -0.406
    0.110
    0.660
    1.213
    1.719
    2.116
    2.340
    2.343
    2.113
    1.685
    1.128
    0.498
   -0.192
   -0.965
   -1.830
   -2.748
   -3.659
   -4.517
   -5.309
   -6.016
   -6.587
   -6.957
   -7.080
   -6.967
   -6.677
   -6.284
   -5.855
   -5.438
   -5.067
   -4.762
   -4.516
   -4.295
   -4.043
   -3.714
   -3.299
   -2.824
   -2.329
   -1.833
   -1.330
   -0.810
   -0.293
    0.155
    0.463
    0.611
    0.658
    0.699
    0.790
    0.909
    0.976
    0.930
    0.772
    0.569
    0.412
    0.371
    0.479
    0.744
    1.164
    1.732
    2.419
    3.163
    3.885
    4.523
    5.044
    5.434
    5.686
    5.785
    5.735
    5.563
    5.321
    5.052
    4.765
    4.428
    3.993
    3.415
    2.662
    1.723
    0.622
   -0.567
   -1.728
   -2.740
   -3.509
   -3.992
   -4.194
   -4.146
   -3.884
   -3.444
   -2.859
   -2.174
   -1.455
   -0.777
   -0.211
    0.211
    0.499
    0.678
    0.753
    0.708
    0.526
    0.221
   -0.155
   -0.539
   -0.884
   -1.168
   -1.383
   -1.514
   -1.539
   -1.439
   -1.209
   -0.857
   -0.404
    0.120
    0.667
    1.188
    1.653
    2.054
    2.402
    2.702
    2.945
    3.108
    3.176
    3.150
    3.051
    2.905
    2.724
    2.501
    2.213
    1.837
    1.357
    0.791
    0.201
   -0.319
   -0.673
   -0.806
   -0.723
   -0.465
   -0.081
    0.400
    0.973
    1.649
    2.448
    3.373
    4.395
    5.453
    6.452
    7.287
    7.863
    8.130
    8.098
    7.827
    7.390
    6.833
    6.157
    5.320
    4.270
    3.001
    1.588
    0.179
   -1.067
   -2.047
   -2.739
   -3.174
   -3.393
   -3.422
   -3.286
   -3.036
   -2.744
   -2.469
   -2.238
   -2.061
   -1.952
   -1.926
   -1.989
   -2.141
   -2.389
   -2.742
   -3.178
   -3.631
   -4.013
   -4.261
   -4.368
   -4.377
   -4.354
   -4.349
   -4.368
   -4.360
   -4.234
   -3.888
   -3.246
   -2.282
   -1.037
    0.385
    1.855
    3.255
    4.509
    5.588
    6.498
    7.260
    7.884
    8.355
    8.642
    8.712
    8.554
    8.185
    7.654
    7.028
    6.376
    5.752
    5.200
    4.752
    4.421
    4.195
    4.029
    3.881
    3.735
    3.617
    3.564
    3.587
    3.668
    3.773
    3.882
    3.996
    4.127
    4.280
    4.451
    4.617
    4.745
    4.794
    4.726
    4.519
    4.186
    3.774
    3.344
    2.929
    2.514
    2.035
    1.415
    0.617
   -0.320
   -1.300
   -2.210
   -2.972
   -3.567
   -4.020
   -4.366
   -4.607
   -4.703
   -4.592
   -4.229
   -3.610
   -2.780
   -1.809
   -0.777
    0.250
    1.218
    2.066
    2.727
    3.140
    3.264
    3.081
    2.599
    1.858
    0.928
   -0.094
   -1.117
   -2.072
   -2.920
   -3.638
   -4.212
   -4.631
   -4.882
   -4.953
   -4.842
   -4.570
   -4.169
   -3.673
   -3.114
   -2.522
   -1.927
   -1.353
   -0.816
   -0.336
    0.063
    0.346
    0.473
    0.404
    0.111
   -0.408
   -1.129
   -1.993
   -2.896
   -3.706
   -4.317
   -4.698
   -4.906
   -5.044
   -5.191
   -5.357
   -5.487
   -5.494
   -5.300
   -4.862
   -4.184
   -3.306
   -2.278
   -1.151
    0.026
    1.202
    2.307
    3.260
    3.980
    4.414
    4.546
    4.407
    4.073
    3.645
    3.230
    2.909
    2.711
    2.612
    2.571
    2.557
    2.549
    2.524
    2.445
    2.285
    2.038
    1.737
    1.430
    1.168
    0.985
    0.903
    0.931
    1.061
    1.271
    1.530
    1.813
    2.109
    2.404
    2.671
    2.858
    2.902
    2.764
    2.453
    2.031
    1.588
    1.211
    0.967
    0.878
    0.899
