Origin Time       20/06/2011 06:27:18
Lat.              30.5 N	
Long.             79.4 E	
Depth (Km)         12.0
Magnitude         4.6
 Region           Chamoli-Uttarakhand                                              
 Above details taken from IMD 
   
Station Code      VIK
Station Lat.       30.453
Station Long.      77.754
Station Height(m)  465.0
Site Class        C   Vs30 between 200 m/sec to 375 m/sec *  
Record Time       20.06.2011 06:26:43.784
Sampling Rate     200. Hz
 Record Duration   83.205 Sec.
 Direction         Vert. (Up positive)
Max. Acceleration      0.856 cm/sec**2
     
  * For reference see Site Classification link of website 
     
 Base Line Corrected and Low Pass Filtered (Cut Off at 35 Hz) Time History
 Acceleration data in cm/sec**2
    
[...]
       0.196
       0.137
       0.057
      -0.027
      -0.084
      -0.101
      -0.095
      -0.086
      -0.080
      -0.077
      -0.079
      -0.082
      -0.077
      -0.066
      -0.076
      -0.124
      -0.192
      -0.248
      -0.287
      -0.324
      -0.359
      -0.363
      -0.321
      -0.240
      -0.135
      -0.019
       0.097
       0.199
       0.280
       0.344
       0.384
       0.384
       0.344
       0.284
       0.223
       0.164
       0.098
       0.029
      -0.034
      -0.089
      -0.133
      -0.157
      -0.145
      -0.097
      -0.034
       0.030
       0.095
       0.160
       0.208
       0.230
       0.233
       0.232
       0.230
       0.226
       0.224
       0.221
       0.194
       0.125
       0.026
      -0.081
      -0.181
      -0.276
      -0.357
      -0.408
      -0.424
      -0.413
      -0.385
      -0.343
      -0.297
      -0.261
      -0.235
      -0.208
      -0.174
      -0.143
      -0.116
      -0.079
      -0.020
       0.051
       0.117
       0.173
       0.229
       0.283
       0.327
       0.361
       0.391
       0.414
       0.414
       0.390
       0.359
       0.329
       0.292
       0.237
       0.164
       0.086
       0.009
      -0.060
      -0.106
      -0.119
      -0.106
      -0.080
      -0.047
      -0.008
       0.030
       0.051
       0.056
       0.054
       0.042
       0.003
      -0.063
      -0.133
      -0.187
      -0.225
      -0.253
      -0.269
      -0.267
      -0.249
      -0.214
      -0.165
      -0.110
      -0.065
      -0.039
      -0.020
       0.002
       0.022
       0.029
       0.033
       0.045
       0.057
       0.048
       0.015
      -0.020
      -0.045
      -0.066
      -0.085
      -0.084
      -0.054
      -0.012
       0.021
       0.042
       0.056
       0.058
       0.044
       0.029
       0.031
       0.045
       0.060
       0.079
       0.107
       0.132
       0.131
       0.102
       0.066
       0.040
       0.015
      -0.025
      -0.081
      -0.142
      -0.191
      -0.215
      -0.214
      -0.197
      -0.181
      -0.163
      -0.128
      -0.063
       0.018
       0.084
       0.124
       0.150
       0.182
       0.217
       0.239
       0.241
       0.220
       0.170
       0.089
      -0.005
      -0.092
      -0.174
      -0.257
      -0.334
      -0.384
      -0.397
      -0.363
      -0.274
      -0.147
      -0.020
       0.076
       0.152
       0.228
       0.290
       0.302
       0.251
       0.167
       0.098
       0.066
       0.056
       0.047
       0.031
       0.009
      -0.011
      -0.022
      -0.025
      -0.040
      -0.083
      -0.137
      -0.172
      -0.185
      -0.190
      -0.175
      -0.115
      -0.011
       0.109
       0.222
       0.324
       0.412
       0.477
       0.516
       0.525
       0.505
       0.451
       0.365
       0.256
       0.141
       0.029
      -0.087
      -0.211
      -0.320
      -0.385
      -0.395
      -0.365
      -0.318
      -0.270
      -0.226
      -0.178
      -0.120
      -0.070
      -0.055
      -0.083
      -0.126
      -0.158
      -0.174
      -0.177
      -0.160
      -0.124
      -0.087
      -0.063
      -0.041
       0.004
       0.075
       0.145
       0.193
       0.221
       0.236
       0.239
       0.235
       0.235
       0.240
       0.238
       0.211
       0.161
       0.101
       0.038
      -0.022
      -0.069
      -0.097
      -0.109
      -0.110
      -0.098
      -0.065
      -0.019
       0.027
       0.074
       0.125
       0.173
       0.202
       0.218
       0.238
       0.269
       0.294
       0.301
       0.294
       0.277
       0.231
       0.136
      -0.001
      -0.152
      -0.293
      -0.410
      -0.491
      -0.527
      -0.524
      -0.500
      -0.464
      -0.413
      -0.355
      -0.304
      -0.264
      -0.229
      -0.192
      -0.164
      -0.149
      -0.135
      -0.106
      -0.064
      -0.021
       0.024
       0.085
       0.162
       0.241
       0.308
       0.360
       0.386
       0.376
       0.336
       0.284
       0.226
       0.156
       0.079
       0.014
      -0.028
      -0.055
      -0.076
      -0.091
      -0.096
      -0.094
      -0.084
      -0.052
       0.008
       0.071
       0.105
       0.104
       0.096
       0.103
       0.134
       0.180
       0.232
       0.277
       0.302
       0.305
       0.298
       0.277
       0.228
       0.143
       0.037
      -0.066
      -0.158
      -0.234
      -0.288
      -0.312
      -0.314
      -0.310
      -0.300
      -0.270
      -0.222
      -0.176
      -0.149
      -0.141
      -0.150
      -0.171
      -0.190
      -0.197
      -0.199
      -0.218
      -0.254
      -0.285
      -0.288
      -0.260
      -0.207
      -0.131
      -0.039
       0.055
       0.134
       0.199
       0.255
       0.297
       0.303
       0.266
       0.204
       0.132
       0.054
      -0.024
      -0.086
      -0.123
      -0.147
      -0.167
      -0.176
      -0.165
      -0.140
      -0.114
      -0.089
      -0.060
      -0.029
       0.003
       0.043
       0.103
       0.174
       0.236
       0.283
       0.327
       0.370
       0.393
       0.381
       0.338
       0.278
       0.209
       0.134
       0.062
       0.001
      -0.052
      -0.095
      -0.113
      -0.097
      -0.062
      -0.034
      -0.022
      -0.019
      -0.018
      -0.020
      -0.019
      -0.013
      -0.017
      -0.059
      -0.148
      -0.261
      -0.367
      -0.446
      -0.488
      -0.480
      -0.415
      -0.306
      -0.177
      -0.040
       0.099
       0.219
       0.297
       0.323
       0.311
       0.269
       0.201
       0.114
       0.023
      -0.061
      -0.135
      -0.190
      -0.206
      -0.176
      -0.117
      -0.050
       0.017
       0.085
       0.146
       0.189
       0.217
       0.240
       0.255
       0.255
       0.244
       0.238
       0.234
       0.217
       0.181
       0.143
       0.123
       0.127
       0.149
       0.179
       0.202
       0.203
       0.183
       0.162
       0.156
       0.153
       0.133
       0.093
       0.045
      -0.010
      -0.076
      -0.148
      -0.212
      -0.258
      -0.290
      -0.307
      -0.302
      -0.276
      -0.246
      -0.223
      -0.209
      -0.202
      -0.207
      -0.220
      -0.217
      -0.178
      -0.116
      -0.062
      -0.030
      -0.015
      -0.012
      -0.024
      -0.044
      -0.059
      -0.055
      -0.030
       0.025
       0.115
       0.223
       0.321
       0.394
       0.448
       0.491
       0.516
       0.515
       0.494
       0.464
       0.419
       0.342
       0.233
       0.109
      -0.010
      -0.112
      -0.191
      -0.241
      -0.269
      -0.284
      -0.281
      -0.248
      -0.183
      -0.105
      -0.033
       0.036
       0.105
       0.163
       0.200
       0.218
       0.227
       0.221
       0.181
       0.102
      -0.005
      -0.132
      -0.279
      -0.431
      -0.561
      -0.651
      -0.696
      -0.687
      -0.613
      -0.478
      -0.302
      -0.103
       0.108
       0.313
       0.483
       0.595
       0.646
       0.646
       0.599
       0.509
       0.394
       0.281
       0.178
       0.071
      -0.049
      -0.174
      -0.293
      -0.395
      -0.465
      -0.485
      -0.459
      -0.412
      -0.366
      -0.316
      -0.242
      -0.134
       0.007
       0.170
       0.336
       0.472
       0.552
       0.571
       0.534
       0.437
       0.275
       0.066
      -0.151
      -0.346
      -0.503
      -0.603
      -0.626
      -0.570
      -0.458
      -0.313
      -0.142
       0.048
       0.231
       0.374
       0.451
       0.453
       0.380
       0.249
       0.090
      -0.069
      -0.216
      -0.346
      -0.436
      -0.450
      -0.369
      -0.205
       0.008
       0.238
       0.447
       0.595
       0.660
       0.649
       0.579
       0.460
       0.298
       0.113
      -0.070
      -0.239
      -0.386
      -0.495
      -0.548
      -0.545
      -0.502
      -0.426
      -0.312
      -0.168
      -0.012
       0.138
       0.269
       0.355
       0.370
       0.313
       0.213
       0.097
      -0.029
      -0.165
      -0.298
      -0.402
      -0.468
      -0.497
      -0.485
      -0.429
      -0.338
      -0.232
      -0.116
       0.023
       0.186
       0.355
       0.505
       0.624
       0.705
       0.736
       0.707
       0.623
       0.492
       0.319
       0.122
      -0.066
      -0.220
      -0.341
      -0.437
      -0.497
      -0.498
      -0.434
      -0.324
      -0.185
      -0.032
       0.116
       0.240
       0.333
       0.407
       0.468
       0.507
       0.518
       0.507
       0.486
       0.453
       0.399
       0.317
       0.208
       0.070
      -0.094
      -0.268
      -0.428
      -0.566
      -0.685
      -0.776
      -0.816
      -0.791
      -0.711
      -0.590
      -0.437
      -0.265
      -0.099
       0.048
       0.183
       0.308
       0.405
       0.457
       0.469
       0.453
       0.410
       0.333
       0.230
       0.117
       0.000
      -0.114
      -0.204
      -0.241
      -0.216
      -0.146
      -0.051
       0.047
       0.124
       0.157
       0.141
       0.096
       0.046
      -0.009
      -0.081
      -0.167
      -0.249
      -0.310
      -0.347
      -0.359
      -0.346
      -0.310
      -0.255
      -0.174
      -0.055
       0.087
       0.217
       0.305
       0.343
       0.333
       0.275
       0.183
       0.082
      -0.007
      -0.083
      -0.143
      -0.169
      -0.147
      -0.090
      -0.021
       0.049
       0.123
       0.191
       0.235
       0.250
       0.247
       0.234
       0.202
       0.150
       0.092
       0.042
       0.000
      -0.037
      -0.067
      -0.089
      -0.114
      -0.153
      -0.197
      -0.234
      -0.267
      -0.302
      -0.329
      -0.335
      -0.317
      -0.284
      -0.236
      -0.161
      -0.064
       0.025
       0.078
       0.091
       0.077
       0.049
       0.017
      -0.007
      -0.024
      -0.045
      -0.072
      -0.082
      -0.057
      -0.008
       0.037
       0.066
       0.086
       0.105
       0.126
       0.157
       0.214
       0.295
       0.376
       0.435
       0.470
       0.492
       0.503
       0.501
       0.483
       0.443
       0.374
       0.280
       0.178
       0.081
      -0.023
      -0.149
      -0.282
      -0.389
      -0.447
      -0.459
      -0.433
      -0.374
      -0.290
      -0.200
      -0.114
      -0.031
       0.045
       0.095
       0.108
       0.097
       0.086
       0.088
       0.107
       0.146
       0.193
       0.218
       0.198
       0.144
       0.088
       0.041
      -0.010
      -0.074
      -0.138
      -0.184
      -0.207
      -0.207
      -0.180
      -0.130
      -0.074
      -0.028
       0.006
       0.036
       0.058
       0.064
       0.053
       0.030
      -0.007
      -0.056
      -0.102
      -0.122
      -0.115
      -0.104
      -0.102
      -0.097
      -0.070
      -0.020
       0.041
       0.104
       0.155
       0.171
       0.143
       0.074
      -0.031
      -0.168
      -0.323
      -0.456
      -0.530
      -0.543
      -0.514
      -0.453
      -0.350
      -0.198
      -0.007
       0.210
       0.429
       0.613
       0.723
       0.750
       0.723
       0.672
       0.594
       0.469
       0.289
       0.072
      -0.162
      -0.388
      -0.579
      -0.713
      -0.792
      -0.824
      -0.804
      -0.719
      -0.571
      -0.385
      -0.188
      -0.003
       0.151
       0.257
       0.321
       0.363
       0.393
       0.397
       0.370
       0.340
       0.336
       0.357
       0.371
       0.355
       0.304
       0.227
       0.135
       0.054
       0.005
      -0.011
      -0.012
      -0.011
      -0.003
       0.011
       0.020
       0.013
      -0.013
      -0.063
      -0.141
      -0.228
      -0.287
      -0.295
      -0.267
      -0.225
      -0.170
      -0.088
       0.021
       0.144
       0.269
       0.391
       0.495
       0.559
       0.570
       0.526
       0.426
       0.264
       0.063
      -0.130
      -0.272
      -0.353
      -0.377
      -0.349
      -0.277
      -0.183
      -0.089
       0.003
       0.093
       0.162
       0.182
       0.153
       0.106
       0.071
       0.057
       0.061
       0.083
       0.107
       0.111
       0.082
       0.029
      -0.037
      -0.119
      -0.219
      -0.324
      -0.420
      -0.503
      -0.565
      -0.595
      -0.587
      -0.556
      -0.516
      -0.460
      -0.360
      -0.202
      -0.001
       0.219
       0.432
       0.603
       0.687
       0.663
       0.555
       0.395
       0.200
      -0.022
      -0.241
      -0.415
      -0.514
      -0.529
      -0.464
      -0.332
      -0.164
       0.005
       0.153
       0.266
       0.327
       0.321
       0.252
       0.146
       0.028
      -0.092
      -0.196
      -0.250
      -0.231
      -0.145
      -0.019
       0.134
       0.306
       0.474
       0.605
       0.668
       0.649
       0.544
       0.366
       0.149
      -0.068
      -0.265
      -0.426
      -0.533
      -0.562
      -0.507
      -0.384
      -0.206
       0.015
       0.260
       0.491
       0.675
       0.798
       0.856
       0.840
       0.749
       0.599
       0.420
       0.228
       0.028
      -0.166
      -0.329
      -0.448
      -0.527
      -0.565
      -0.557
      -0.513
      -0.457
      -0.408
      -0.361
      -0.299
      -0.230
      -0.170
      -0.124
      -0.083
      -0.034
       0.032
       0.121
       0.225
       0.316
       0.371
       0.389
       0.389
       0.377
       0.333
       0.244
       0.119
      -0.025
      -0.178
      -0.328
      -0.454
      -0.537
      -0.573
      -0.565
      -0.510
      -0.408
      -0.272
      -0.128
       0.006
       0.117
       0.193
       0.222
       0.215
       0.194
       0.176
       0.163
       0.166
       0.199
       0.263
       0.341
       0.421
       0.506
       0.596
       0.667
       0.690
       0.653
       0.555
       0.399
       0.195
      -0.028
      -0.236
      -0.408
      -0.534
      -0.604
      -0.609
      -0.562
      -0.492
      -0.421
      -0.349
      -0.271
      -0.189
      -0.106
      -0.023
       0.053
       0.103
       0.122
       0.120
       0.115
       0.105
       0.076
       0.023
      -0.045
      -0.113
      -0.173
      -0.211
      -0.208
      -0.164
      -0.100
      -0.041
       0.006
       0.044
       0.075
       0.098
       0.114
       0.116
       0.085
       0.008
      -0.097
      -0.198
      -0.275
      -0.322
      -0.334
      -0.303
      -0.237
      -0.157
      -0.068
       0.036
       0.150
       0.253
       0.327
       0.368
       0.371
       0.330
       0.253
       0.166
       0.089
       0.019
      -0.048
      -0.100
      -0.116
      -0.089
      -0.029
       0.055
       0.152
       0.237
       0.283
       0.286
       0.267
       0.237
       0.187
       0.105
       0.004
      -0.093
      -0.170
      -0.213
      -0.202
      -0.133
      -0.035
       0.048
       0.085
       0.071
       0.013
      -0.067
      -0.144
      -0.194
      -0.217
      -0.222
      -0.204
      -0.144
      -0.040
       0.082
       0.191
       0.268
       0.299
       0.270
       0.185
       0.067
      -0.059
      -0.182
      -0.294
      -0.376
      -0.417
      -0.418
      -0.383
      -0.306
      -0.182
      -0.032
       0.102
       0.192
       0.232
       0.224
       0.169
       0.076
      -0.031
      -0.127
      -0.197
      -0.227
      -0.206
      -0.134
      -0.034
       0.065
       0.156
       0.235
       0.291
       0.303
       0.261
       0.171
       0.044
      -0.101
      -0.226
      -0.287
      -0.267
      -0.183
      -0.056
       0.098
       0.262
       0.405
       0.496
       0.524
       0.493
       0.407
       0.275
       0.115
      -0.050
      -0.199
      -0.312
      -0.366
      -0.350
      -0.279
      -0.182
      -0.074
       0.043
       0.158
       0.249
       0.298
       0.309
       0.292
       0.252
       0.187
       0.108
       0.029
      -0.047
      -0.116
      -0.160
      -0.165
      -0.133
      -0.079
      -0.011
       0.067
       0.135
       0.170
       0.170
       0.152
       0.132
       0.101
       0.049
      -0.015
      -0.073
      -0.111
      -0.122
      -0.097
      -0.035
       0.046
       0.127
       0.198
       0.256
       0.282
       0.256
       0.181
       0.080
      -0.033
      -0.148
      -0.250
      -0.325
      -0.369
      -0.391
      -0.396
      -0.376
      -0.329
      -0.268
      -0.203
      -0.132
      -0.056
       0.012
       0.057
       0.080
       0.081
       0.050
      -0.021
      -0.116
      -0.195
      -0.232
      -0.221
      -0.168
      -0.077
       0.042
       0.173
       0.305
       0.431
       0.535
       0.589
       0.573
       0.489
       0.357
       0.198
       0.029
      -0.121
      -0.232
      -0.305
      -0.348
      -0.361
      -0.329
      -0.257
      -0.172
      -0.097
      -0.038
       0.005
       0.030
       0.043
       0.057
       0.075
       0.088
       0.093
       0.102
       0.126
       0.152
       0.165
       0.162
       0.152
       0.128
       0.081
       0.016
      -0.048
      -0.104
      -0.154
      -0.187
      -0.195
      -0.187
      -0.187
      -0.199
      -0.206
      -0.197
      -0.187
      -0.192
      -0.209
      -0.227
      -0.237
      -0.233
      -0.202
      -0.134
      -0.045
       0.040
       0.105
       0.155
       0.194
       0.219
       0.230
       0.232
       0.224
       0.195
       0.150
       0.107
       0.076
       0.043
      -0.006
      -0.066
      -0.122
      -0.162
      -0.177
      -0.154
      -0.087
       0.004
       0.095
       0.173
       0.236
       0.270
       0.259
       0.204
       0.125
       0.037
      -0.050
      -0.117
      -0.133
      -0.087
       0.002
       0.102
       0.200
       0.290
       0.362
       0.397
       0.387
       0.333
       0.241
       0.126
       0.009
      -0.088
      -0.166
      -0.234
      -0.287
      -0.305
      -0.277
      -0.220
      -0.150
      -0.076
      -0.008
       0.037
       0.045
       0.027
      -0.005
      -0.052
      -0.112
      -0.180
      -0.242
      -0.297
      -0.338
      -0.346
      -0.298
      -0.200
      -0.077
       0.045
       0.157
       0.252
       0.318
       0.354
       0.373
       0.381
       0.368
       0.327
       0.270
       0.213
       0.150
       0.074
      -0.008
      -0.079
      -0.136
      -0.182
      -0.208
      -0.201
      -0.173
      -0.144
      -0.123
      -0.103
      -0.083
      -0.075
      -0.082
      -0.095
      -0.108
      -0.132
      -0.167
      -0.194
      -0.188
      -0.140
      -0.057
       0.047
       0.148
       0.215
       0.233
