Origin Time       20/06/2011 06:27:18 UTC
Lat.              30.5 N	
Long.             79.4 E	
Depth (Km)         12.0
Magnitude         4.6
 Region           Chamoli-Uttarakhand                                              
 Above details taken from IMD 
    
Station Code      VIK
Station Lat.       30.453  N
Station Long.      77.754  E
Station Height(m)  465.0
Site Class        C   Vs30 between 200 m/sec to 375 m/sec *  
Record Time       20.06.2011 06:26:43.784 UTC
Sampling Rate     200. Hz
 Record Duration   83.205 Sec.
 Direction         N-S (N positive)
Max. Acceleration      2.033 cm/sec**2
     
  * For reference see Site Classification link of website 
     
 Base Line Corrected and Low Pass Filtered (Cut Off at 35 Hz) Time History
 Acceleration data in cm/sec**2
    
[...]
      -0.786
      -0.795
      -0.788
      -0.768
      -0.739
      -0.698
      -0.644
      -0.578
      -0.504
      -0.422
      -0.335
      -0.244
      -0.149
      -0.045
       0.069
       0.190
       0.316
       0.444
       0.573
       0.695
       0.801
       0.888
       0.963
       1.032
       1.093
       1.139
       1.162
       1.155
       1.120
       1.067
       1.003
       0.929
       0.839
       0.731
       0.609
       0.478
       0.340
       0.193
       0.041
      -0.108
      -0.253
      -0.395
      -0.532
      -0.660
      -0.774
      -0.872
      -0.952
      -1.014
      -1.057
      -1.084
      -1.095
      -1.087
      -1.056
      -1.007
      -0.946
      -0.876
      -0.797
      -0.704
      -0.591
      -0.457
      -0.308
      -0.158
      -0.018
       0.108
       0.218
       0.317
       0.407
       0.491
       0.572
       0.652
       0.736
       0.831
       0.938
       1.052
       1.164
       1.268
       1.371
       1.480
       1.586
       1.672
       1.721
       1.719
       1.659
       1.540
       1.371
       1.163
       0.925
       0.660
       0.379
       0.093
      -0.184
      -0.445
      -0.687
      -0.904
      -1.092
      -1.248
      -1.371
      -1.457
      -1.507
      -1.526
      -1.519
      -1.491
      -1.442
      -1.372
      -1.282
      -1.172
      -1.042
      -0.896
      -0.738
      -0.572
      -0.399
      -0.228
      -0.072
       0.064
       0.177
       0.264
       0.318
       0.333
       0.312
       0.263
       0.190
       0.096
      -0.016
      -0.138
      -0.259
      -0.368
      -0.455
      -0.515
      -0.549
      -0.559
      -0.546
      -0.505
      -0.435
      -0.341
      -0.231
      -0.115
       0.002
       0.117
       0.232
       0.350
       0.471
       0.589
       0.695
       0.786
       0.853
       0.894
       0.904
       0.886
       0.844
       0.785
       0.711
       0.630
       0.544
       0.454
       0.358
       0.258
       0.164
       0.083
       0.015
      -0.038
      -0.074
      -0.094
      -0.103
      -0.111
      -0.123
      -0.139
      -0.158
      -0.179
      -0.204
      -0.229
      -0.248
      -0.255
      -0.245
      -0.220
      -0.186
      -0.151
      -0.120
      -0.091
      -0.068
      -0.061
      -0.077
      -0.112
      -0.156
      -0.199
      -0.235
      -0.263
      -0.285
      -0.299
      -0.304
      -0.291
      -0.259
      -0.208
      -0.147
      -0.086
      -0.026
       0.032
       0.085
       0.128
       0.158
       0.175
       0.180
       0.178
       0.176
       0.181
       0.190
       0.206
       0.237
       0.291
       0.365
       0.441
       0.499
       0.523
       0.511
       0.471
       0.415
       0.347
       0.264
       0.165
       0.064
      -0.017
      -0.064
      -0.078
      -0.074
      -0.069
      -0.068
      -0.073
      -0.084
      -0.104
      -0.139
      -0.195
      -0.270
      -0.352
      -0.423
      -0.472
      -0.493
      -0.478
      -0.424
      -0.341
      -0.241
      -0.138
      -0.038
       0.051
       0.122
       0.168
       0.192
       0.200
       0.202
       0.207
       0.216
       0.228
       0.239
       0.241
       0.235
       0.224
       0.211
       0.186
       0.138
       0.059
      -0.047
      -0.170
      -0.299
      -0.418
      -0.511
      -0.560
      -0.553
      -0.486
      -0.372
      -0.230
      -0.074
       0.086
       0.243
       0.381
       0.485
       0.552
       0.593
       0.621
       0.639
       0.647
       0.644
       0.637
       0.632
       0.633
       0.642
       0.656
       0.661
       0.644
       0.595
       0.510
       0.391
       0.244
       0.078
      -0.094
      -0.260
      -0.404
      -0.510
      -0.563
      -0.564
      -0.525
      -0.465
      -0.397
      -0.336
      -0.289
      -0.258
      -0.240
      -0.230
      -0.223
      -0.213
      -0.192
      -0.158
      -0.120
      -0.088
      -0.071
      -0.074
      -0.102
      -0.156
      -0.237
      -0.338
      -0.455
      -0.580
      -0.704
      -0.811
      -0.894
      -0.954
      -0.987
      -0.990
      -0.960
      -0.901
      -0.820
      -0.725
      -0.622
      -0.519
      -0.430
      -0.359
      -0.302
      -0.245
      -0.174
      -0.075
       0.062
       0.230
       0.415
       0.602
       0.780
       0.933
       1.043
       1.098
       1.096
       1.044
       0.955
       0.841
       0.716
       0.589
       0.467
       0.354
       0.258
       0.183
       0.129
       0.094
       0.074
       0.067
       0.066
       0.063
       0.058
       0.052
       0.046
       0.039
       0.034
       0.042
       0.075
       0.137
       0.228
       0.340
       0.464
       0.588
       0.700
       0.793
       0.859
       0.886
       0.866
       0.801
       0.708
       0.602
       0.492
       0.382
       0.273
       0.168
       0.068
      -0.024
      -0.106
      -0.179
      -0.243
      -0.294
      -0.321
      -0.318
      -0.288
      -0.243
      -0.194
      -0.155
      -0.138
      -0.153
      -0.201
      -0.286
      -0.407
      -0.568
      -0.762
      -0.979
      -1.202
      -1.418
      -1.614
      -1.771
      -1.878
      -1.926
      -1.910
      -1.825
      -1.672
      -1.461
      -1.209
      -0.931
      -0.643
      -0.360
      -0.090
       0.160
       0.388
       0.584
       0.735
       0.827
       0.853
       0.811
       0.706
       0.548
       0.355
       0.145
      -0.068
      -0.275
      -0.462
      -0.610
      -0.705
      -0.735
      -0.692
      -0.579
      -0.411
      -0.206
       0.024
       0.271
       0.524
       0.769
       0.988
       1.170
       1.314
       1.425
       1.510
       1.573
       1.611
       1.624
       1.615
       1.595
       1.566
       1.521
       1.442
       1.318
       1.142
       0.912
       0.631
       0.311
      -0.024
      -0.347
      -0.628
      -0.847
      -0.990
      -1.055
      -1.051
      -0.987
      -0.870
      -0.711
      -0.530
      -0.348
      -0.182
      -0.038
       0.076
       0.154
       0.194
       0.190
       0.141
       0.050
      -0.071
      -0.201
      -0.322
      -0.423
      -0.494
      -0.530
      -0.529
      -0.498
      -0.443
      -0.367
      -0.275
      -0.173
      -0.066
       0.045
       0.160
       0.273
       0.377
       0.467
       0.540
       0.587
       0.599
       0.568
       0.494
       0.378
       0.229
       0.061
      -0.106
      -0.259
      -0.385
      -0.476
      -0.522
      -0.521
      -0.480
      -0.411
      -0.325
      -0.225
      -0.118
      -0.012
       0.077
       0.133
       0.140
       0.088
      -0.023
      -0.181
      -0.371
      -0.564
      -0.726
      -0.823
      -0.835
      -0.762
      -0.617
      -0.419
      -0.184
       0.067
       0.322
       0.570
       0.806
       1.017
       1.191
       1.317
       1.393
       1.418
       1.397
       1.339
       1.253
       1.146
       1.017
       0.867
       0.698
       0.511
       0.306
       0.089
      -0.131
      -0.345
      -0.551
      -0.745
      -0.918
      -1.054
      -1.143
      -1.183
      -1.181
      -1.148
      -1.094
      -1.033
      -0.976
      -0.933
      -0.908
      -0.904
      -0.909
      -0.907
      -0.885
      -0.837
      -0.762
      -0.660
      -0.534
      -0.400
      -0.272
      -0.165
      -0.085
      -0.036
      -0.024
      -0.048
      -0.103
      -0.177
      -0.252
      -0.310
      -0.338
      -0.329
      -0.285
      -0.205
      -0.086
       0.072
       0.263
       0.469
       0.674
       0.860
       1.011
       1.117
       1.180
       1.206
       1.201
       1.170
       1.119
       1.057
       0.991
       0.917
       0.834
       0.739
       0.630
       0.510
       0.386
       0.275
       0.184
       0.116
       0.062
       0.019
      -0.019
      -0.052
      -0.082
      -0.111
      -0.145
      -0.188
      -0.244
      -0.306
      -0.365
      -0.418
      -0.472
      -0.532
      -0.601
      -0.674
      -0.739
      -0.785
      -0.800
      -0.776
      -0.714
      -0.618
      -0.495
      -0.348
      -0.187
      -0.020
       0.145
       0.301
       0.439
       0.550
       0.634
       0.693
       0.723
       0.717
       0.668
       0.569
       0.420
       0.229
       0.015
      -0.192
      -0.375
      -0.525
      -0.642
      -0.726
      -0.771
      -0.773
      -0.730
      -0.643
      -0.524
      -0.391
      -0.259
      -0.131
      -0.008
       0.107
       0.200
       0.259
       0.285
       0.289
       0.286
       0.284
       0.288
       0.294
       0.293
       0.281
       0.270
       0.274
       0.304
       0.359
       0.427
       0.492
       0.531
       0.530
       0.486
       0.408
       0.310
       0.205
       0.102
       0.009
      -0.067
      -0.126
      -0.169
      -0.196
      -0.211
      -0.218
      -0.219
      -0.217
      -0.217
      -0.227
      -0.252
      -0.292
      -0.351
      -0.433
      -0.539
      -0.663
      -0.786
      -0.891
      -0.963
      -0.991
      -0.969
      -0.892
      -0.768
      -0.608
      -0.430
      -0.252
      -0.094
       0.034
       0.133
       0.208
       0.264
       0.306
       0.340
       0.371
       0.393
       0.404
       0.399
       0.385
       0.365
       0.343
       0.321
       0.294
       0.253
       0.190
       0.105
       0.013
      -0.071
      -0.136
      -0.176
      -0.185
      -0.163
      -0.112
      -0.039
       0.051
       0.155
       0.271
       0.395
       0.514
       0.615
       0.675
       0.683
       0.639
       0.558
       0.459
       0.355
       0.253
       0.158
       0.074
       0.001
      -0.069
      -0.145
      -0.241
      -0.365
      -0.513
      -0.666
      -0.802
      -0.902
      -0.953
      -0.947
      -0.883
      -0.765
      -0.603
      -0.402
      -0.171
       0.078
       0.328
       0.563
       0.778
       0.965
       1.114
       1.214
       1.255
       1.232
       1.148
       1.012
       0.838
       0.642
       0.430
       0.206
      -0.023
      -0.246
      -0.452
      -0.636
      -0.792
      -0.915
      -0.998
      -1.036
      -1.018
      -0.933
      -0.774
      -0.544
      -0.257
       0.069
       0.404
       0.715
       0.967
       1.137
       1.208
       1.177
       1.054
       0.871
       0.665
       0.469
       0.298
       0.155
       0.036
      -0.067
      -0.164
      -0.258
      -0.347
      -0.428
      -0.503
      -0.572
      -0.638
      -0.700
      -0.756
      -0.804
      -0.838
      -0.852
      -0.842
      -0.806
      -0.741
      -0.651
      -0.547
      -0.443
      -0.351
      -0.272
      -0.206
      -0.153
      -0.116
      -0.095
      -0.085
      -0.074
      -0.047
       0.013
       0.111
       0.234
       0.368
       0.495
       0.604
       0.680
       0.713
       0.700
       0.651
       0.580
       0.496
       0.410
       0.329
       0.261
       0.208
       0.170
       0.141
       0.109
       0.060
      -0.007
      -0.082
      -0.149
      -0.200
      -0.240
      -0.274
      -0.299
      -0.307
      -0.289
      -0.238
      -0.160
      -0.071
       0.004
       0.048
       0.055
       0.028
      -0.031
      -0.121
      -0.238
      -0.368
      -0.493
      -0.591
      -0.643
      -0.639
      -0.581
      -0.478
      -0.337
      -0.166
       0.015
       0.180
       0.312
       0.403
       0.455
       0.477
       0.483
       0.486
       0.496
       0.518
       0.555
       0.609
       0.677
       0.742
       0.782
       0.774
       0.705
       0.570
       0.370
       0.122
      -0.151
      -0.420
      -0.654
      -0.821
      -0.896
      -0.876
      -0.776
      -0.622
      -0.443
      -0.259
      -0.088
       0.060
       0.179
       0.260
       0.296
       0.284
       0.231
       0.147
       0.051
      -0.036
      -0.086
      -0.077
      -0.011
       0.090
       0.198
       0.287
       0.339
       0.345
       0.298
       0.204
       0.075
      -0.073
      -0.216
      -0.324
      -0.371
      -0.343
      -0.239
      -0.069
       0.141
       0.349
       0.511
       0.594
       0.583
       0.485
       0.323
       0.127
      -0.073
      -0.252
      -0.396
      -0.490
      -0.521
      -0.485
      -0.388
      -0.246
      -0.078
       0.090
       0.228
       0.307
       0.311
       0.238
       0.092
      -0.113
      -0.354
      -0.600
      -0.817
      -0.976
      -1.053
      -1.041
      -0.951
      -0.812
      -0.655
      -0.509
      -0.392
      -0.319
      -0.291
      -0.291
      -0.294
      -0.273
      -0.208
      -0.087
       0.089
       0.310
       0.559
       0.813
       1.049
       1.238
       1.357
       1.395
       1.355
       1.239
       1.048
       0.787
       0.473
       0.132
      -0.208
      -0.526
      -0.807
      -1.038
      -1.213
      -1.330
      -1.385
      -1.380
      -1.321
      -1.216
      -1.072
      -0.893
      -0.679
      -0.431
      -0.146
       0.174
       0.519
       0.870
       1.206
       1.510
       1.763
       1.944
       2.033
       2.017
       1.890
       1.660
       1.348
       0.989
       0.617
       0.257
      -0.074
      -0.362
      -0.590
      -0.749
      -0.838
      -0.865
      -0.849
      -0.805
      -0.751
      -0.689
      -0.620
      -0.543
      -0.459
      -0.366
      -0.265
      -0.156
      -0.041
       0.077
       0.194
       0.302
       0.392
       0.458
       0.500
       0.516
       0.503
       0.459
       0.392
       0.324
       0.272
       0.244
       0.238
       0.250
       0.273
       0.297
       0.315
       0.319
       0.301
       0.251
       0.163
       0.037
      -0.119
      -0.293
      -0.463
      -0.608
      -0.711
      -0.767
      -0.782
      -0.763
      -0.719
      -0.664
      -0.617
      -0.600
      -0.624
      -0.693
      -0.798
      -0.922
      -1.040
      -1.132
      -1.177
      -1.153
      -1.041
      -0.836
      -0.555
      -0.229
       0.114
       0.444
       0.736
       0.959
       1.092
       1.126
       1.069
       0.944
       0.778
       0.599
       0.427
       0.271
       0.140
       0.044
      -0.011
      -0.020
       0.012
       0.077
       0.160
       0.234
       0.274
       0.265
       0.210
       0.121
       0.017
      -0.082
      -0.159
      -0.201
      -0.210
      -0.194
      -0.164
      -0.130
      -0.101
      -0.082
      -0.074
      -0.083
      -0.114
      -0.168
      -0.236
      -0.304
      -0.354
      -0.368
      -0.334
      -0.242
      -0.097
       0.084
       0.275
       0.448
       0.576
       0.644
       0.654
       0.619
       0.555
       0.474
       0.384
       0.296
       0.219
       0.161
       0.127
       0.122
       0.147
       0.194
       0.247
       0.289
       0.305
       0.279
       0.201
       0.071
      -0.097
      -0.282
      -0.464
      -0.615
      -0.709
      -0.735
      -0.697
      -0.614
      -0.510
      -0.414
      -0.352
      -0.337
      -0.363
      -0.410
      -0.456
      -0.483
      -0.473
      -0.412
      -0.298
      -0.141
       0.047
       0.250
       0.449
       0.621
       0.745
       0.806
       0.794
       0.702
       0.535
       0.313
       0.066
      -0.177
      -0.389
      -0.547
      -0.635
      -0.649
      -0.597
      -0.494
      -0.360
      -0.221
      -0.105
      -0.030
      -0.002
      -0.016
      -0.059
      -0.110
      -0.144
      -0.147
      -0.107
      -0.019
       0.118
       0.296
       0.492
       0.675
       0.817
       0.899
       0.908
       0.844
       0.721
       0.560
       0.381
       0.201
       0.035
      -0.100
      -0.194
      -0.246
      -0.260
      -0.247
      -0.220
      -0.195
      -0.183
      -0.187
      -0.204
      -0.226
      -0.246
      -0.250
      -0.229
      -0.175
      -0.084
       0.047
       0.213
       0.396
       0.562
       0.682
       0.732
       0.700
       0.583
       0.392
       0.154
      -0.100
      -0.339
      -0.542
      -0.686
      -0.756
      -0.747
      -0.671
      -0.552
      -0.421
      -0.304
      -0.212
      -0.139
      -0.080
      -0.041
      -0.032
      -0.053
      -0.089
      -0.116
      -0.114
      -0.074
       0.002
       0.105
       0.213
       0.307
       0.367
       0.378
       0.333
       0.239
       0.115
      -0.014
      -0.122
      -0.192
      -0.215
      -0.185
      -0.113
      -0.019
       0.078
       0.164
       0.228
       0.263
       0.263
       0.223
       0.146
       0.037
      -0.093
      -0.228
      -0.357
      -0.469
      -0.552
      -0.594
      -0.587
      -0.536
      -0.457
      -0.365
      -0.272
      -0.186
      -0.112
      -0.049
       0.010
       0.070
       0.136
       0.207
       0.282
       0.354
       0.417
       0.471
       0.521
       0.568
       0.599
       0.596
       0.549
       0.458
       0.332
       0.182
       0.023
      -0.131
      -0.275
      -0.414
      -0.546
      -0.668
      -0.771
      -0.850
      -0.904
      -0.927
      -0.911
      -0.846
      -0.722
      -0.540
      -0.308
      -0.049
       0.215
       0.464
       0.686
       0.867
       0.991
       1.050
       1.040
       0.960
       0.817
       0.627
       0.413
       0.202
       0.016
      -0.130
      -0.220
      -0.249
      -0.219
      -0.146
      -0.049
       0.054
       0.144
       0.208
       0.240
       0.236
       0.192
       0.111
       0.005
      -0.103
      -0.192
      -0.253
      -0.279
      -0.269
      -0.232
      -0.178
      -0.117
      -0.055
       0.000
       0.040
       0.059
       0.057
       0.040
       0.014
      -0.011
      -0.026
      -0.025
      -0.014
      -0.003
       0.001
       0.000
      -0.005
      -0.014
      -0.030
      -0.054
      -0.086
      -0.121
      -0.150
      -0.161
      -0.151
      -0.126
      -0.095
      -0.065
      -0.037
      -0.013
       0.008
       0.027
       0.039
       0.037
       0.010
      -0.043
      -0.116
      -0.196
      -0.270
      -0.323
      -0.345
      -0.333
      -0.289
      -0.215
      -0.110
       0.017
       0.147
       0.258
       0.333
       0.367
       0.360
       0.316
       0.238
       0.133
       0.011
      -0.119
      -0.252
      -0.381
      -0.499
      -0.597
      -0.660
      -0.673
      -0.631
      -0.544
      -0.425
      -0.288
      -0.152
      -0.038
       0.038
       0.074
       0.079
       0.066
       0.049
       0.037
       0.034
       0.038
       0.046
       0.052
       0.056
       0.059
       0.065
       0.082
       0.120
       0.180
       0.253
       0.331
       0.406
       0.472
       0.523
       0.559
       0.590
       0.627
