Origin Time       20/06/2011 06:27:18
Lat.              30.5 N	
Long.             79.4 E	
Depth (Km)         12.0
Magnitude         4.6
 Region           Chamoli-Uttarakhand                                              
 Above details taken from IMD 
     
Station Code      VIK
Station Lat.       30.453  N
Station Long.      77.754  E
Station Height(m)  465.0
Site Class        C   Vs30 between 200 m/sec to 375 m/sec *  
Record Time       20.06.2011 06:26:43.784
Sampling Rate     200. Hz
 Record Duration   83.205 Sec.
 Direction         E-W (E positive)
Max. Acceleration      2.369 cm/sec**2
     
  * For reference see Site Classification link of website 
     
 Base Line Corrected and Low Pass Filtered (Cut Off at 35 Hz) Time History
 Acceleration data in cm/sec**2
    
[...]
       0.097
       0.103
       0.080
       0.030
      -0.038
      -0.111
      -0.170
      -0.203
      -0.206
      -0.185
      -0.143
      -0.086
      -0.018
       0.051
       0.114
       0.170
       0.215
       0.246
       0.257
       0.249
       0.227
       0.197
       0.162
       0.129
       0.101
       0.081
       0.069
       0.064
       0.068
       0.075
       0.083
       0.094
       0.112
       0.131
       0.140
       0.127
       0.093
       0.049
       0.007
      -0.024
      -0.040
      -0.041
      -0.034
      -0.025
      -0.021
      -0.019
      -0.020
      -0.028
      -0.045
      -0.072
      -0.105
      -0.140
      -0.167
      -0.180
      -0.176
      -0.160
      -0.137
      -0.105
      -0.063
      -0.012
       0.044
       0.096
       0.135
       0.148
       0.131
       0.092
       0.044
      -0.006
      -0.057
      -0.108
      -0.154
      -0.190
      -0.216
      -0.225
      -0.212
      -0.175
      -0.118
      -0.055
       0.003
       0.044
       0.065
       0.072
       0.074
       0.081
       0.090
       0.097
       0.101
       0.104
       0.107
       0.105
       0.092
       0.067
       0.032
      -0.009
      -0.048
      -0.081
      -0.104
      -0.121
      -0.134
      -0.139
      -0.135
      -0.120
      -0.095
      -0.058
      -0.012
       0.034
       0.072
       0.095
       0.105
       0.100
       0.083
       0.059
       0.034
       0.009
      -0.022
      -0.054
      -0.079
      -0.084
      -0.064
      -0.018
       0.047
       0.117
       0.174
       0.203
       0.202
       0.176
       0.139
       0.103
       0.076
       0.057
       0.036
       0.008
      -0.024
      -0.047
      -0.054
      -0.046
      -0.029
      -0.007
       0.014
       0.031
       0.037
       0.030
       0.009
      -0.026
      -0.066
      -0.094
      -0.094
      -0.071
      -0.037
      -0.005
       0.023
       0.046
       0.063
       0.069
       0.066
       0.055
       0.036
       0.009
      -0.023
      -0.058
      -0.091
      -0.118
      -0.131
      -0.124
      -0.096
      -0.056
      -0.012
       0.027
       0.052
       0.062
       0.060
       0.053
       0.043
       0.027
       0.012
       0.006
       0.016
       0.036
       0.057
       0.073
       0.082
       0.087
       0.090
       0.089
       0.082
       0.064
       0.035
      -0.003
      -0.042
      -0.078
      -0.110
      -0.136
      -0.149
      -0.143
      -0.116
      -0.066
      -0.001
       0.067
       0.120
       0.142
       0.134
       0.098
       0.040
      -0.032
      -0.106
      -0.171
      -0.222
      -0.255
      -0.265
      -0.245
      -0.196
      -0.131
      -0.067
      -0.018
       0.010
       0.020
       0.018
       0.012
       0.003
      -0.011
      -0.030
      -0.047
      -0.055
      -0.051
      -0.035
      -0.007
       0.033
       0.080
       0.122
       0.153
       0.171
       0.177
       0.173
       0.163
       0.149
       0.126
       0.090
       0.049
       0.016
       0.005
       0.015
       0.042
       0.083
       0.131
       0.175
       0.207
       0.222
       0.222
       0.204
       0.164
       0.106
       0.036
      -0.037
      -0.106
      -0.159
      -0.185
      -0.186
      -0.177
      -0.172
      -0.175
      -0.176
      -0.167
      -0.145
      -0.113
      -0.081
      -0.058
      -0.045
      -0.039
      -0.034
      -0.026
      -0.012
       0.011
       0.043
       0.075
       0.099
       0.111
       0.113
       0.108
       0.099
       0.086
       0.064
       0.028
      -0.023
      -0.079
      -0.119
      -0.130
      -0.112
      -0.076
      -0.033
       0.009
       0.044
       0.066
       0.073
       0.071
       0.065
       0.060
       0.055
       0.051
       0.042
       0.027
       0.011
       0.003
       0.009
       0.026
       0.051
       0.080
       0.110
       0.132
       0.141
       0.135
       0.116
       0.083
       0.033
      -0.031
      -0.098
      -0.160
      -0.209
      -0.239
      -0.248
      -0.232
      -0.197
      -0.146
      -0.086
      -0.028
       0.019
       0.051
       0.071
       0.083
       0.085
       0.074
       0.050
       0.022
      -0.004
      -0.024
      -0.034
      -0.034
      -0.025
      -0.011
       0.005
       0.024
       0.043
       0.058
       0.068
       0.073
       0.073
       0.067
       0.057
       0.049
       0.046
       0.048
       0.053
       0.062
       0.075
       0.089
       0.097
       0.095
       0.083
       0.061
       0.031
       0.000
      -0.024
      -0.040
      -0.048
      -0.050
      -0.043
      -0.026
      -0.007
       0.010
       0.026
       0.043
       0.065
       0.086
       0.103
       0.110
       0.102
       0.075
       0.035
      -0.004
      -0.030
      -0.041
      -0.046
      -0.055
      -0.071
      -0.086
      -0.089
      -0.074
      -0.050
      -0.032
      -0.026
      -0.034
      -0.047
      -0.063
      -0.082
      -0.100
      -0.115
      -0.124
      -0.121
      -0.104
      -0.073
      -0.034
       0.001
       0.029
       0.057
       0.089
       0.122
       0.148
       0.159
       0.154
       0.133
       0.104
       0.076
       0.050
       0.022
      -0.008
      -0.030
      -0.032
      -0.011
       0.022
       0.052
       0.068
       0.067
       0.050
       0.020
      -0.017
      -0.061
      -0.108
      -0.157
      -0.203
      -0.240
      -0.267
      -0.281
      -0.279
      -0.260
      -0.230
      -0.194
      -0.154
      -0.114
      -0.080
      -0.057
      -0.048
      -0.051
      -0.064
      -0.087
      -0.115
      -0.138
      -0.150
      -0.147
      -0.132
      -0.102
      -0.061
      -0.014
       0.029
       0.063
       0.086
       0.094
       0.082
       0.051
       0.009
      -0.029
      -0.052
      -0.054
      -0.037
      -0.010
       0.019
       0.046
       0.073
       0.100
       0.124
       0.139
       0.145
       0.138
       0.113
       0.072
       0.020
      -0.030
      -0.071
      -0.097
      -0.104
      -0.093
      -0.070
      -0.041
      -0.011
       0.018
       0.043
       0.062
       0.076
       0.087
       0.096
       0.103
       0.107
       0.115
       0.131
       0.152
       0.172
       0.187
       0.190
       0.178
       0.150
       0.111
       0.064
       0.010
      -0.053
      -0.121
      -0.189
      -0.253
      -0.312
      -0.362
      -0.395
      -0.404
      -0.390
      -0.354
      -0.295
      -0.218
      -0.134
      -0.054
       0.020
       0.093
       0.168
       0.242
       0.312
       0.371
       0.420
       0.460
       0.495
       0.526
       0.548
       0.560
       0.566
       0.566
       0.558
       0.535
       0.492
       0.437
       0.378
       0.318
       0.258
       0.199
       0.145
       0.098
       0.054
       0.011
      -0.037
      -0.092
      -0.156
      -0.228
      -0.302
      -0.375
      -0.445
      -0.512
      -0.575
      -0.635
      -0.694
      -0.747
      -0.779
      -0.777
      -0.736
      -0.666
      -0.579
      -0.491
      -0.411
      -0.339
      -0.271
      -0.200
      -0.129
      -0.064
      -0.010
       0.037
       0.082
       0.128
       0.181
       0.247
       0.326
       0.409
       0.488
       0.557
       0.617
       0.660
       0.679
       0.668
       0.631
       0.570
       0.492
       0.402
       0.303
       0.195
       0.076
      -0.045
      -0.158
      -0.253
      -0.323
      -0.366
      -0.380
      -0.369
      -0.344
      -0.311
      -0.274
      -0.233
      -0.193
      -0.154
      -0.110
      -0.057
       0.007
       0.074
       0.137
       0.188
       0.220
       0.232
       0.222
       0.194
       0.150
       0.093
       0.030
      -0.034
      -0.099
      -0.164
      -0.228
      -0.281
      -0.313
      -0.321
      -0.307
      -0.272
      -0.218
      -0.152
      -0.082
      -0.017
       0.035
       0.070
       0.087
       0.093
       0.097
       0.099
       0.091
       0.066
       0.023
      -0.033
      -0.100
      -0.173
      -0.248
      -0.318
      -0.378
      -0.425
      -0.460
      -0.488
      -0.511
      -0.522
      -0.505
      -0.443
      -0.333
      -0.194
      -0.044
       0.105
       0.253
       0.400
       0.547
       0.682
       0.794
       0.871
       0.913
       0.927
       0.920
       0.890
       0.837
       0.772
       0.709
       0.655
       0.609
       0.565
       0.515
       0.455
       0.379
       0.294
       0.206
       0.121
       0.036
      -0.053
      -0.146
      -0.240
      -0.327
      -0.395
      -0.434
      -0.437
      -0.410
      -0.361
      -0.297
      -0.223
      -0.146
      -0.073
      -0.009
       0.043
       0.076
       0.088
       0.082
       0.069
       0.060
       0.061
       0.079
       0.119
       0.181
       0.258
       0.339
       0.415
       0.475
       0.505
       0.498
       0.452
       0.376
       0.279
       0.169
       0.051
      -0.073
      -0.200
      -0.329
      -0.453
      -0.564
      -0.656
      -0.730
      -0.794
      -0.860
      -0.938
      -1.033
      -1.135
      -1.227
      -1.301
      -1.358
      -1.405
      -1.434
      -1.433
      -1.385
      -1.282
      -1.121
      -0.911
      -0.669
      -0.415
      -0.164
       0.071
       0.278
       0.442
       0.560
       0.633
       0.672
       0.684
       0.673
       0.646
       0.608
       0.565
       0.518
       0.473
       0.434
       0.400
       0.374
       0.354
       0.338
       0.316
       0.277
       0.219
       0.152
       0.085
       0.026
      -0.019
      -0.043
      -0.044
      -0.025
       0.013
       0.069
       0.149
       0.251
       0.370
       0.493
       0.607
       0.702
       0.771
       0.815
       0.836
       0.835
       0.816
       0.786
       0.749
       0.705
       0.648
       0.577
       0.494
       0.404
       0.306
       0.202
       0.096
      -0.007
      -0.111
      -0.218
      -0.328
      -0.435
      -0.529
      -0.602
      -0.651
      -0.676
      -0.682
      -0.674
      -0.648
      -0.598
      -0.525
      -0.439
      -0.350
      -0.268
      -0.201
      -0.158
      -0.144
      -0.153
      -0.171
      -0.185
      -0.196
      -0.207
      -0.222
      -0.242
      -0.258
      -0.260
      -0.243
      -0.206
      -0.156
      -0.097
      -0.032
       0.030
       0.084
       0.126
       0.163
       0.193
       0.209
       0.202
       0.177
       0.145
       0.114
       0.083
       0.051
       0.017
      -0.017
      -0.043
      -0.053
      -0.044
      -0.012
       0.043
       0.123
       0.226
       0.339
       0.444
       0.523
       0.572
       0.587
       0.567
       0.512
       0.422
       0.302
       0.151
      -0.028
      -0.223
      -0.413
      -0.578
      -0.703
      -0.781
      -0.818
      -0.824
      -0.805
      -0.753
      -0.659
      -0.519
      -0.345
      -0.154
       0.038
       0.221
       0.389
       0.541
       0.680
       0.805
       0.907
       0.968
       0.973
       0.912
       0.782
       0.589
       0.349
       0.077
      -0.212
      -0.507
      -0.796
      -1.067
      -1.308
      -1.509
      -1.652
      -1.718
      -1.696
      -1.590
      -1.418
      -1.198
      -0.945
      -0.672
      -0.388
      -0.099
       0.188
       0.463
       0.719
       0.948
       1.144
       1.300
       1.410
       1.471
       1.487
       1.454
       1.369
       1.233
       1.058
       0.863
       0.669
       0.491
       0.336
       0.206
       0.099
       0.016
      -0.035
      -0.047
      -0.021
       0.031
       0.096
       0.163
       0.220
       0.256
       0.265
       0.249
       0.208
       0.146
       0.070
      -0.007
      -0.070
      -0.105
      -0.098
      -0.043
       0.056
       0.183
       0.321
       0.458
       0.589
       0.709
       0.813
       0.896
       0.951
       0.969
       0.944
       0.875
       0.770
       0.638
       0.484
       0.309
       0.119
      -0.083
      -0.296
      -0.518
      -0.747
      -0.976
      -1.194
      -1.389
      -1.550
      -1.675
      -1.764
      -1.816
      -1.822
      -1.770
      -1.665
      -1.525
      -1.367
      -1.200
      -1.019
      -0.824
      -0.621
      -0.422
      -0.248
      -0.115
      -0.028
       0.020
       0.042
       0.047
       0.043
       0.035
       0.031
       0.033
       0.043
       0.065
       0.102
       0.151
       0.209
       0.274
       0.348
       0.425
       0.500
       0.573
       0.650
       0.738
       0.835
       0.925
       0.988
       1.004
       0.961
       0.859
       0.707
       0.515
       0.292
       0.044
      -0.214
      -0.464
      -0.693
      -0.895
      -1.068
      -1.203
      -1.290
      -1.324
      -1.305
      -1.241
      -1.142
      -1.020
      -0.884
      -0.744
      -0.607
      -0.483
      -0.373
      -0.270
      -0.161
      -0.041
       0.093
       0.245
       0.424
       0.640
       0.890
       1.166
       1.453
       1.729
       1.975
       2.171
       2.305
       2.369
       2.356
       2.268
       2.113
       1.903
       1.651
       1.370
       1.073
       0.771
       0.473
       0.189
      -0.067
      -0.284
      -0.465
      -0.623
      -0.771
      -0.918
      -1.064
      -1.210
      -1.346
      -1.462
      -1.550
      -1.607
      -1.637
      -1.638
      -1.613
      -1.560
      -1.481
      -1.377
      -1.253
      -1.121
      -0.996
      -0.884
      -0.784
      -0.697
      -0.627
      -0.577
      -0.539
      -0.503
      -0.460
      -0.406
      -0.337
      -0.247
      -0.125
       0.034
       0.224
       0.429
       0.628
       0.808
       0.960
       1.080
       1.160
       1.191
       1.174
       1.117
       1.030
       0.922
       0.799
       0.673
       0.561
       0.479
       0.438
       0.438
       0.472
       0.526
       0.592
       0.664
       0.740
       0.810
       0.865
       0.895
       0.894
       0.855
       0.777
       0.668
       0.538
       0.395
       0.236
       0.057
      -0.139
      -0.352
      -0.576
      -0.804
      -1.022
      -1.212
      -1.358
      -1.445
      -1.466
      -1.420
      -1.318
      -1.176
      -1.006
      -0.820
      -0.630
      -0.451
      -0.293
      -0.164
      -0.072
      -0.021
      -0.015
      -0.051
      -0.118
      -0.198
      -0.269
      -0.308
      -0.292
      -0.213
      -0.071
       0.121
       0.338
       0.545
       0.709
       0.809
       0.832
       0.774
       0.634
       0.420
       0.153
      -0.139
      -0.424
      -0.671
      -0.851
      -0.944
      -0.943
      -0.848
      -0.663
      -0.402
      -0.090
       0.245
       0.570
       0.853
       1.067
       1.191
       1.218
       1.152
       1.004
       0.794
       0.548
       0.301
       0.080
      -0.097
      -0.222
      -0.295
      -0.322
      -0.315
      -0.282
      -0.228
      -0.162
      -0.094
      -0.038
       0.003
       0.030
       0.046
       0.053
       0.054
       0.050
       0.035
       0.008
      -0.030
      -0.071
      -0.107
      -0.133
      -0.150
      -0.160
      -0.172
      -0.198
      -0.245
      -0.308
      -0.376
      -0.436
      -0.479
      -0.509
      -0.533
      -0.559
      -0.586
      -0.605
      -0.608
      -0.590
      -0.553
      -0.497
      -0.420
      -0.319
      -0.191
      -0.036
       0.139
       0.319
       0.486
       0.631
       0.752
       0.853
       0.935
       0.993
       1.025
       1.025
       0.988
       0.917
       0.825
       0.732
       0.648
       0.572
       0.501
       0.438
       0.388
       0.354
       0.337
       0.337
       0.354
       0.386
       0.430
       0.478
       0.517
       0.531
       0.514
       0.467
       0.398
       0.308
       0.192
       0.048
      -0.122
      -0.310
      -0.501
      -0.683
      -0.842
      -0.970
      -1.060
      -1.108
      -1.114
      -1.078
      -1.007
      -0.911
      -0.790
      -0.645
      -0.478
      -0.298
      -0.119
       0.041
       0.161
       0.226
       0.230
       0.182
       0.092
      -0.020
      -0.136
      -0.238
      -0.320
      -0.384
      -0.427
      -0.443
      -0.426
      -0.376
      -0.302
      -0.211
      -0.111
      -0.006
       0.096
       0.189
       0.263
       0.309
       0.324
       0.311
       0.282
       0.245
       0.208
       0.176
       0.159
       0.159
       0.169
       0.181
       0.188
       0.187
       0.176
       0.149
       0.105
       0.041
      -0.045
      -0.151
      -0.273
      -0.404
      -0.537
      -0.664
      -0.773
      -0.854
      -0.898
      -0.896
      -0.838
      -0.714
      -0.524
      -0.281
      -0.001
       0.300
       0.603
       0.881
       1.110
       1.273
       1.369
       1.407
       1.398
       1.345
       1.240
       1.071
       0.831
       0.534
       0.204
      -0.134
      -0.460
      -0.756
      -1.003
      -1.191
      -1.320
      -1.395
      -1.419
      -1.392
      -1.315
      -1.193
      -1.032
      -0.844
      -0.638
      -0.426
      -0.214
      -0.005
       0.197
       0.389
       0.568
       0.725
       0.848
       0.929
       0.968
       0.972
       0.945
       0.892
       0.818
       0.733
       0.643
       0.552
       0.464
       0.383
       0.317
       0.266
       0.228
       0.203
       0.192
       0.190
       0.192
       0.189
       0.176
       0.142
       0.078
      -0.023
      -0.164
      -0.339
      -0.538
      -0.744
      -0.934
      -1.087
      -1.189
      -1.233
      -1.217
      -1.145
      -1.021
      -0.850
      -0.627
      -0.355
      -0.051
       0.255
       0.535
       0.769
       0.949
       1.074
       1.147
       1.170
       1.141
       1.060
       0.931
       0.768
       0.581
       0.380
       0.176
      -0.017
      -0.188
      -0.339
      -0.476
      -0.607
      -0.731
      -0.838
      -0.915
      -0.942
      -0.908
      -0.812
      -0.665
      -0.480
      -0.271
      -0.050
       0.174
       0.390
       0.587
       0.749
       0.866
       0.932
       0.952
       0.921
       0.832
       0.678
       0.476
       0.256
       0.046
      -0.142
      -0.309
      -0.464
      -0.614
      -0.759
      -0.893
      -1.005
      -1.085
      -1.127
      -1.127
      -1.082
      -0.995
      -0.872
      -0.720
      -0.537
      -0.327
      -0.099
       0.126
       0.324
       0.480
       0.585
       0.640
       0.653
       0.630
       0.580
       0.510
       0.429
       0.353
       0.295
       0.269
       0.281
       0.334
       0.415
       0.503
       0.578
       0.626
       0.641
       0.619
       0.565
