Origin Time       18/01/2011 20:23:27
Lat.              28.9 N	
Long.             64.0 E	
Depth (Km)          5.0
Magnitude         7.4
 Region           Southwestern-Pakistan                                            
 Above details taken from IMD 
    
Station Code       NTPC
Station Lat.       28.508  N
Station Long.      77.304  E
Station Height(m)  146.0
Site Class        C   Vs30 between 200 m/sec to 375 m/sec *  
Record Time        1/18/2011 ) 20:27:56.0
Sampling Rate     200. Hz
 Record Duration   86.000 Sec.
 Direction         N-S (N positive)
Max. Acceleration  16.839 cm/sec**2
     
  * For reference see Site Classification link of website 
     
 Base Line Corrected and Low Pass Filtered (Cut Off at 35 Hz) Time History
 Acceleration data in cm/sec**2
    
[...]
    4.235
    5.009
    5.885
    6.947
    8.134
    9.267
   10.169
   10.781
   11.179
   11.486
   11.783
   12.090
   12.402
   12.719
   13.032
   13.301
   13.446
   13.377
   13.038
   12.436
   11.612
   10.565
    9.216
    7.464
    5.305
    2.899
    0.527
   -1.542
   -3.151
   -4.298
   -5.110
   -5.798
   -6.554
   -7.453
   -8.415
   -9.271
   -9.890
  -10.273
  -10.555
  -10.891
  -11.322
  -11.725
  -11.903
  -11.716
  -11.148
  -10.281
   -9.228
   -8.094
   -6.969
   -5.920
   -4.958
   -4.001
   -2.886
   -1.449
    0.353
    2.358
    4.262
    5.794
    6.859
    7.553
    8.049
    8.475
    8.857
    9.150
    9.309
    9.328
    9.218
    8.997
    8.711
    8.472
    8.419
    8.623
    9.010
    9.399
    9.640
    9.699
    9.630
    9.452
    9.077
    8.357
    7.214
    5.743
    4.179
    2.745
    1.526
    0.452
   -0.577
   -1.573
   -2.426
   -2.995
   -3.221
   -3.208
   -3.171
   -3.289
   -3.596
   -3.987
   -4.346
   -4.651
   -4.973
   -5.365
   -5.774
   -6.069
   -6.134
   -5.937
   -5.500
   -4.830
   -3.908
   -2.773
   -1.580
   -0.569
    0.068
    0.285
    0.180
   -0.090
   -0.384
   -0.576
   -0.524
   -0.066
    0.900
    2.308
    3.909
    5.384
    6.521
    7.295
    7.841
    8.317
    8.787
    9.179
    9.354
    9.208
    8.742
    8.042
    7.206
    6.308
    5.405
    4.554
    3.817
    3.229
    2.775
    2.385
    1.962
    1.437
    0.814
    0.149
   -0.509
   -1.168
   -1.892
   -2.756
   -3.778
   -4.894
   -5.990
   -6.987
   -7.910
   -8.850
   -9.869
  -10.914
  -11.835
  -12.489
  -12.832
  -12.931
  -12.889
  -12.751
  -12.468
  -11.950
  -11.165
  -10.201
   -9.213
   -8.317
   -7.502
   -6.643
   -5.582
   -4.235
   -2.637
   -0.910
    0.820
    2.492
    4.117
    5.728
    7.306
    8.753
    9.914
   10.653
   10.918
   10.765
   10.334
    9.815
    9.390
    9.189
    9.264
    9.576
    9.999
   10.350
   10.452
   10.212
    9.669
    8.967
    8.278
    7.709
    7.259
    6.811
    6.184
    5.221
    3.885
    2.295
    0.670
   -0.782
   -1.967
   -2.913
   -3.701
   -4.379
   -4.941
   -5.391
   -5.811
   -6.341
   -7.103
   -8.123
   -9.324
  -10.593
  -11.831
  -12.965
  -13.923
  -14.612
  -14.948
  -14.927
  -14.672
  -14.370
  -14.131
  -13.888
  -13.441
  -12.592
  -11.284
   -9.638
   -7.895
   -6.283
   -4.920
   -3.797
   -2.813
   -1.840
   -0.789
    0.333
    1.415
    2.290
    2.852
    3.145
    3.340
    3.608
    3.997
    4.413
    4.702
    4.744
    4.509
    4.059
    3.532
    3.110
    2.935
    3.027
    3.234
    3.326
    3.149
    2.734
    2.242
    1.815
    1.453
    1.036
    0.461
   -0.237
   -0.904
   -1.381
   -1.612
   -1.655
   -1.606
   -1.511
   -1.358
   -1.118
   -0.816
   -0.566
   -0.571
   -1.039
   -2.057
   -3.466
   -4.876
   -5.810
   -5.932
   -5.187
   -3.806
   -2.168
   -0.638
    0.534
    1.227
    1.416
    1.138
    0.492
   -0.345
   -1.133
   -1.641
   -1.735
   -1.406
   -0.753
    0.049
    0.773
    1.219
    1.327
    1.236
    1.208
    1.438
    1.914
    2.431
    2.729
    2.637
    2.134
    1.329
    0.393
   -0.541
   -1.435
   -2.333
   -3.273
   -4.179
   -4.823
   -4.900
   -4.211
   -2.814
   -1.053
    0.588
    1.702
    2.134
    2.006
    1.597
    1.167
    0.818
    0.485
    0.055
   -0.484
   -1.001
   -1.302
   -1.259
   -0.869
   -0.235
    0.503
    1.220
    1.812
    2.178
    2.223
    1.899
    1.258
    0.461
   -0.289
   -0.859
   -1.272
   -1.677
   -2.214
   -2.871
   -3.482
   -3.852
   -3.908
   -3.739
   -3.504
   -3.297
   -3.092
   -2.782
   -2.275
   -1.557
   -0.685
    0.257
    1.202
    2.101
    2.921
    3.671
    4.406
    5.156
    5.825
    6.179
    5.986
    5.224
    4.174
    3.265
    2.769
    2.611
    2.475
    2.135
    1.683
    1.471
    1.808
    2.715
    3.913
    5.020
    5.779
    6.143
    6.241
    6.253
    6.290
    6.347
    6.314
    6.034
    5.356
    4.208
    2.669
    0.973
   -0.577
   -1.764
   -2.561
   -3.104
   -3.548
   -3.934
   -4.165
   -4.119
   -3.784
   -3.317
   -2.946
   -2.822
   -2.918
   -3.072
   -3.122
   -3.025
   -2.851
   -2.681
   -2.501
   -2.219
   -1.785
   -1.302
   -0.977
   -0.967
   -1.249
   -1.630
   -1.874
   -1.820
   -1.426
   -0.739
    0.153
    1.153
    2.190
    3.230
    4.247
    5.153
    5.762
    5.849
    5.283
    4.161
    2.823
    1.723
    1.198
    1.301
    1.799
    2.329
    2.620
    2.617
    2.474
    2.432
    2.674
    3.246
    4.078
    5.080
    6.209
    7.462
    8.776
    9.956
   10.711
   10.791
   10.153
    9.004
    7.669
    6.397
    5.253
    4.193
    3.177
    2.227
    1.387
    0.667
    0.034
   -0.578
   -1.262
   -2.113
   -3.176
   -4.369
   -5.493
   -6.319
   -6.717
   -6.741
   -6.595
   -6.518
   -6.669
   -7.074
   -7.644
   -8.232
   -8.681
   -8.877
   -8.805
   -8.552
   -8.227
   -7.856
   -7.333
   -6.524
   -5.428
   -4.238
   -3.226
   -2.517
   -1.985
   -1.362
   -0.496
    0.510
    1.391
    1.946
    2.200
    2.354
    2.607
    2.984
    3.324
    3.408
    3.152
    2.664
    2.154
    1.759
    1.481
    1.257
    1.089
    1.086
    1.346
    1.815
    2.260
    2.420
    2.182
    1.637
    0.973
    0.330
   -0.244
   -0.729
   -1.058
   -1.142
   -0.941
   -0.509
    0.036
    0.573
    1.004
    1.245
    1.237
    0.986
    0.607
    0.281
    0.159
    0.270
    0.526
    0.823
    1.124
    1.444
    1.744
    1.876
    1.654
    1.006
    0.050
   -0.991
   -1.947
   -2.775
   -3.511
   -4.159
   -4.640
   -4.847
   -4.750
   -4.481
   -4.329
   -4.607
   -5.481
   -6.844
   -8.360
   -9.621
  -10.327
  -10.348
   -9.689
   -8.426
   -6.697
   -4.735
   -2.845
   -1.294
   -0.192
    0.536
    1.099
    1.731
    2.597
    3.715
    4.924
    5.927
    6.397
    6.122
    5.111
    3.617
    2.047
    0.778
   -0.013
   -0.411
   -0.654
   -0.954
   -1.373
   -1.829
   -2.184
   -2.376
   -2.476
   -2.640
   -2.985
   -3.466
   -3.872
   -3.925
   -3.440
   -2.445
   -1.184
    0.015
    0.927
    1.555
    2.081
    2.720
    3.556
    4.502
    5.338
    5.832
    5.850
    5.438
    4.805
    4.211
    3.837
    3.709
    3.729
    3.777
    3.804
    3.850
    3.999
    4.315
    4.812
    5.440
    6.099
    6.653
    6.973
    6.985
    6.712
    6.248
    5.697
    5.089
    4.362
    3.400
    2.125
    0.573
   -1.077
   -2.572
   -3.703
   -4.381
   -4.650
   -4.639
   -4.497
   -4.348
   -4.284
   -4.367
   -4.616
   -4.993
   -5.400
   -5.694
   -5.760
   -5.611
   -5.420
   -5.428
   -5.758
   -6.298
   -6.751
   -6.818
   -6.344
   -5.348
   -3.933
   -2.206
   -0.270
    1.725
    3.569
    5.035
    5.985
    6.438
    6.548
    6.500
    6.417
    6.329
    6.184
    5.883
    5.334
    4.525
    3.558
    2.623
    1.915
    1.546
    1.493
    1.619
    1.754
    1.775
    1.656
    1.461
    1.311
    1.319
    1.526
    1.881
    2.279
    2.636
    2.930
    3.200
    3.497
    3.837
    4.171
    4.392
    4.408
    4.224
    3.974
    3.849
    3.990
    4.427
    5.103
    5.970
    7.031
    8.278
    9.590
   10.725
   11.447
   11.655
   11.398
   10.755
    9.722
    8.226
    6.248
    3.944
    1.627
   -0.372
   -1.882
   -2.976
   -3.904
   -4.923
   -6.152
   -7.541
   -8.932
  -10.153
  -11.075
  -11.628
  -11.795
  -11.635
  -11.300
  -11.004
  -10.916
  -11.049
  -11.245
  -11.272
  -10.963
  -10.304
   -9.409
   -8.436
   -7.493
   -6.608
   -5.749
   -4.853
   -3.837
   -2.614
   -1.120
    0.625
    2.482
    4.220
    5.595
    6.441
    6.734
    6.582
    6.136
    5.508
    4.745
    3.878
    2.970
    2.136
    1.517
    1.245
    1.383
    1.885
    2.586
    3.251
    3.662
    3.704
    3.405
    2.888
    2.273
    1.593
    0.794
   -0.187
   -1.321
   -2.476
   -3.475
   -4.167
   -4.456
   -4.293
   -3.674
   -2.650
   -1.359
   -0.019
    1.111
    1.828
    2.059
    1.894
    1.530
    1.167
    0.880
    0.589
    0.129
   -0.602
   -1.562
   -2.576
   -3.419
   -3.912
   -4.002
   -3.796
   -3.522
   -3.394
   -3.461
   -3.558
   -3.416
   -2.860
   -1.955
   -1.007
   -0.412
   -0.440
   -1.102
   -2.169
   -3.309
   -4.253
   -4.907
   -5.347
   -5.729
   -6.148
   -6.581
   -6.910
   -7.007
   -6.774
   -6.147
   -5.118
   -3.776
   -2.339
   -1.096
   -0.266
    0.116
    0.190
    0.129
   -0.027
   -0.409
   -1.194
   -2.418
   -3.880
   -5.228
   -6.135
   -6.456
   -6.250
   -5.698
   -4.982
   -4.203
   -3.390
   -2.548
   -1.704
   -0.923
   -0.276
    0.215
    0.605
    0.990
    1.421
    1.852
    2.163
    2.278
    2.272
    2.363
    2.797
    3.686
    4.926
    6.250
    7.369
    8.101
    8.402
    8.314
    7.908
    7.261
    6.473
    5.676
    5.002
    4.527
    4.192
    3.804
    3.131
    2.025
    0.496
   -1.299
   -3.122
   -4.724
   -5.906
   -6.562
   -6.702
   -6.448
   -6.023
   -5.689
   -5.639
   -5.877
   -6.210
   -6.364
   -6.170
   -5.697
   -5.204
   -4.946
   -4.962
   -5.035
   -4.854
   -4.244
   -3.260
   -2.101
   -0.965
    0.031
    0.844
    1.440
    1.768
    1.812
    1.663
    1.534
    1.664
    2.167
    2.940
    3.718
    4.224
    4.326
    4.085
    3.668
    3.203
    2.700
    2.080
    1.298
    0.419
   -0.404
   -1.001
   -1.245
   -1.093
   -0.600
    0.082
    0.756
    1.262
    1.564
    1.791
    2.176
    2.904
    3.987
    5.225
    6.310
    6.967
    7.084
    6.730
    6.097
    5.383
    4.690
    3.988
    3.179
    2.215
    1.174
    0.238
   -0.412
   -0.708
   -0.737
   -0.659
   -0.585
   -0.506
   -0.346
   -0.076
    0.212
    0.354
    0.246
   -0.055
   -0.382
   -0.618
   -0.829
   -1.213
   -1.905
   -2.812
   -3.638
   -4.058
   -3.903
   -3.214
   -2.176
   -0.993
    0.215
    1.426
    2.662
    3.887
    4.949
    5.614
    5.689
    5.165
    4.267
    3.359
    2.746
    2.524
    2.574
    2.677
    2.654
    2.433
    2.049
    1.586
    1.133
    0.751
    0.451
    0.192
   -0.087
   -0.420
   -0.773
   -1.043
   -1.116
   -0.932
   -0.523
    0.003
    0.503
    0.845
    0.939
    0.768
    0.400
   -0.015
   -0.299
   -0.335
   -0.153
    0.069
    0.102
   -0.181
   -0.711
   -1.223
   -1.394
   -1.011
   -0.071
    1.242
    2.686
    4.077
    5.329
    6.391
    7.188
    7.631
    7.682
    7.401
    6.922
    6.394
    5.934
    5.647
    5.648
    6.057
    6.904
    8.045
    9.155
    9.856
    9.900
    9.273
    8.152
    6.753
    5.216
    3.609
    2.002
    0.509
   -0.751
   -1.739
   -2.525
   -3.255
   -4.074
   -5.079
   -6.295
   -7.665
   -9.045
  -10.234
  -11.035
  -11.331
  -11.113
  -10.466
   -9.497
   -8.284
   -6.870
   -5.305
   -3.691
   -2.174
   -0.892
    0.113
    0.937
    1.758
    2.700
    3.725
    4.646
    5.250
    5.443
    5.317
    5.106
    5.039
    5.207
    5.535
    5.860
    6.047
    6.056
    5.922
    5.686
    5.346
    4.845
    4.133
    3.244
    2.331
    1.599
    1.178
    1.048
    1.050
    0.978
    0.696
    0.204
   -0.371
   -0.857
   -1.135
   -1.195
   -1.124
   -1.061
   -1.123
   -1.366
   -1.783
   -2.334
   -2.995
   -3.786
   -4.746
   -5.863
   -6.999
   -7.893
   -8.260
   -7.946
   -7.022
   -5.778
   -4.599
   -3.818
   -3.599
   -3.896
   -4.503
   -5.154
   -5.622
   -5.767
   -5.552
   -5.041
   -4.384
   -3.767
   -3.331
   -3.101
   -2.986
   -2.855
   -2.614
   -2.232
   -1.691
   -0.963
   -0.040
    0.996
    1.955
    2.609
    2.809
    2.566
    2.031
    1.415
    0.904
    0.603
    0.525
    0.614
    0.778
    0.928
    1.030
    1.137
    1.339
    1.663
    2.018
    2.241
    2.213
    1.943
    1.564
    1.232
    1.015
    0.829
    0.483
   -0.201
   -1.267
   -2.568
   -3.834
   -4.809
   -5.389
   -5.684
   -5.930
   -6.314
   -6.839
   -7.330
   -7.585
   -7.520
   -7.205
   -6.762
   -6.244
   -5.583
   -4.687
   -3.563
   -2.374
   -1.343
   -0.613
   -0.177
    0.065
    0.192
    0.204
    0.066
   -0.223
   -0.599
   -0.978
   -1.300
   -1.523
   -1.561
   -1.259
   -0.478
    0.756
    2.160
    3.298
    3.834
    3.752
    3.381
    3.194
    3.509
    4.292
    5.208
    5.848
    5.970
    5.593
    4.928
    4.221
    3.641
    3.251
    3.026
    2.879
    2.681
    2.315
    1.752
    1.086
    0.494
    0.122
   -0.015
   -0.068
   -0.287
   -0.882
   -1.875
   -3.059
   -4.104
   -4.759
   -5.004
   -5.032
   -5.110
   -5.409
   -5.922
   -6.483
   -6.866
   -6.885
   -6.443
   -5.560
   -4.386
   -3.183
   -2.232
   -1.714
   -1.639
   -1.866
   -2.189
   -2.395
   -2.307
   -1.810
   -0.888
    0.351
    1.679
    2.796
    3.432
    3.453
    2.902
    1.951
    0.823
   -0.277
   -1.192
   -1.827
   -2.139
   -2.098
   -1.673
   -0.851
    0.300
    1.608
    2.819
    3.687
    4.063
    3.957
    3.528
    3.022
    2.688
    2.697
    3.084
    3.720
    4.363
    4.762
    4.777
    4.427
    3.856
    3.241
    2.719
    2.337
    2.078
    1.938
    1.980
    2.296
    2.915
    3.736
    4.562
    5.206
    5.561
    5.593
    5.270
    4.541
    3.412
    2.023
    0.636
   -0.524
   -1.439
   -2.346
   -3.586
   -5.372
   -7.634
  -10.053
  -12.244
  -13.952
  -15.112
  -15.762
  -15.934
  -15.621
  -14.839
  -13.686
  -12.335
  -10.968
   -9.716
   -8.623
   -7.656
   -6.725
   -5.726
   -4.587
   -3.315
   -2.007
   -0.797
    0.234
    1.107
    1.912
    2.734
    3.617
    4.582
    5.663
    6.914
    8.390
   10.110
   12.010
   13.912
   15.533
   16.572
   16.839
   16.366
   15.424
   14.389
   13.553
   13.016
   12.733
   12.629
   12.647
   12.693
   12.580
   12.063
   10.967
    9.302
    7.247
    5.017
    2.734
    0.420
   -1.900
   -4.107
   -6.008
   -7.448
   -8.388
   -8.899
   -9.097
   -9.085
   -8.944
   -8.744
   -8.548
   -8.418
   -8.405
   -8.525
   -8.731
   -8.910
   -8.940
   -8.768
   -8.457
   -8.124
   -7.803
   -7.363
   -6.587
   -5.370
   -3.849
   -2.348
   -1.171
   -0.413
    0.056
    0.448
    0.898
    1.410
    1.929
    2.421
    2.881
    3.280
    3.527
    3.524
    3.225
    2.652
    1.848
    0.838
   -0.343
   -1.586
   -2.682
   -3.384
   -3.524
   -3.068
   -2.084
   -0.676
    1.011
    2.749
    4.239
    5.236
    5.720
    5.938
    6.258
    6.908
    7.789
    8.522
    8.707
    8.207
    7.256
    6.310
    5.767
    5.746
    6.050
    6.307
    6.200
    5.630
    4.727
    3.720
    2.776
    1.926
    1.085
    0.139
   -0.969
   -2.194
   -3.387
   -4.361
   -4.991
   -5.307
   -5.495
   -5.789
   -6.313
   -6.992
   -7.619
   -8.005
   -8.089
   -7.928
   -7.588
   -7.071
   -6.334
   -5.365
   -4.243
   -3.124
   -2.183
   -1.541
   -1.211
   -1.100
   -1.056
   -0.945
   -0.693
   -0.297
    0.195
    0.709
    1.150
    1.440
    1.574
    1.658
    1.854
    2.256
    2.810
    3.356
    3.752
    3.967
    4.042
    4.014
    3.893
    3.720
    3.610
    3.691
    3.975
    4.289
    4.384
    4.161
    3.796
    3.620
    3.832
    4.310
    4.706
    4.743
    4.450
    4.094
    3.902
    3.827
    3.576
    2.861
    1.638
    0.137
   -1.302
   -2.434
   -3.197
   -3.684
   -4.022
   -4.261
   -4.356
   -4.251
   -3.994
   -3.779
   -3.862
   -4.394
   -5.302
   -6.300
   -7.048
   -7.340
   -7.199
   -6.805
   -6.327
   -5.817
   -5.235
   -4.546
   -3.781
   -3.004
   -2.228
   -1.404
   -0.487
    0.483
    1.386
    2.120
    2.706
    3.285
    3.987
    4.817
    5.646
    6.334
    6.857
    7.335
    7.911
    8.590
    9.163
    9.310
    8.840
    7.870
    6.801
    6.066
    5.838
    5.906
    5.838
    5.294
    4.262
    3.054
    2.074
    1.556
    1.445
    1.497
    1.476
    1.283
    0.932
    0.454
   -0.171
   -0.971
   -1.905
   -2.858
   -3.716
   -4.459
   -5.155
   -5.874
   -6.595
   -7.217
   -7.662
   -7.971
   -8.278
   -8.675
   -9.096
   -9.343
   -9.236
   -8.738
   -7.967
   -7.087
   -6.206
   -5.351
   -4.508
   -3.668
   -2.846
   -2.085
   -1.459
   -1.045
   -0.861
   -0.814
   -0.732
   -0.495
   -0.147
    0.122
    0.150
   -0.032
   -0.179
   -0.009
    0.596
    1.523
    2.553
    3.536
    4.453
    5.330
    6.113
    6.634
    6.704
    6.245
    5.374
    4.374
    3.593
    3.305
    3.600
    4.341
    5.214
    5.873
    6.099
    5.882
    5.386
    4.825
    4.338
    3.955
    3.615
    3.214
    2.652
    1.883
    0.948
   -0.035
   -0.931
   -1.667
   -2.267
   -2.838
   -3.509
   -4.325
   -5.197
   -5.926
   -6.320
   -6.335
   -6.138
   -6.026
   -6.221
   -6.680
   -7.082
   -7.022
   -6.285
   -4.980
   -3.457
   -2.098
   -1.146
   -0.641
   -0.464
   -0.437
   -0.426
   -0.397
   -0.391
   -0.443
   -0.520
   -0.526
   -0.359
    0.008
    0.513
    1.045
    1.509
    1.856
    2.077
    2.192
    2.243
    2.267
    2.253
    2.121
    1.761
    1.126
    0.293
   -0.546
   -1.170
   -1.436
   -1.339
   -1.004
   -0.605
   -0.279
   -0.084
   -0.009
   -0.008
   -0.017
    0.035
    0.210
    0.546
    1.034
    1.630
    2.283
    2.942
    3.546
    3.998
    4.183
    4.032
    3.571
    2.929
    2.281
    1.800
    1.628
    1.834
    2.340
    2.899
    3.197
    3.065
    2.624
    2.216
    2.156
    2.489
    2.965
    3.232
    3.082
    2.543
    1.792
    1.001
    0.254
   -0.437
   -1.075
   -1.647
   -2.137
   -2.542
   -2.857
   -3.058
   -3.130
   -3.110
   -3.109
   -3.258
   -3.615
   -4.104
   -4.547
   -4.768
   -4.697
   -4.377
   -3.888
   -3.276
   -2.546
   -1.741
   -0.987
   -0.460
   -0.282
   -0.423
   -0.687
   -0.807
   -0.593
   -0.028
    0.765
    1.640
    2.526
    3.418
    4.280
    4.968
    5.255
    4.955
    4.075
    2.869
    1.723
    0.937
    0.564
    0.423
    0.268
   -0.029
   -0.423
   -0.782
   -1.018
   -1.164
   -1.341
   -1.656
   -2.116
   -2.623
   -3.043
   -3.270
   -3.259
   -3.028
   -2.655
   -2.247
   -1.879
   -1.564
   -1.268
   -0.978
   -0.751
   -0.714
   -0.994
   -1.618
   -2.449
   -3.222
   -3.691
   -3.753
   -3.485
   -3.039
   -2.536
   -2.051
   -1.680
   -1.566
   -1.795
   -2.236
   -2.510
   -2.190
   -1.105
    0.503
    2.128
    3.329
    3.994
    4.315
    4.546
    4.762
    4.834
    4.593
    4.004
    3.200
    2.383
    1.725
    1.324
    1.222
    1.403
    1.775
    2.155
    2.322
    2.122
    1.581
    0.934
    0.523
    0.591
    1.108
    1.744
    2.052
    1.758
    0.955
    0.042
   -0.542
   -0.592
   -0.219
    0.287
    0.658
    0.790
    0.745
    0.674
    0.697
    0.816
    0.893
    0.722
    0.154
   -0.794
   -1.908
   -2.855
   -3.337
   -3.255
   -2.750
   -2.115
   -1.619
   -1.368
   -1.274
   -1.150
   -0.869
   -0.463
   -0.103
    0.044
   -0.079
   -0.395
   -0.767
   -1.068
   -1.199
   -1.086
   -0.682
    0.002
    0.872
    1.765
    2.499
    2.944
    3.089
    3.069
    3.093
    3.314
    3.697
    4.021
    4.031
    3.629
    2.951
    2.253
    1.725
    1.382
    1.120
    0.835
    0.526
    0.276
    0.176
    0.256
    0.493
    0.833
    1.212
    1.525
    1.621
    1.367
    0.763
   -0.006
   -0.666
   -1.050
   -1.249
   -1.560
   -2.269
   -3.430
   -4.816
   -6.091
   -7.042
   -7.685
   -8.161
   -8.537
   -8.702
   -8.427
   -7.560
   -6.154
   -4.459
   -2.799
   -1.452
   -0.595
   -0.282
   -0.411
   -0.710
   -0.827
   -0.481
