Origin Time       24/2/2010 19:20:52	
Lat.              28.6 N	
Long.             76.9 E	
Depth (Km)         17.0
Magnitude         2.5
 Region           Rohtak                                                           
 Above details taken from IMD 
    
Station Code       JNU 
Station Lat.       28.589  N
Station Long.      77.168  E
Station Height(m)  170.0
Site Class        A   Vs30 between 700 m/sec to 1620 m/sec * 
Record Time        2/24/2010 ) 19:20:09.0
Sampling Rate     200. Hz
 Record Duration  102.000 Sec.
 Direction         N-S (N positive)
Max. Acceleration -13.773 cm/sec**2
     
  * For reference see Site Classification link of website 
     
 Base Line Corrected and Low Pass Filtered (Cut Off at 35 Hz) Time History
 Acceleration data in cm/sec**2
    
[...]
    0.009
    0.013
    0.009
   -0.002
   -0.012
   -0.013
   -0.008
   -0.002
    0.002
    0.006
    0.010
    0.008
   -0.001
   -0.009
   -0.010
   -0.004
    0.002
    0.003
    0.001
    0.000
    0.000
    0.002
    0.003
    0.003
    0.003
    0.003
    0.002
    0.000
   -0.004
   -0.008
   -0.008
   -0.007
   -0.003
    0.001
    0.005
    0.007
    0.005
    0.002
    0.000
   -0.001
   -0.001
   -0.001
    0.000
    0.001
    0.000
   -0.002
   -0.004
   -0.006
   -0.006
   -0.006
   -0.006
   -0.004
   -0.001
    0.001
    0.003
    0.003
    0.002
    0.000
   -0.005
   -0.009
   -0.012
   -0.010
   -0.008
   -0.006
   -0.002
    0.005
    0.011
    0.008
   -0.002
   -0.008
   -0.006
    0.000
    0.002
   -0.001
   -0.004
   -0.004
   -0.002
   -0.003
   -0.008
   -0.011
   -0.008
    0.002
    0.012
    0.013
    0.003
   -0.009
   -0.013
   -0.006
    0.004
    0.011
    0.012
    0.009
    0.005
    0.000
   -0.001
   -0.001
   -0.002
   -0.003
   -0.005
   -0.005
   -0.003
    0.000
    0.003
    0.003
    0.001
   -0.002
   -0.002
    0.002
    0.006
    0.004
   -0.001
   -0.006
   -0.007
   -0.005
   -0.002
   -0.001
   -0.002
   -0.002
   -0.003
   -0.004
   -0.006
   -0.007
   -0.006
   -0.004
   -0.002
    0.001
    0.005
    0.005
    0.000
   -0.008
   -0.014
   -0.013
   -0.007
   -0.001
    0.003
    0.007
    0.010
    0.012
    0.011
    0.004
   -0.006
   -0.011
   -0.009
   -0.001
    0.006
    0.009
    0.008
    0.007
    0.008
    0.011
    0.011
    0.006
   -0.003
   -0.007
   -0.001
    0.011
    0.020
    0.020
    0.011
   -0.002
   -0.011
   -0.010
    0.001
    0.010
    0.008
   -0.003
   -0.012
   -0.011
   -0.003
    0.002
    0.001
   -0.003
   -0.005
   -0.003
    0.003
    0.010
    0.013
    0.010
    0.003
   -0.005
   -0.012
   -0.013
   -0.008
    0.001
    0.006
    0.008
    0.007
    0.006
    0.006
    0.005
    0.002
    0.000
   -0.001
    0.000
    0.003
    0.007
    0.010
    0.011
    0.010
    0.005
    0.000
   -0.002
    0.002
    0.010
    0.015
    0.014
    0.006
   -0.005
   -0.012
   -0.011
   -0.003
    0.005
    0.007
    0.002
   -0.006
   -0.008
   -0.003
    0.004
    0.007
    0.003
   -0.002
   -0.005
   -0.003
    0.003
    0.006
    0.006
    0.004
    0.003
    0.002
    0.000
   -0.004
   -0.008
   -0.006
    0.001
    0.009
    0.010
    0.005
   -0.004
   -0.009
   -0.010
   -0.009
   -0.005
    0.000
    0.008
    0.013
    0.012
    0.005
   -0.003
   -0.007
   -0.006
   -0.002
    0.002
    0.003
    0.002
    0.003
    0.004
    0.004
    0.004
    0.003
    0.002
    0.002
    0.003
    0.003
    0.002
    0.002
    0.005
    0.008
    0.005
   -0.002
   -0.007
   -0.003
    0.009
    0.016
    0.010
   -0.005
   -0.013
   -0.007
    0.006
    0.012
    0.005
   -0.009
   -0.018
   -0.014
   -0.001
    0.010
    0.010
    0.001
   -0.007
   -0.008
    0.000
    0.008
    0.008
    0.001
   -0.006
   -0.006
   -0.002
    0.002
    0.001
   -0.001
   -0.001
    0.002
    0.004
    0.004
    0.001
   -0.004
   -0.008
   -0.006
    0.000
    0.006
    0.006
    0.001
   -0.002
    0.002
    0.010
    0.016
    0.015
    0.006
   -0.004
   -0.008
   -0.004
    0.003
    0.006
    0.005
    0.002
    0.000
   -0.001
    0.000
    0.001
    0.000
   -0.001
    0.000
    0.005
    0.012
    0.015
    0.009
   -0.003
   -0.012
   -0.014
   -0.008
    0.002
    0.013
    0.019
    0.016
    0.005
   -0.008
   -0.016
   -0.017
   -0.012
   -0.002
    0.007
    0.012
    0.012
    0.009
    0.004
   -0.002
   -0.006
   -0.006
   -0.003
    0.001
    0.004
    0.004
    0.001
   -0.003
   -0.004
   -0.003
    0.000
    0.001
    0.000
   -0.003
   -0.007
   -0.011
   -0.012
   -0.008
   -0.002
    0.006
    0.012
    0.014
    0.010
    0.001
   -0.008
   -0.013
   -0.013
   -0.007
    0.005
    0.019
    0.026
    0.021
    0.005
   -0.013
   -0.020
   -0.012
    0.004
    0.015
    0.014
    0.004
   -0.007
   -0.008
   -0.001
    0.006
    0.008
    0.006
    0.005
    0.004
    0.003
    0.005
    0.010
    0.014
    0.009
   -0.003
   -0.013
   -0.014
   -0.007
    0.001
    0.005
    0.006
    0.008
    0.013
    0.017
    0.015
    0.006
   -0.008
   -0.018
   -0.018
   -0.005
    0.014
    0.023
    0.014
   -0.005
   -0.020
   -0.021
   -0.010
    0.005
    0.015
    0.014
    0.005
   -0.009
   -0.021
   -0.028
   -0.025
   -0.012
    0.004
    0.016
    0.019
    0.014
    0.004
   -0.008
   -0.018
   -0.019
   -0.010
    0.001
    0.008
    0.011
    0.011
    0.009
    0.003
   -0.004
   -0.006
    0.000
    0.015
    0.026
    0.025
    0.010
   -0.006
   -0.013
   -0.011
   -0.008
   -0.007
   -0.003
    0.007
    0.018
    0.021
    0.014
    0.001
   -0.010
   -0.015
   -0.013
   -0.006
    0.001
    0.004
    0.005
    0.007
    0.009
    0.007
   -0.002
   -0.015
   -0.023
   -0.021
   -0.012
    0.002
    0.016
    0.028
    0.030
    0.018
   -0.007
   -0.029
   -0.033
   -0.017
    0.006
    0.023
    0.026
    0.019
    0.007
   -0.004
   -0.009
   -0.005
    0.005
    0.015
    0.019
    0.016
    0.009
   -0.001
   -0.006
   -0.003
    0.006
    0.012
    0.010
    0.004
    0.001
    0.004
    0.008
    0.005
   -0.006
   -0.016
   -0.018
   -0.010
   -0.001
    0.004
    0.002
    0.000
    0.001
    0.005
    0.009
    0.009
    0.003
   -0.009
   -0.016
   -0.010
    0.001
    0.003
   -0.004
   -0.011
   -0.007
    0.006
    0.018
    0.021
    0.015
    0.007
    0.001
   -0.004
   -0.009
   -0.016
   -0.018
   -0.008
    0.011
    0.027
    0.028
    0.015
   -0.003
   -0.012
   -0.008
    0.003
    0.012
    0.015
    0.013
    0.006
   -0.006
   -0.016
   -0.015
    0.000
    0.019
    0.029
    0.021
    0.007
   -0.001
    0.004
    0.013
    0.016
    0.006
   -0.008
   -0.015
   -0.010
    0.002
    0.012
    0.018
    0.017
    0.013
    0.008
    0.001
   -0.004
   -0.006
   -0.009
   -0.014
   -0.013
   -0.001
    0.016
    0.023
    0.014
   -0.002
   -0.014
   -0.019
   -0.022
   -0.022
   -0.013
    0.009
    0.040
    0.058
    0.044
    0.002
   -0.038
   -0.044
   -0.017
    0.010
    0.016
    0.003
   -0.008
   -0.002
    0.014
    0.027
    0.025
    0.012
   -0.006
   -0.018
   -0.017
    0.000
    0.022
    0.033
    0.024
    0.001
   -0.020
   -0.021
   -0.005
    0.013
    0.017
    0.006
   -0.003
   -0.001
    0.008
    0.011
    0.003
   -0.012
   -0.025
   -0.029
   -0.021
    0.001
    0.024
    0.033
    0.022
    0.000
   -0.017
   -0.023
   -0.020
   -0.014
   -0.009
   -0.006
   -0.001
    0.007
    0.016
    0.013
   -0.002
   -0.016
   -0.013
    0.006
    0.022
    0.019
    0.000
   -0.015
   -0.011
    0.005
    0.015
    0.007
   -0.011
   -0.018
   -0.005
    0.015
    0.026
    0.021
    0.007
   -0.003
   -0.004
    0.002
    0.007
    0.008
    0.000
   -0.008
   -0.007
    0.003
    0.011
    0.010
    0.003
    0.004
    0.015
    0.024
    0.016
   -0.002
   -0.012
   -0.005
    0.006
    0.006
   -0.011
   -0.027
   -0.023
    0.001
    0.024
    0.024
    0.001
   -0.022
   -0.025
   -0.008
    0.012
    0.018
    0.005
   -0.015
   -0.026
   -0.018
    0.001
    0.014
    0.009
   -0.007
   -0.018
   -0.011
    0.012
    0.030
    0.025
    0.000
   -0.022
   -0.024
   -0.004
    0.019
    0.026
    0.012
   -0.010
   -0.020
   -0.010
    0.011
    0.026
    0.024
    0.008
   -0.008
   -0.010
    0.001
    0.016
    0.021
    0.011
   -0.004
   -0.011
   -0.005
    0.005
    0.006
    0.000
   -0.003
    0.003
    0.013
    0.015
    0.002
   -0.020
   -0.032
   -0.021
    0.003
    0.021
    0.017
    0.003
    0.003
    0.036
    0.099
    0.160
    0.175
    0.107
   -0.036
   -0.196
   -0.279
   -0.213
   -0.013
    0.199
    0.268
    0.124
   -0.155
   -0.392
   -0.449
   -0.329
   -0.148
   -0.004
    0.110
    0.265
    0.465
    0.592
    0.500
    0.166
   -0.264
   -0.569
   -0.595
   -0.324
    0.128
    0.542
    0.676
    0.411
   -0.124
   -0.613
   -0.786
   -0.615
   -0.285
    0.015
    0.251
    0.478
    0.663
    0.633
    0.243
   -0.369
   -0.768
   -0.566
    0.185
    0.952
    1.144
    0.619
   -0.233
   -0.859
   -0.972
   -0.669
   -0.216
    0.205
    0.526
    0.647
    0.428
   -0.103
   -0.630
   -0.765
   -0.439
    0.013
    0.212
    0.144
    0.091
    0.217
    0.373
    0.339
    0.130
   -0.009
    0.077
    0.225
    0.130
   -0.281
   -0.703
   -0.716
   -0.230
    0.369
    0.569
    0.221
   -0.305
   -0.437
    0.041
    0.704
    0.823
    0.106
   -0.913
   -1.316
   -0.706
    0.398
    1.109
    1.020
    0.447
   -0.042
   -0.172
   -0.080
   -0.030
   -0.104
   -0.161
   -0.059
    0.124
    0.126
   -0.165
   -0.508
   -0.536
   -0.197
    0.182
    0.259
    0.033
   -0.190
   -0.124
    0.230
    0.577
    0.577
    0.149
   -0.447
   -0.819
   -0.759
   -0.347
    0.168
    0.568
    0.739
    0.643
    0.307
   -0.137
   -0.473
   -0.522
   -0.258
    0.156
    0.437
    0.375
    0.039
   -0.275
   -0.310
   -0.086
    0.164
    0.262
    0.209
    0.083
   -0.036
   -0.078
   -0.069
   -0.167
   -0.475
   -0.795
   -0.749
   -0.195
    0.544
    0.933
    0.710
    0.102
   -0.381
   -0.370
    0.058
    0.464
    0.485
    0.206
    0.019
    0.082
    0.096
   -0.272
   -0.856
   -1.067
   -0.534
    0.438
    1.120
    1.044
    0.390
   -0.255
   -0.449
   -0.222
    0.059
    0.079
   -0.178
   -0.473
   -0.542
   -0.294
    0.143
    0.523
    0.627
    0.395
   -0.026
   -0.380
   -0.486
   -0.328
    0.019
    0.454
    0.816
    0.856
    0.384
   -0.515
   -1.388
   -1.626
   -0.932
    0.340
    1.389
    1.601
    1.000
    0.109
   -0.604
   -1.027
   -1.210
   -1.086
   -0.521
    0.409
    1.296
    1.642
    1.235
    0.307
   -0.640
   -1.156
   -1.077
   -0.574
   -0.001
    0.358
    0.442
    0.368
    0.283
    0.220
    0.089
   -0.183
   -0.487
   -0.560
   -0.240
    0.310
    0.695
    0.600
    0.037
   -0.657
   -1.036
   -0.828
   -0.142
    0.590
    0.964
    0.919
    0.668
    0.381
    0.009
   -0.533
   -1.070
   -1.212
   -0.738
    0.140
    0.928
    1.203
    0.831
    0.037
   -0.681
   -0.846
   -0.406
    0.186
    0.379
    0.050
   -0.393
   -0.412
    0.129
    0.783
    0.901
    0.315
   -0.454
   -0.715
   -0.287
    0.349
    0.573
    0.223
   -0.358
   -0.707
   -0.586
   -0.111
    0.359
    0.481
    0.183
   -0.303
   -0.662
   -0.694
   -0.355
    0.239
    0.806
    1.013
    0.743
    0.205
   -0.254
   -0.440
   -0.395
   -0.258
   -0.095
    0.071
    0.147
    0.051
   -0.123
   -0.111
    0.254
    0.762
    0.867
    0.209
   -0.876
   -1.539
   -1.211
   -0.156
    0.802
    1.051
    0.643
    0.063
   -0.282
   -0.332
   -0.259
   -0.228
   -0.249
   -0.185
    0.156
    0.782
    1.316
    1.185
    0.198
   -1.103
   -1.812
   -1.448
   -0.395
    0.498
    0.746
    0.542
    0.342
    0.320
    0.287
    0.034
   -0.348
   -0.520
   -0.272
    0.207
    0.484
    0.325
   -0.086
   -0.353
   -0.271
   -0.029
    0.010
   -0.256
   -0.500
   -0.345
    0.176
    0.655
    0.759
    0.508
    0.169
   -0.045
   -0.177
   -0.432
   -0.844
   -1.079
   -0.672
    0.415
    1.552
    1.902
    1.176
   -0.115
   -1.121
   -1.358
   -0.976
   -0.445
   -0.055
    0.253
    0.597
    0.830
    0.620
   -0.154
   -1.078
   -1.403
   -0.726
    0.512
    1.349
    1.213
    0.448
   -0.147
   -0.200
   -0.032
   -0.107
   -0.413
   -0.497
   -0.036
    0.732
    1.127
    0.611
   -0.664
   -1.860
   -2.076
   -1.051
    0.631
    1.923
    2.023
    0.953
   -0.475
   -1.324
   -1.219
   -0.480
    0.303
    0.748
    0.784
    0.529
    0.164
   -0.140
   -0.285
   -0.298
   -0.283
   -0.280
   -0.251
   -0.196
   -0.187
   -0.224
   -0.171
    0.072
    0.379
    0.505
    0.395
    0.254
    0.248
    0.249
    0.030
   -0.319
   -0.390
    0.045
    0.647
    0.800
    0.257
   -0.585
   -1.037
   -0.756
   -0.060
    0.401
    0.287
   -0.134
   -0.345
   -0.169
    0.049
   -0.103
   -0.521
   -0.596
    0.092
    1.122
    1.513
    0.750
   -0.576
   -1.276
   -0.782
    0.226
    0.575
   -0.081
   -0.877
   -0.737
    0.363
    1.369
    1.289
    0.203
   -0.917
   -1.223
   -0.686
    0.160
    0.842
    1.156
    0.992
    0.303
   -0.643
   -1.243
   -1.061
   -0.311
    0.333
    0.425
    0.147
    0.019
    0.295
    0.699
    0.743
    0.269
   -0.415
   -0.864
   -0.888
   -0.664
   -0.477
   -0.339
    0.008
    0.683
    1.377
    1.584
    1.106
    0.231
   -0.583
   -1.085
   -1.269
   -1.187
   -0.853
   -0.290
    0.361
    0.781
    0.699
    0.197
   -0.332
   -0.526
   -0.327
    0.049
    0.375
    0.527
    0.423
    0.037
   -0.463
   -0.660
   -0.175
    0.817
    1.472
    1.013
   -0.330
   -1.350
   -1.013
    0.450
    1.670
    1.440
   -0.073
   -1.506
   -1.695
   -0.817
   -0.096
   -0.357
   -1.057
   -0.927
    0.512
    2.283
    2.870
    1.731
   -0.195
   -1.388
   -1.127
   -0.065
    0.482
   -0.043
   -0.722
   -0.088
    2.179
    4.737
    5.909
    5.309
    3.950
    2.838
    1.770
   -0.307
   -3.788
   -7.500
   -9.516
   -8.889
   -6.570
   -4.590
   -4.148
   -4.432
   -3.449
   -0.198
    3.925
    6.073
    4.472
    0.109
   -4.063
   -5.602
   -4.378
   -2.083
   -0.121
    1.826
    4.883
    8.859
   11.652
   11.124
    7.339
    2.631
   -0.632
   -2.040
   -2.629
   -2.782
   -1.463
    1.987
    5.822
    6.617
    2.449
   -4.916
  -11.364
  -13.773
  -11.848
   -7.214
   -1.592
    3.928
    8.497
   11.209
   11.345
    8.638
    3.310
   -3.641
   -9.976
  -12.814
  -10.624
   -4.867
    0.716
    2.935
    1.564
   -1.003
   -2.266
   -1.653
   -0.233
    1.155
    3.008
    6.146
    9.963
   12.247
   10.818
    5.290
   -2.476
   -9.320
  -12.385
  -10.514
   -4.915
    1.340
    4.976
    4.342
    0.189
   -4.912
   -8.007
   -7.225
   -2.632
    3.728
    8.642
    9.456
    5.992
    1.003
   -1.739
   -0.529
    2.621
    3.637
    0.249
   -5.603
   -9.388
   -8.064
   -2.589
    3.351
    6.630
    6.593
    4.419
    1.501
   -1.426
   -4.019
   -5.686
   -5.583
   -3.389
    0.043
    2.943
    3.739
    2.214
   -0.183
   -1.307
    0.047
    3.142
    5.795
    5.985
    3.384
   -0.360
   -2.854
   -2.817
   -1.087
    0.228
   -0.287
   -2.259
   -4.186
   -4.746
   -3.435
   -0.540
    2.872
    5.065
    4.458
    0.951
   -3.420
   -5.617
   -4.018
   -0.027
    2.902
    2.319
   -0.893
   -3.339
   -2.370
    1.349
    4.344
    3.479
   -1.051
   -5.614
   -6.125
   -1.674
    4.452
    7.496
    5.399
    0.533
   -2.668
   -1.799
    1.640
    4.073
    3.228
   -0.125
   -3.263
   -4.065
   -2.617
   -0.552
    0.791
    1.239
    1.093
    0.284
   -1.322
   -3.112
   -3.880
   -2.944
   -0.785
    1.528
    3.243
    4.145
    4.190
    3.269
    1.418
   -0.871
   -2.630
   -2.869
   -1.354
    1.027
    2.854
    3.250
    2.310
    0.560
   -1.671
   -4.148
   -6.220
   -6.713
   -4.634
   -0.205
    4.750
    7.673
    7.019
    3.474
   -0.607
   -3.171
   -3.961
   -3.977
   -3.686
   -2.281
    0.976
    5.035
    7.296
    5.863
    1.422
   -3.197
   -5.232
   -3.891
   -0.583
    2.299
    2.953
    1.181
   -1.619
   -3.538
   -3.648
   -2.572
   -1.580
   -1.264
   -1.165
   -0.485
    0.985
    2.586
    3.402
    3.157
    2.368
    1.616
    0.896
   -0.087
   -1.142
   -1.477
   -0.496
    1.407
    3.010
    3.271
    2.160
    0.458
   -1.142
   -2.575
   -3.962
   -4.878
   -4.472
   -2.471
    0.206
    2.043
    2.178
    1.064
   -0.037
   -0.228
    0.358
    0.937
    0.840
   -0.009
   -1.077
   -1.641
   -1.284
   -0.138
    1.178
    2.000
    2.124
    1.874
    1.677
    1.614
    1.357
    0.537
   -0.837
   -2.274
   -3.110
   -2.911
   -1.774
   -0.365
    0.530
    0.642
    0.385
    0.322
    0.443
    0.244
   -0.325
   -0.508
    0.231
    1.220
    1.201
   -0.125
   -1.517
   -1.390
    0.453
    2.520
    3.182
    2.233
    0.778
   -0.207
   -0.914
   -2.142
   -3.795
   -4.417
   -2.664
    0.850
    3.652
    3.622
    1.081
   -1.500
   -1.889
   -0.067
    1.997
    2.235
    0.304
   -2.179
   -3.196
   -2.138
   -0.160
    1.153
    1.290
    0.963
    1.067
    1.748
    2.322
    1.872
    0.033
   -2.494
   -4.174
   -3.738
   -1.293
    1.609
    3.083
    2.302
    0.072
   -1.834
   -2.002
   -0.358
    1.881
    3.227
    3.024
    1.703
    0.200
   -0.807
   -1.241
   -1.388
   -1.440
   -1.301
   -0.809
   -0.102
    0.311
   -0.033
   -1.033
   -1.968
   -2.037
   -1.066
    0.324
    1.282
    1.408
    0.940
    0.468
    0.466
    0.889
    1.229
    1.077
    0.532
   -0.008
   -0.334
   -0.591
   -0.913
   -1.065
   -0.717
    0.067
    0.806
    1.055
    0.784
    0.351
    0.155
    0.307
    0.553
    0.455
   -0.255
   -1.288
   -1.858
   -1.434
   -0.468
   -0.070
   -0.748
   -1.617
   -1.192
    0.975
    3.623
    4.778
    3.430
    0.382
   -2.445
   -3.560
   -2.895
   -1.551
   -0.652
   -0.363
    0.041
    1.139
    2.479
    2.890
    1.711
   -0.434
   -2.193
   -2.654
   -1.883
   -0.534
    0.729
    1.502
    1.624
    1.135
    0.265
   -0.647
   -1.300
   -1.586
   -1.624
   -1.552
   -1.252
   -0.418
    0.990
    2.445
    3.171
    2.836
    1.852
    0.918
    0.319
   -0.201
   -0.979
   -1.926
   -2.477
   -2.140
   -1.073
    0.050
    0.679
    0.735
    0.400
   -0.199
   -0.905
   -1.272
   -0.757
    0.662
    2.196
    2.748
    1.779
   -0.196
   -1.926
   -2.337
   -1.254
    0.646
    2.416
    3.349
    3.071
    1.524
   -0.826
   -2.991
   -4.074
   -3.894
   -2.877
   -1.406
    0.413
    2.327
    3.645
    3.594
    1.975
   -0.507
   -2.541
   -3.032
   -1.883
   -0.027
    1.396
    1.880
    1.666
    1.255
    0.880
    0.414
   -0.333
   -1.268
   -1.971
   -1.978
   -1.148
    0.206
    1.502
    2.184
    1.960
    0.998
   -0.078
   -0.654
   -0.715
   -0.851
   -1.491
   -2.262
   -2.331
   -1.295
    0.418
    1.885
    2.297
    1.447
   -0.096
   -1.331
   -1.525
   -0.650
    0.739
    1.896
    2.256
    1.705
    0.585
   -0.607
   -1.581
   -2.260
   -2.476
   -1.862
   -0.243
    1.930
    3.652
    3.956
    2.597
    0.322
   -1.587
   -2.219
   -1.643
   -0.748
   -0.466
   -1.005
   -1.810
   -2.159
   -1.707
   -0.592
    0.762
    1.870
    2.339
    2.065
    1.319
    0.534
    0.023
   -0.148
   -0.099
   -0.040
   -0.097
   -0.152
   -0.010
    0.155
   -0.194
   -1.256
   -2.313
   -2.205
   -0.561
    1.623
    2.831
    2.389
    0.902
   -0.538
   -1.289
   -1.349
   -0.957
   -0.342
    0.212
    0.425
    0.274
    0.016
   -0.097
   -0.051
    0.009
    0.020
    0.051
    0.126
    0.159
    0.105
    0.064
    0.154
    0.312
    0.315
    0.064
   -0.252
   -0.388
   -0.323
   -0.201
   -0.110
    0.003
    0.235
    0.507
    0.507
    0.068
   -0.423
   -0.304
    0.535
    1.327
    1.161
   -0.043
   -1.415
   -1.976
   -1.492
   -0.520
    0.214
    0.408
    0.304
    0.318
    0.584
    0.834
    0.687
    0.080
   -0.588
   -0.756
   -0.229
    0.517
    0.655
   -0.176
   -1.412
   -2.012
   -1.335
    0.384
    2.223
    3.193
    2.793
    1.251
   -0.661
   -2.056
   -2.319
   -1.349
    0.289
    1.523
    1.465
