Origin Time       18/01/2011 20:23:27 UTC
Lat.              28.9 N	
Long.             64.0 E	
Depth (Km)          5.0
Magnitude         7.4
 Region           Southwestern-Pakistan                                            
 Above details taken from IMD 
    
Station Code      ANC
Station Lat.       28.539  N
Station Long.      77.264  E
Station Height(m)  231.0
Site Class        C   Vs30 between 200 m/sec to 375 m/sec *  
Record Time       18.01.2011 20:27:42.789 UTC
Sampling Rate     200. Hz
 Record Duration   80.035 Sec.
 Direction         N-S (N positive)
Max. Acceleration      1.309 cm/sec**2
     
  * For reference see Site Classification link of website 
     
 Base Line Corrected and Low Pass Filtered (Cut Off at 35 Hz) Time History
 Acceleration data in cm/sec**2
    
[...]
       0.041
       0.040
       0.046
       0.062
       0.087
       0.119
       0.148
       0.167
       0.166
       0.144
       0.104
       0.058
       0.014
      -0.020
      -0.045
      -0.065
      -0.085
      -0.110
      -0.138
      -0.164
      -0.181
      -0.186
      -0.178
      -0.164
      -0.149
      -0.138
      -0.128
      -0.114
      -0.094
      -0.075
      -0.068
      -0.082
      -0.121
      -0.180
      -0.249
      -0.316
      -0.372
      -0.407
      -0.419
      -0.408
      -0.379
      -0.339
      -0.293
      -0.246
      -0.198
      -0.152
      -0.114
      -0.086
      -0.068
      -0.051
      -0.024
       0.018
       0.071
       0.122
       0.156
       0.164
       0.146
       0.113
       0.083
       0.073
       0.090
       0.127
       0.173
       0.216
       0.252
       0.278
       0.290
       0.280
       0.245
       0.190
       0.128
       0.074
       0.042
       0.036
       0.053
       0.086
       0.121
       0.145
       0.148
       0.128
       0.090
       0.043
      -0.007
      -0.050
      -0.079
      -0.093
      -0.094
      -0.091
      -0.094
      -0.109
      -0.136
      -0.167
      -0.191
      -0.198
      -0.187
      -0.162
      -0.128
      -0.093
      -0.061
      -0.035
      -0.019
      -0.017
      -0.027
      -0.046
      -0.066
      -0.077
      -0.074
      -0.056
      -0.029
      -0.004
       0.008
       0.005
      -0.005
      -0.016
      -0.022
      -0.027
      -0.033
      -0.036
      -0.025
       0.010
       0.069
       0.144
       0.221
       0.284
       0.324
       0.335
       0.318
       0.282
       0.240
       0.201
       0.165
       0.131
       0.099
       0.074
       0.061
       0.062
       0.072
       0.081
       0.081
       0.072
       0.061
       0.058
       0.071
       0.101
       0.141
       0.178
       0.197
       0.189
       0.160
       0.122
       0.087
       0.062
       0.044
       0.032
       0.022
       0.011
      -0.001
      -0.015
      -0.031
      -0.052
      -0.081
      -0.118
      -0.160
      -0.198
      -0.224
      -0.237
      -0.239
      -0.238
      -0.243
      -0.258
      -0.284
      -0.316
      -0.342
      -0.347
      -0.323
      -0.270
      -0.199
      -0.123
      -0.049
       0.021
       0.088
       0.147
       0.191
       0.213
       0.213
       0.200
       0.181
       0.160
       0.141
       0.128
       0.129
       0.149
       0.188
       0.234
       0.277
       0.310
       0.333
       0.347
       0.359
       0.367
       0.371
       0.369
       0.360
       0.348
       0.333
       0.316
       0.294
       0.266
       0.232
       0.196
       0.166
       0.146
       0.132
       0.117
       0.089
       0.045
      -0.015
      -0.082
      -0.146
      -0.195
      -0.228
      -0.250
      -0.272
      -0.306
      -0.354
      -0.410
      -0.462
      -0.499
      -0.518
      -0.523
      -0.522
      -0.522
      -0.524
      -0.520
      -0.498
      -0.451
      -0.378
      -0.291
      -0.208
      -0.145
      -0.102
      -0.068
      -0.029
       0.024
       0.086
       0.140
       0.175
       0.185
       0.177
       0.163
       0.152
       0.150
       0.154
       0.159
       0.158
       0.149
       0.135
       0.126
       0.128
       0.143
       0.165
       0.187
       0.204
       0.217
       0.230
       0.249
       0.275
       0.306
       0.335
       0.355
       0.358
       0.340
       0.300
       0.240
       0.166
       0.079
      -0.018
      -0.122
      -0.224
      -0.312
      -0.375
      -0.407
      -0.417
      -0.419
      -0.424
      -0.434
      -0.440
      -0.428
      -0.394
      -0.340
      -0.280
      -0.224
      -0.177
      -0.137
      -0.095
      -0.049
      -0.003
       0.032
       0.047
       0.039
       0.014
      -0.019
      -0.051
      -0.080
      -0.108
      -0.140
      -0.177
      -0.214
      -0.241
      -0.247
      -0.229
      -0.189
      -0.137
      -0.086
      -0.050
      -0.040
      -0.062
      -0.115
      -0.187
      -0.268
      -0.345
      -0.415
      -0.473
      -0.515
      -0.530
      -0.513
      -0.471
      -0.424
      -0.391
      -0.381
      -0.384
      -0.377
      -0.338
      -0.253
      -0.126
       0.025
       0.178
       0.317
       0.443
       0.558
       0.664
       0.752
       0.812
       0.842
       0.845
       0.829
       0.796
       0.748
       0.687
       0.616
       0.540
       0.460
       0.372
       0.279
       0.186
       0.099
       0.022
      -0.050
      -0.122
      -0.199
      -0.276
      -0.344
      -0.394
      -0.425
      -0.441
      -0.448
      -0.456
      -0.470
      -0.490
      -0.509
      -0.514
      -0.492
      -0.437
      -0.355
      -0.261
      -0.171
      -0.093
      -0.019
       0.065
       0.177
       0.319
       0.482
       0.641
       0.772
       0.859
       0.896
       0.887
       0.844
       0.781
       0.706
       0.626
       0.537
       0.439
       0.340
       0.252
       0.183
       0.133
       0.091
       0.046
      -0.010
      -0.068
      -0.109
      -0.116
      -0.084
      -0.026
       0.032
       0.071
       0.081
       0.067
       0.045
       0.031
       0.035
       0.062
       0.105
       0.151
       0.184
       0.193
       0.182
       0.164
       0.153
       0.150
       0.149
       0.140
       0.117
       0.083
       0.048
       0.019
      -0.004
      -0.028
      -0.057
      -0.089
      -0.113
      -0.117
      -0.101
      -0.073
      -0.050
      -0.042
      -0.052
      -0.079
      -0.122
      -0.178
      -0.245
      -0.314
      -0.377
      -0.431
      -0.471
      -0.495
      -0.500
      -0.483
      -0.440
      -0.371
      -0.279
      -0.178
      -0.083
      -0.013
       0.028
       0.046
       0.058
       0.082
       0.126
       0.189
       0.260
       0.329
       0.394
       0.454
       0.505
       0.540
       0.551
       0.539
       0.509
       0.472
       0.441
       0.421
       0.411
       0.403
       0.383
       0.340
       0.268
       0.168
       0.045
      -0.093
      -0.239
      -0.384
      -0.515
      -0.627
      -0.722
      -0.807
      -0.889
      -0.961
      -1.010
      -1.024
      -1.001
      -0.954
      -0.899
      -0.852
      -0.825
      -0.815
      -0.813
      -0.802
      -0.769
      -0.708
      -0.620
      -0.511
      -0.386
      -0.246
      -0.090
       0.077
       0.240
       0.378
       0.473
       0.522
       0.540
       0.553
       0.584
       0.642
       0.717
       0.794
       0.860
       0.907
       0.932
       0.933
       0.909
       0.858
       0.779
       0.675
       0.553
       0.429
       0.321
       0.240
       0.187
       0.151
       0.111
       0.052
      -0.031
      -0.134
      -0.244
      -0.352
      -0.442
      -0.502
      -0.523
      -0.502
      -0.453
      -0.395
      -0.352
      -0.336
      -0.347
      -0.379
      -0.423
      -0.474
      -0.523
      -0.553
      -0.553
      -0.515
      -0.450
      -0.379
      -0.327
      -0.306
      -0.317
      -0.351
      -0.396
      -0.450
      -0.514
      -0.581
      -0.638
      -0.665
      -0.650
      -0.598
      -0.526
      -0.457
      -0.405
      -0.376
      -0.367
      -0.370
      -0.375
      -0.371
      -0.350
      -0.311
      -0.256
      -0.192
      -0.128
      -0.074
      -0.040
      -0.032
      -0.044
      -0.066
      -0.081
      -0.078
      -0.051
      -0.003
       0.056
       0.113
       0.156
       0.180
       0.193
       0.208
       0.235
       0.276
       0.319
       0.357
       0.387
       0.414
       0.442
       0.473
       0.499
       0.512
       0.506
       0.482
       0.446
       0.412
       0.388
       0.377
       0.379
       0.388
       0.399
       0.408
       0.413
       0.415
       0.412
       0.397
       0.360
       0.298
       0.213
       0.120
       0.031
      -0.043
      -0.101
      -0.145
      -0.187
      -0.238
      -0.309
      -0.400
      -0.502
      -0.593
      -0.651
      -0.666
      -0.641
      -0.594
      -0.545
      -0.505
      -0.475
      -0.446
      -0.408
      -0.353
      -0.284
      -0.207
      -0.132
      -0.061
       0.004
       0.066
       0.124
       0.177
       0.218
       0.242
       0.246
       0.237
       0.224
       0.219
       0.229
       0.263
       0.320
       0.396
       0.478
       0.550
       0.600
       0.624
       0.627
       0.616
       0.596
       0.571
       0.543
       0.513
       0.477
       0.428
       0.366
       0.292
       0.211
       0.121
       0.016
      -0.108
      -0.250
      -0.401
      -0.551
      -0.692
      -0.822
      -0.940
      -1.038
      -1.104
      -1.126
      -1.101
      -1.040
      -0.961
      -0.880
      -0.806
      -0.746
      -0.703
      -0.682
      -0.679
      -0.680
      -0.659
      -0.592
      -0.465
      -0.283
      -0.065
       0.164
       0.382
       0.573
       0.729
       0.844
       0.913
       0.937
       0.920
       0.876
       0.827
       0.792
       0.782
       0.793
       0.807
       0.798
       0.751
       0.667
       0.558
       0.442
       0.327
       0.209
       0.079
      -0.066
      -0.216
      -0.356
      -0.467
      -0.540
      -0.579
      -0.598
      -0.615
      -0.644
      -0.686
      -0.726
      -0.744
      -0.718
      -0.637
      -0.505
      -0.334
      -0.142
       0.054
       0.239
       0.410
       0.566
       0.716
       0.866
       1.015
       1.147
       1.241
       1.279
       1.257
       1.183
       1.070
       0.931
       0.782
       0.642
       0.530
       0.461
       0.439
       0.455
       0.496
       0.550
       0.606
       0.647
       0.653
       0.604
       0.492
       0.328
       0.139
      -0.042
      -0.187
      -0.290
      -0.358
      -0.408
      -0.449
      -0.481
      -0.495
      -0.485
      -0.452
      -0.401
      -0.345
      -0.292
      -0.247
      -0.203
      -0.145
      -0.059
       0.059
       0.197
       0.339
       0.472
       0.589
       0.686
       0.756
       0.795
       0.801
       0.783
       0.752
       0.722
       0.692
       0.652
       0.578
       0.452
       0.265
       0.027
      -0.233
      -0.482
      -0.689
      -0.834
      -0.916
      -0.943
      -0.937
      -0.923
      -0.919
      -0.937
      -0.976
      -1.027
      -1.076
      -1.106
      -1.109
      -1.084
      -1.031
      -0.948
      -0.837
      -0.712
      -0.592
      -0.500
      -0.441
      -0.406
      -0.370
      -0.310
      -0.208
      -0.061
       0.120
       0.316
       0.504
       0.666
       0.793
       0.882
       0.929
       0.928
       0.873
       0.768
       0.624
       0.460
       0.302
       0.175
       0.087
       0.030
      -0.018
      -0.081
      -0.172
      -0.282
      -0.391
      -0.478
      -0.535
      -0.568
      -0.589
      -0.605
      -0.615
      -0.614
      -0.599
      -0.568
      -0.527
      -0.486
      -0.452
      -0.426
      -0.401
      -0.366
      -0.313
      -0.238
      -0.144
      -0.041
       0.060
       0.143
       0.194
       0.210
       0.201
       0.184
       0.172
       0.164
       0.148
       0.116
       0.063
      -0.005
      -0.079
      -0.151
      -0.218
      -0.281
      -0.347
      -0.414
      -0.475
      -0.515
      -0.521
      -0.487
      -0.418
      -0.329
      -0.242
      -0.178
      -0.154
      -0.171
      -0.217
      -0.275
      -0.336
      -0.396
      -0.458
      -0.518
      -0.567
      -0.593
      -0.587
      -0.552
      -0.505
      -0.468
      -0.451
      -0.452
      -0.454
      -0.445
      -0.421
      -0.389
      -0.357
      -0.333
      -0.317
      -0.303
      -0.282
      -0.247
      -0.198
      -0.141
      -0.087
      -0.042
      -0.009
       0.016
       0.039
       0.066
       0.101
       0.148
       0.206
       0.272
       0.338
       0.396
       0.436
       0.450
       0.434
       0.392
       0.333
       0.275
       0.238
       0.239
       0.281
       0.354
       0.432
       0.492
       0.521
       0.516
       0.487
       0.442
       0.394
       0.359
       0.351
       0.378
       0.432
       0.488
       0.521
       0.515
       0.473
       0.413
       0.347
       0.283
       0.215
       0.140
       0.061
      -0.013
      -0.067
      -0.095
      -0.098
      -0.081
      -0.055
      -0.029
      -0.008
       0.008
       0.022
       0.044
       0.080
       0.132
       0.199
       0.286
       0.393
       0.515
       0.634
       0.721
       0.754
       0.726
       0.651
       0.558
       0.481
       0.445
       0.460
       0.518
       0.600
       0.683
       0.746
       0.775
       0.760
       0.696
       0.585
       0.442
       0.290
       0.154
       0.049
      -0.021
      -0.059
      -0.067
      -0.046
      -0.001
       0.060
       0.120
       0.166
       0.198
       0.232
       0.294
       0.399
       0.546
       0.713
       0.872
       1.002
       1.096
       1.155
       1.191
       1.215
       1.237
       1.261
       1.287
       1.307
       1.309
       1.281
       1.209
       1.090
       0.929
       0.743
       0.559
       0.400
       0.285
       0.219
       0.200
       0.213
       0.242
       0.268
       0.276
       0.255
       0.198
       0.104
      -0.023
      -0.167
      -0.307
      -0.418
      -0.478
      -0.477
      -0.420
      -0.329
      -0.231
      -0.151
      -0.101
      -0.084
      -0.093
      -0.120
      -0.159
      -0.207
      -0.261
      -0.314
      -0.361
      -0.399
      -0.426
      -0.441
      -0.448
      -0.455
      -0.471
      -0.502
      -0.550
      -0.615
      -0.692
      -0.777
      -0.855
      -0.910
      -0.924
      -0.889
      -0.810
      -0.705
      -0.597
      -0.504
      -0.435
      -0.387
      -0.357
      -0.338
      -0.328
      -0.328
      -0.337
      -0.357
      -0.391
      -0.440
      -0.494
      -0.538
      -0.554
      -0.532
      -0.474
      -0.385
      -0.277
      -0.159
      -0.041
       0.065
       0.151
       0.205
       0.214
       0.172
       0.085
      -0.025
      -0.128
      -0.199
      -0.232
      -0.236
      -0.221
      -0.193
      -0.147
      -0.084
      -0.010
       0.064
       0.124
       0.162
       0.172
       0.158
       0.129
       0.097
       0.075
       0.073
       0.090
       0.123
       0.164
       0.208
       0.250
       0.288
       0.320
       0.341
       0.351
       0.351
       0.349
       0.348
       0.349
       0.345
       0.325
       0.286
       0.235
       0.185
       0.150
       0.132
       0.124
       0.114
       0.092
       0.049
      -0.019
      -0.112
      -0.224
      -0.342
      -0.459
      -0.571
      -0.681
      -0.785
      -0.869
      -0.913
      -0.899
      -0.827
      -0.715
      -0.593
      -0.482
      -0.388
      -0.302
      -0.216
      -0.133
      -0.064
      -0.023
      -0.008
      -0.003
       0.012
       0.046
       0.092
       0.135
       0.162
       0.167
       0.152
       0.119
       0.067
      -0.005
      -0.098
      -0.202
      -0.301
      -0.373
      -0.403
      -0.386
      -0.324
      -0.228
      -0.110
       0.009
       0.109
       0.165
       0.165
       0.115
       0.043
      -0.017
      -0.036
      -0.001
       0.085
       0.204
       0.323
       0.404
       0.414
       0.344
       0.208
       0.037
      -0.137
      -0.285
      -0.389
      -0.438
      -0.435
      -0.396
      -0.351
      -0.330
      -0.344
      -0.384
      -0.423
      -0.434
      -0.401
      -0.318
      -0.191
      -0.028
       0.158
       0.350
       0.523
       0.650
       0.712
       0.701
       0.629
       0.523
       0.418
       0.339
       0.296
       0.276
       0.258
       0.220
       0.148
       0.038
      -0.108
      -0.281
      -0.473
      -0.672
      -0.864
      -1.033
      -1.165
      -1.248
      -1.280
      -1.267
      -1.223
      -1.172
      -1.131
      -1.111
      -1.107
      -1.107
      -1.100
      -1.085
      -1.066
      -1.048
      -1.029
      -1.000
      -0.952
      -0.883
      -0.802
      -0.714
      -0.616
      -0.500
      -0.359
      -0.200
      -0.039
       0.099
       0.194
       0.236
       0.226
       0.173
       0.095
       0.013
      -0.056
      -0.100
      -0.118
      -0.120
      -0.123
      -0.141
      -0.177
      -0.221
      -0.259
      -0.276
      -0.265
      -0.223
      -0.156
      -0.077
       0.002
       0.070
       0.125
       0.173
       0.229
       0.304
       0.397
       0.489
       0.555
       0.575
       0.547
       0.482
       0.400
       0.314
       0.231
       0.153
       0.089
       0.047
       0.030
       0.035
       0.045
       0.039
      -0.003
      -0.085
      -0.195
      -0.310
      -0.412
      -0.496
      -0.567
      -0.634
      -0.695
      -0.743
      -0.766
      -0.756
      -0.710
      -0.633
      -0.534
      -0.428
      -0.334
      -0.268
      -0.240
      -0.248
      -0.280
      -0.318
      -0.344
      -0.347
      -0.326
      -0.288
      -0.243
      -0.199
      -0.159
      -0.125
      -0.098
      -0.074
      -0.048
      -0.013
       0.038
       0.107
       0.189
       0.266
       0.319
       0.330
       0.296
       0.224
       0.131
       0.042
      -0.017
      -0.030
       0.008
       0.091
       0.205
       0.337
       0.477
       0.617
       0.744
       0.842
       0.894
       0.890
       0.838
       0.754
       0.659
       0.572
       0.505
       0.466
       0.459
       0.484
       0.540
       0.617
       0.702
       0.782
       0.843
       0.871
       0.853
       0.781
       0.660
       0.505
       0.340
       0.188
       0.068
      -0.009
      -0.040
      -0.028
       0.020
       0.102
       0.211
       0.340
       0.473
       0.599
       0.706
       0.788
       0.839
       0.859
       0.854
       0.838
       0.826
       0.823
       0.831
       0.855
       0.897
       0.956
       1.014
       1.045
       1.026
       0.950
       0.826
       0.675
       0.521
       0.387
       0.294
       0.258
       0.285
       0.366
       0.479
       0.592
       0.679
       0.729
       0.743
       0.731
       0.705
       0.675
       0.645
       0.617
       0.593
       0.575
       0.562
       0.546
       0.519
       0.473
       0.406
       0.321
       0.227
       0.131
       0.044
      -0.027
      -0.081
      -0.123
      -0.159
      -0.197
      -0.241
      -0.288
      -0.328
      -0.344
      -0.317
      -0.243
      -0.135
      -0.019
       0.079
       0.144
       0.178
       0.193
       0.209
       0.243
       0.302
       0.387
       0.488
       0.593
       0.685
