Origin Time       07/09/2011 17:58:18
Lat.              28.6 N	
Long.             77.0 E	
Depth (Km)          8.0
Magnitude         4.2
 Region           DELHI-HARYANA(SONIPAT)-Haryana                                   
 Above details taken from IMD 
     
Station Code       ZAKI
Station Lat.       28.640  N
Station Long.      77.230  E
Station Height(m)  101.0
Site Class        C   Vs30 between 200 m/sec to 375 m/sec *  
Record Time        9/7/2011  ) 23:29:33.0
Sampling Rate     200. Hz
 Record Duration   80.000 Sec.
 Direction         E-W (E positive)
Max. Acceleration -36.025 cm/sec**2
     
  * For reference see Site Classification link of website 
     
 Base Line Corrected and Low Pass Filtered (Cut Off at 35 Hz) Time History
 Acceleration data in cm/sec**2
    
[...]
    0.005
    0.030
    0.047
    0.048
    0.033
    0.012
   -0.008
   -0.024
   -0.033
   -0.033
   -0.020
    0.000
    0.016
    0.016
   -0.002
   -0.025
   -0.034
   -0.020
    0.010
    0.036
    0.042
    0.028
    0.007
   -0.010
   -0.017
   -0.017
   -0.015
   -0.016
   -0.017
   -0.012
   -0.001
    0.008
    0.005
   -0.007
   -0.017
   -0.013
    0.003
    0.021
    0.026
    0.015
    0.001
   -0.002
    0.009
    0.021
    0.018
    0.002
   -0.015
   -0.016
   -0.002
    0.015
    0.023
    0.017
    0.004
   -0.005
   -0.005
    0.002
    0.006
    0.002
   -0.009
   -0.020
   -0.025
   -0.024
   -0.022
   -0.027
   -0.036
   -0.038
   -0.025
    0.002
    0.029
    0.043
    0.039
    0.020
   -0.001
   -0.011
   -0.004
    0.016
    0.034
    0.038
    0.031
    0.021
    0.016
    0.011
    0.000
   -0.019
   -0.035
   -0.037
   -0.021
    0.001
    0.011
   -0.001
   -0.028
   -0.049
   -0.047
   -0.023
    0.005
    0.015
    0.004
   -0.010
   -0.008
    0.015
    0.043
    0.052
    0.033
   -0.001
   -0.024
   -0.019
    0.008
    0.037
    0.048
    0.037
    0.013
   -0.011
   -0.023
   -0.023
   -0.019
   -0.017
   -0.016
   -0.014
   -0.008
   -0.003
   -0.003
   -0.008
   -0.011
   -0.003
    0.022
    0.048
    0.053
    0.024
   -0.026
   -0.064
   -0.066
   -0.032
    0.013
    0.045
    0.049
    0.027
   -0.006
   -0.030
   -0.036
   -0.026
   -0.012
   -0.006
   -0.009
   -0.013
   -0.009
    0.003
    0.015
    0.021
    0.021
    0.020
    0.018
    0.008
   -0.011
   -0.029
   -0.029
   -0.003
    0.034
    0.054
    0.040
    0.001
   -0.031
   -0.033
   -0.011
    0.010
    0.011
   -0.002
   -0.009
    0.003
    0.027
    0.043
    0.038
    0.015
   -0.010
   -0.021
   -0.016
   -0.009
   -0.018
   -0.042
   -0.062
   -0.055
   -0.020
    0.020
    0.040
    0.034
    0.015
    0.000
   -0.005
   -0.007
   -0.012
   -0.017
   -0.017
   -0.011
   -0.004
   -0.002
   -0.008
   -0.015
   -0.015
   -0.003
    0.016
    0.032
    0.034
    0.024
    0.014
    0.017
    0.031
    0.043
    0.034
    0.000
   -0.039
   -0.059
   -0.045
   -0.007
    0.033
    0.054
    0.050
    0.026
   -0.002
   -0.021
   -0.029
   -0.029
   -0.026
   -0.022
   -0.017
   -0.013
   -0.008
    0.001
    0.013
    0.023
    0.022
    0.006
   -0.021
   -0.043
   -0.045
   -0.023
    0.009
    0.033
    0.039
    0.033
    0.027
    0.022
    0.010
   -0.014
   -0.042
   -0.054
   -0.038
    0.001
    0.035
    0.042
    0.022
   -0.006
   -0.019
   -0.011
    0.010
    0.028
    0.034
    0.022
   -0.003
   -0.029
   -0.044
   -0.044
   -0.033
   -0.016
    0.003
    0.018
    0.023
    0.019
    0.010
    0.001
   -0.002
    0.006
    0.019
    0.028
    0.025
    0.008
   -0.009
   -0.016
   -0.008
    0.005
    0.013
    0.009
   -0.004
   -0.019
   -0.031
   -0.030
   -0.013
    0.017
    0.047
    0.057
    0.038
    0.000
   -0.036
   -0.049
   -0.035
   -0.008
    0.009
    0.005
   -0.014
   -0.029
   -0.024
    0.003
    0.037
    0.058
    0.054
    0.028
   -0.001
   -0.020
   -0.026
   -0.024
   -0.019
   -0.012
   -0.006
   -0.001
   -0.001
   -0.006
   -0.012
   -0.014
   -0.007
    0.007
    0.022
    0.030
    0.028
    0.019
    0.007
   -0.006
   -0.018
   -0.030
   -0.037
   -0.033
   -0.014
    0.015
    0.038
    0.039
    0.017
   -0.015
   -0.035
   -0.032
   -0.012
    0.008
    0.016
    0.013
    0.013
    0.025
    0.039
    0.037
    0.015
   -0.016
   -0.035
   -0.031
   -0.010
    0.011
    0.017
    0.002
   -0.022
   -0.036
   -0.028
   -0.004
    0.019
    0.030
    0.029
    0.019
    0.007
   -0.002
   -0.007
   -0.012
   -0.018
   -0.024
   -0.024
   -0.016
   -0.002
    0.010
    0.012
    0.001
   -0.014
   -0.022
   -0.011
    0.015
    0.038
    0.040
    0.016
   -0.020
   -0.043
   -0.038
   -0.009
    0.021
    0.035
    0.026
    0.009
   -0.002
   -0.001
    0.006
    0.009
    0.004
   -0.005
   -0.014
   -0.018
   -0.019
   -0.017
   -0.016
   -0.014
   -0.009
    0.002
    0.013
    0.020
    0.020
    0.018
    0.018
    0.021
    0.021
    0.014
   -0.001
   -0.018
   -0.029
   -0.030
   -0.022
   -0.011
   -0.001
    0.009
    0.018
    0.023
    0.021
    0.013
    0.002
   -0.007
   -0.015
   -0.020
   -0.022
   -0.018
   -0.008
    0.006
    0.013
    0.006
   -0.012
   -0.027
   -0.027
   -0.011
    0.009
    0.020
    0.018
    0.009
    0.006
    0.018
    0.040
    0.054
    0.041
    0.002
   -0.046
   -0.075
   -0.067
   -0.026
    0.024
    0.053
    0.045
    0.014
   -0.012
   -0.020
   -0.012
   -0.004
   -0.003
   -0.007
   -0.010
   -0.009
   -0.006
   -0.005
   -0.004
    0.001
    0.010
    0.015
    0.007
   -0.012
   -0.028
   -0.023
    0.002
    0.034
    0.054
    0.051
    0.032
    0.015
    0.008
    0.008
    0.005
   -0.005
   -0.012
   -0.007
    0.004
    0.007
   -0.012
   -0.046
   -0.077
   -0.083
   -0.058
   -0.016
    0.022
    0.042
    0.044
    0.035
    0.025
    0.019
    0.013
    0.004
   -0.008
   -0.020
   -0.029
   -0.033
   -0.031
   -0.020
   -0.001
    0.023
    0.047
    0.061
    0.058
    0.036
    0.005
   -0.019
   -0.025
   -0.016
   -0.004
   -0.002
   -0.011
   -0.025
   -0.034
   -0.032
   -0.024
   -0.016
   -0.006
    0.010
    0.028
    0.036
    0.023
   -0.006
   -0.035
   -0.043
   -0.022
    0.016
    0.049
    0.055
    0.029
   -0.013
   -0.044
   -0.046
   -0.021
    0.013
    0.036
    0.039
    0.028
    0.018
    0.016
    0.013
   -0.002
   -0.029
   -0.050
   -0.043
   -0.005
    0.045
    0.073
    0.062
    0.024
   -0.010
   -0.019
   -0.008
   -0.002
   -0.018
   -0.051
   -0.079
   -0.081
   -0.054
   -0.013
    0.021
    0.038
    0.040
    0.033
    0.021
    0.009
    0.001
    0.002
    0.011
    0.017
    0.013
   -0.005
   -0.029
   -0.045
   -0.039
   -0.007
    0.038
    0.074
    0.077
    0.046
   -0.004
   -0.046
   -0.058
   -0.037
   -0.001
    0.024
    0.022
   -0.004
   -0.032
   -0.041
   -0.026
    0.000
    0.022
    0.029
    0.019
    0.002
   -0.016
   -0.028
   -0.033
   -0.028
   -0.008
    0.023
    0.053
    0.064
    0.048
    0.016
   -0.013
   -0.024
   -0.020
   -0.013
   -0.017
   -0.029
   -0.039
   -0.032
   -0.007
    0.024
    0.044
    0.047
    0.035
    0.018
    0.004
   -0.003
   -0.004
   -0.004
   -0.005
   -0.006
   -0.006
   -0.006
   -0.013
   -0.027
   -0.039
   -0.033
   -0.007
    0.029
    0.055
    0.054
    0.028
   -0.006
   -0.028
   -0.032
   -0.023
   -0.012
   -0.005
   -0.004
   -0.009
   -0.019
   -0.025
   -0.021
   -0.008
    0.007
    0.018
    0.021
    0.018
    0.012
    0.006
    0.001
   -0.003
   -0.004
    0.000
    0.010
    0.018
    0.016
    0.001
   -0.016
   -0.023
   -0.015
    0.006
    0.033
    0.052
    0.055
    0.040
    0.017
   -0.003
   -0.013
   -0.017
   -0.022
   -0.033
   -0.048
   -0.054
   -0.042
   -0.015
    0.013
    0.028
    0.026
    0.014
    0.002
   -0.003
    0.001
    0.006
    0.006
   -0.005
   -0.022
   -0.037
   -0.040
   -0.025
    0.007
    0.045
    0.071
    0.069
    0.038
   -0.009
   -0.050
   -0.066
   -0.053
   -0.022
    0.010
    0.030
    0.036
    0.034
    0.030
    0.025
    0.015
    0.002
   -0.006
   -0.004
    0.009
    0.021
    0.021
    0.005
   -0.017
   -0.034
   -0.039
   -0.031
   -0.018
   -0.008
   -0.004
   -0.007
   -0.012
   -0.014
   -0.008
    0.004
    0.015
    0.018
    0.014
    0.008
    0.004
   -0.001
   -0.007
   -0.012
   -0.013
   -0.009
   -0.004
    0.000
    0.003
    0.004
    0.010
    0.021
    0.032
    0.035
    0.026
    0.012
    0.001
   -0.007
   -0.013
   -0.017
   -0.016
   -0.010
   -0.001
    0.007
    0.007
   -0.004
   -0.027
   -0.052
   -0.062
   -0.049
   -0.017
    0.015
    0.027
    0.015
   -0.003
   -0.003
    0.022
    0.055
    0.068
    0.047
    0.004
   -0.028
   -0.027
    0.006
    0.043
    0.050
    0.019
   -0.031
   -0.063
   -0.055
   -0.014
    0.030
    0.045
    0.023
   -0.017
   -0.049
   -0.057
   -0.045
   -0.026
   -0.009
    0.007
    0.023
    0.035
    0.034
    0.018
   -0.005
   -0.020
   -0.017
    0.000
    0.019
    0.027
    0.021
    0.009
   -0.003
   -0.011
   -0.014
   -0.011
    0.000
    0.017
    0.034
    0.038
    0.027
    0.007
   -0.013
   -0.028
   -0.037
   -0.039
   -0.034
   -0.022
   -0.005
    0.010
    0.017
    0.010
   -0.008
   -0.024
   -0.026
   -0.013
    0.006
    0.023
    0.034
    0.038
    0.038
    0.032
    0.019
   -0.001
   -0.026
   -0.045
   -0.046
   -0.028
   -0.004
    0.012
    0.016
    0.011
    0.006
    0.008
    0.010
    0.004
   -0.013
   -0.028
   -0.025
   -0.002
    0.028
    0.043
    0.033
    0.003
   -0.028
   -0.040
   -0.022
    0.013
    0.045
    0.054
    0.038
    0.004
   -0.033
   -0.061
   -0.065
   -0.043
   -0.003
    0.037
    0.057
    0.047
    0.015
   -0.018
   -0.035
   -0.032
   -0.022
   -0.016
   -0.014
   -0.005
    0.019
    0.053
    0.077
    0.070
    0.027
   -0.031
   -0.071
   -0.071
   -0.039
   -0.004
    0.009
   -0.004
   -0.025
   -0.035
   -0.027
   -0.009
    0.011
    0.028
    0.039
    0.040
    0.025
    0.001
   -0.018
   -0.017
    0.004
    0.032
    0.043
    0.025
   -0.012
   -0.047
   -0.055
   -0.032
    0.007
    0.031
    0.026
   -0.001
   -0.021
   -0.015
    0.011
    0.031
    0.027
    0.005
   -0.013
   -0.012
    0.002
    0.013
    0.005
   -0.014
   -0.027
   -0.020
    0.004
    0.028
    0.033
    0.017
   -0.011
   -0.035
   -0.044
   -0.031
   -0.005
    0.022
    0.035
    0.028
    0.010
   -0.009
   -0.018
   -0.019
   -0.014
   -0.011
   -0.012
   -0.017
   -0.020
   -0.018
   -0.007
    0.012
    0.033
    0.047
    0.041
    0.016
   -0.015
   -0.033
   -0.026
    0.002
    0.035
    0.051
    0.038
    0.000
   -0.041
   -0.064
   -0.056
   -0.018
    0.032
    0.066
    0.064
    0.024
   -0.029
   -0.058
   -0.039
    0.019
    0.078
    0.086
    0.017
   -0.100
   -0.184
   -0.155
   -0.006
    0.174
    0.243
    0.109
   -0.197
   -0.507
   -0.606
   -0.346
    0.236
    0.903
    1.312
    1.196
    0.536
   -0.400
   -1.208
   -1.581
   -1.446
   -0.914
   -0.141
    0.729
    1.508
    1.910
    1.640
    0.639
   -0.681
   -1.543
   -1.300
   -0.009
    1.517
    2.298
    1.943
    0.868
   -0.189
   -0.846
   -1.255
   -1.691
   -2.147
   -2.375
   -2.198
   -1.660
   -0.923
   -0.120
    0.657
    1.298
    1.701
    1.874
    1.935
    1.909
    1.560
    0.580
   -0.918
   -2.133
   -2.048
   -0.429
    1.661
    2.541
    1.343
   -1.145
   -3.067
   -3.065
   -1.402
    0.419
    1.171
    0.993
    0.931
    1.521
    2.100
    1.617
   -0.100
   -2.083
   -3.137
   -2.790
   -1.378
    0.433
    1.961
    2.535
    1.743
   -0.068
   -1.734
   -2.075
   -0.897
    0.848
    1.887
    1.544
    0.062
   -1.679
   -2.687
   -2.414
   -1.132
    0.197
    0.653
    0.177
   -0.320
    0.161
    1.643
    3.109
    3.561
    3.037
    2.472
    2.635
    3.296
    3.358
    1.754
   -1.529
   -5.055
   -6.661
   -5.116
   -1.429
    1.625
    1.724
   -0.957
   -3.987
   -5.073
   -4.101
   -2.649
   -1.787
   -0.928
    1.030
    3.932
    6.213
    6.445
    4.675
    2.149
    0.024
   -1.345
   -2.025
   -1.984
   -1.279
   -0.507
   -0.525
   -1.544
   -2.707
   -2.839
   -1.602
    0.220
    1.585
    2.144
    2.278
    2.374
    2.360
    1.965
    1.185
    0.361
   -0.140
   -0.203
   -0.027
    0.045
   -0.159
   -0.442
   -0.473
   -0.263
   -0.248
   -0.747
   -1.445
   -1.678
   -1.267
   -0.854
   -1.204
   -2.250
   -3.031
   -2.651
   -1.199
    0.347
    1.101
    1.098
    1.145
    1.941
    3.346
    4.504
    4.662
    3.876
    2.903
    2.390
    2.187
    1.452
   -0.503
   -3.381
   -5.857
   -6.532
   -5.147
   -2.927
   -1.631
   -2.004
   -3.026
   -2.765
   -0.193
    3.700
    6.557
    6.498
    3.655
    0.148
   -1.539
   -0.587
    1.440
    2.005
    0.011
   -3.074
   -4.599
   -3.267
   -0.269
    2.024
    2.254
    0.981
   -0.282
   -0.607
   -0.288
   -0.201
   -0.670
   -0.988
   -0.150
    1.814
    3.370
    2.682
   -0.464
   -3.959
   -4.820
   -1.744
    3.477
    7.137
    6.602
    2.428
   -2.322
   -4.786
   -4.371
   -2.548
   -1.108
   -0.800
   -1.346
   -2.231
   -3.163
   -3.826
   -3.568
   -1.739
    1.522
    4.942
    6.743
    5.891
    2.926
   -0.363
   -2.237
   -2.151
   -0.805
    0.727
    1.782
    2.190
    1.957
    1.158
    0.081
   -0.817
   -1.269
   -1.444
   -1.719
   -2.218
   -2.603
   -2.297
   -0.904
    1.487
    4.276
    6.521
    7.181
    5.560
    1.868
   -2.553
   -5.821
   -6.625
   -4.989
   -2.084
    0.613
    1.974
    1.385
   -1.090
   -4.286
   -5.990
   -4.274
    0.656
    5.941
    7.907
    4.991
   -0.827
   -5.474
   -5.909
   -2.303
    2.375
    4.809
    3.767
    0.682
   -1.785
   -1.818
    0.396
    3.009
    3.895
    2.024
   -2.022
   -6.430
   -8.988
   -8.031
   -3.411
    2.920
    7.510
    7.408
    2.400
   -4.446
   -8.736
   -7.843
   -2.707
    2.914
    4.944
    1.363
   -6.893
  -16.601
  -23.853
  -25.833
  -22.095
  -14.612
   -6.405
    0.337
    5.229
    9.162
   13.083
   17.327
   21.876
   26.757
   31.644
   34.958
   33.952
   26.599
   14.033
    1.055
   -6.496
   -5.834
    0.486
    6.220
    6.116
   -0.016
   -7.258
   -9.719
   -5.322
    2.751
    8.808
    8.916
    3.293
   -4.532
  -10.556
  -12.833
  -12.224
  -11.402
  -13.053
  -18.250
  -25.759
  -32.689
  -36.025
  -33.933
  -26.094
  -13.481
    1.696
   16.036
   25.820
   28.824
   25.781
   20.030
   15.362
   13.646
   13.976
   13.699
   10.290
    2.928
   -6.780
  -15.185
  -18.230
  -13.806
   -3.312
    8.876
   17.916
   21.248
   19.515
   15.116
    9.870
    3.950
   -3.196
  -11.178
  -18.094
  -21.684
  -21.157
  -18.028
  -15.109
  -14.485
  -16.086
  -17.933
  -17.784
  -14.848
  -10.101
   -4.937
    0.533
    7.516
   16.488
   25.164
   29.197
   25.719
   16.458
    7.034
    2.686
    4.240
    7.951
    9.102
    5.922
    0.488
   -3.686
   -4.724
   -3.374
   -1.492
    0.016
    1.706
    4.390
    7.780
   10.471
   11.182
    9.917
    7.878
    6.192
    4.639
    1.659
   -4.058
  -11.722
  -18.347
  -20.994
  -19.497
  -16.917
  -17.008
  -20.805
  -25.482
  -26.525
  -21.223
  -10.490
    2.179
   13.184
   20.445
   23.388
   22.277
   17.997
   12.203
    7.013
    4.061
    3.605
    4.516
    5.207
    4.741
    3.306
    1.865
    1.370
    2.010
    2.842
    2.276
   -0.507
   -4.187
   -5.644
   -2.419
    4.549
   10.693
   10.937
    3.774
   -7.288
  -16.293
  -19.107
  -15.728
   -9.184
   -2.789
    1.562
    3.280
    2.408
   -0.386
   -3.521
   -5.004
   -3.855
   -1.119
    0.877
    0.524
   -1.777
   -4.207
   -5.152
   -4.187
   -1.803
    1.282
    4.380
    6.772
    7.931
    8.027
    7.964
    8.622
    9.956
   10.912
   10.257
    7.572
    3.589
   -0.273
   -2.738
   -3.319
   -2.500
   -1.453
   -1.390
   -2.787
   -5.001
   -6.685
   -6.714
   -4.889
   -1.977
    0.767
    2.212
    1.867
    0.161
   -1.677
   -2.194
   -0.549
    2.813
    6.168
    7.452
    5.637
    1.542
   -2.630
   -4.795
   -4.397
   -2.625
   -1.278
   -1.356
   -2.575
   -4.087
   -5.467
   -6.913
   -8.573
   -9.958
  -10.257
   -9.226
   -7.517
   -5.898
   -4.207
   -1.338
    3.481
    9.400
   14.202
   16.095
   15.382
   14.233
   14.626
   16.455
   17.629
   15.913
   10.600
    2.676
   -6.154
  -14.380
  -20.949
  -25.122
  -26.396
  -24.701
  -20.643
  -15.484
  -10.684
   -7.201
   -4.962
   -2.871
    0.566
    6.228
   13.521
   20.284
   23.717
   21.856
   14.714
    4.462
   -5.380
  -11.364
  -11.564
   -6.436
    1.356
    8.248
   11.672
   11.422
    9.500
    8.458
    9.503
   11.843
   13.552
   12.984
    9.652
    4.357
   -1.191
   -5.118
   -6.374
   -5.406
   -3.902
   -3.637
   -5.272
   -8.033
  -10.472
  -11.558
  -11.166
   -9.731
   -7.730
   -5.646
   -4.264
   -4.521
   -6.624
   -9.302
  -10.297
   -8.103
   -3.469
    0.850
    2.158
    0.019
   -3.247
   -4.213
   -0.896
    5.598
   11.547
   13.067
    9.036
    2.318
   -1.970
   -0.205
    6.858
   14.557
   17.961
   15.556
    9.831
    4.539
    1.439
   -0.476
   -2.966
   -6.211
   -8.689
   -9.091
   -7.890
   -6.833
   -7.179
   -8.690
  -10.141
  -10.466
   -9.386
   -7.234
   -4.450
   -1.242
    2.332
    6.080
    9.549
   12.126
   13.161
   12.129
    9.010
    4.749
    1.105
   -0.370
    0.420
    1.821
    1.573
   -1.374
   -5.892
   -9.475
  -10.214
   -8.247
   -5.425
   -3.558
   -2.875
   -2.100
   -0.032
    2.954
    5.045
    4.684
    2.200
   -0.286
   -0.645
    1.386
    3.964
    4.736
    2.835
   -0.510
   -3.207
   -4.074
   -3.464
   -2.373
   -1.260
    0.196
    2.309
    4.689
    6.516
    7.468
    8.170
    9.557
   11.715
   13.370
   12.611
    8.364
    1.469
   -5.481
   -9.530
   -9.235
   -5.829
   -2.696
   -3.131
   -7.818
  -14.041
  -17.489
  -15.371
   -8.427
   -0.410
    4.416
    3.852
   -1.211
   -7.671
  -12.222
  -13.147
  -10.859
   -7.054
   -3.310
   -0.231
    2.314
    4.387
    5.647
    5.930
    5.946
    6.987
    9.638
   12.831
   14.379
   12.725
    8.375
    3.685
    1.051
    1.085
    2.376
    2.956
    1.996
    0.222
   -1.072
   -1.260
   -0.737
   -0.268
   -0.141
    0.019
    0.619
    1.407
    1.554
    0.549
   -1.024
   -1.841
   -1.199
    0.021
    0.038
   -1.963
   -4.760
   -6.121
   -4.930
   -2.197
    0.010
    0.513
   -0.149
   -0.666
   -0.458
   -0.132
   -0.647
   -2.328
   -4.682
   -6.823
   -7.834
   -7.004
   -4.272
   -0.661
    2.056
    2.593
    1.257
   -0.288
   -0.512
    0.619
    1.736
    1.480
   -0.200
   -2.077
   -2.786
   -1.896
   -0.014
    1.977
    3.711
    5.399
    7.157
    8.400
    8.109
    5.865
    2.679
    0.587
    1.069
    3.516
    5.300
    3.733
   -1.531
   -7.747
  -10.871
   -8.656
   -2.552
    3.240
    4.886
    1.704
   -3.520
   -6.766
   -5.663
   -0.849
    4.864
    8.482
    8.407
    4.847
   -0.617
   -5.756
   -8.599
   -8.465
   -6.501
   -4.863
   -4.842
   -5.554
   -4.713
   -1.011
    4.154
    7.497
    6.683
    2.553
   -1.493
   -2.398
    0.084
    3.565
    5.369
    4.703
    2.809
    1.440
    1.351
    2.044
    2.612
    2.666
    2.545
    2.707
    2.949
    2.326
    0.041
   -3.392
   -5.988
   -5.652
   -2.042
    2.828
    5.986
    5.706
    2.582
   -1.226
   -3.658
   -3.978
   -2.846
   -1.538
   -1.014
   -1.401
   -2.095
   -2.284
   -1.494
    0.139
    1.941
    3.038
    2.853
    1.544
    0.019
   -0.616
    0.070
    1.363
    1.833
    0.450
   -2.613
   -6.162
   -8.928
  -10.322
  -10.445
   -9.605
   -7.998
   -5.876
   -3.827
   -2.603
   -2.480
   -2.778
   -2.177
    0.266
    4.256
    8.406
   11.337
   12.726
   13.304
   13.871
   14.362
   13.856
   11.472
    7.366
    2.954
    0.060
   -0.447
    0.615
    1.387
    0.471
   -1.973
   -4.433
   -5.323
   -4.335
   -2.778
   -2.546
   -4.549
   -7.957
  -10.870
  -11.746
  -10.328
   -7.467
   -4.340
   -1.893
   -0.718
   -1.053
   -2.610
   -4.448
   -5.238
   -3.955
   -0.561
    3.801
    7.368
    8.832
    8.181
    6.605
    5.491
    5.341
    5.534
    5.136
    3.953
