Origin Time       07/09/2011 17:58:18
Lat.              28.6 N	
Long.             77.0 E	
Depth (Km)          8.0
Magnitude         4.2
 Region           DELHI-HARYANA(SONIPAT)-Haryana                                   
 Above details taken from IMD 
    
Station Code       ZAKI
Station Lat.       28.640  N
Station Long.      77.230  E
Station Height(m)  101.0
Site Class        C   Vs30 between 200 m/sec to 375 m/sec *  
Record Time        9/7/2011  ) 23:29:33.0
Sampling Rate     200. Hz
 Record Duration   80.000 Sec.
 Direction         N-S (N positive)
Max. Acceleration -62.052 cm/sec**2
     
  * For reference see Site Classification link of website 
     
 Base Line Corrected and Low Pass Filtered (Cut Off at 35 Hz) Time History
 Acceleration data in cm/sec**2
    
[...]
   -0.014
   -0.007
    0.005
    0.016
    0.017
    0.008
   -0.006
   -0.021
   -0.031
   -0.034
   -0.024
   -0.005
    0.015
    0.024
    0.018
   -0.002
   -0.024
   -0.037
   -0.035
   -0.022
   -0.008
    0.003
    0.009
    0.009
    0.001
   -0.013
   -0.026
   -0.030
   -0.021
   -0.004
    0.013
    0.022
    0.020
    0.012
    0.007
    0.009
    0.015
    0.017
    0.009
   -0.007
   -0.023
   -0.029
   -0.018
    0.002
    0.022
    0.033
    0.035
    0.033
    0.027
    0.018
    0.005
   -0.006
   -0.010
   -0.004
    0.008
    0.016
    0.009
   -0.011
   -0.032
   -0.038
   -0.025
    0.001
    0.024
    0.035
    0.030
    0.012
   -0.015
   -0.045
   -0.068
   -0.069
   -0.043
   -0.002
    0.028
    0.027
    0.000
   -0.029
   -0.036
   -0.014
    0.023
    0.048
    0.051
    0.041
    0.033
    0.033
    0.029
    0.006
   -0.033
   -0.069
   -0.075
   -0.039
    0.023
    0.074
    0.087
    0.059
    0.009
   -0.038
   -0.064
   -0.064
   -0.039
    0.001
    0.041
    0.065
    0.061
    0.030
   -0.014
   -0.049
   -0.059
   -0.046
   -0.022
    0.005
    0.028
    0.041
    0.038
    0.013
   -0.029
   -0.072
   -0.091
   -0.072
   -0.021
    0.034
    0.062
    0.054
    0.024
   -0.003
   -0.013
   -0.007
    0.009
    0.025
    0.042
    0.059
    0.069
    0.061
    0.025
   -0.027
   -0.069
   -0.080
   -0.061
   -0.030
   -0.006
    0.004
    0.011
    0.026
    0.048
    0.057
    0.037
   -0.005
   -0.044
   -0.055
   -0.036
   -0.008
    0.006
   -0.005
   -0.031
   -0.047
   -0.037
   -0.007
    0.024
    0.035
    0.028
    0.019
    0.024
    0.040
    0.045
    0.021
   -0.031
   -0.079
   -0.087
   -0.046
    0.015
    0.051
    0.042
    0.003
   -0.028
   -0.021
    0.020
    0.062
    0.074
    0.050
    0.011
   -0.016
   -0.025
   -0.025
   -0.030
   -0.041
   -0.048
   -0.040
   -0.016
    0.011
    0.028
    0.032
    0.032
    0.036
    0.037
    0.025
   -0.004
   -0.040
   -0.058
   -0.045
   -0.009
    0.023
    0.024
   -0.007
   -0.044
   -0.056
   -0.029
    0.024
    0.073
    0.097
    0.091
    0.064
    0.029
   -0.006
   -0.039
   -0.064
   -0.073
   -0.064
   -0.041
   -0.017
   -0.004
   -0.004
   -0.007
   -0.001
    0.017
    0.033
    0.032
    0.013
   -0.007
   -0.012
   -0.001
    0.008
   -0.004
   -0.040
   -0.079
   -0.088
   -0.048
    0.023
    0.082
    0.093
    0.057
    0.007
   -0.016
   -0.002
    0.028
    0.038
    0.013
   -0.032
   -0.062
   -0.053
   -0.008
    0.044
    0.074
    0.068
    0.039
    0.010
    0.000
    0.010
    0.022
    0.020
    0.001
   -0.022
   -0.033
   -0.030
   -0.023
   -0.026
   -0.039
   -0.051
   -0.049
   -0.030
   -0.004
    0.016
    0.026
    0.032
    0.036
    0.034
    0.014
   -0.025
   -0.071
   -0.100
   -0.091
   -0.045
    0.020
    0.074
    0.095
    0.080
    0.041
    0.002
   -0.019
   -0.013
    0.012
    0.039
    0.049
    0.033
   -0.004
   -0.049
   -0.082
   -0.092
   -0.075
   -0.036
    0.017
    0.069
    0.105
    0.111
    0.082
    0.029
   -0.026
   -0.059
   -0.061
   -0.040
   -0.014
    0.002
    0.003
   -0.012
   -0.036
   -0.055
   -0.057
   -0.034
    0.011
    0.060
    0.089
    0.082
    0.044
   -0.003
   -0.038
   -0.049
   -0.042
   -0.029
   -0.018
   -0.014
   -0.015
   -0.019
   -0.019
   -0.012
    0.004
    0.026
    0.048
    0.065
    0.071
    0.066
    0.054
    0.033
    0.005
   -0.027
   -0.055
   -0.072
   -0.074
   -0.062
   -0.039
   -0.012
    0.014
    0.030
    0.032
    0.019
   -0.004
   -0.023
   -0.029
   -0.019
    0.001
    0.017
    0.021
    0.010
   -0.015
   -0.041
   -0.055
   -0.043
   -0.006
    0.041
    0.074
    0.075
    0.049
    0.014
   -0.008
   -0.014
   -0.011
   -0.011
   -0.016
   -0.021
   -0.020
   -0.011
    0.000
    0.004
   -0.002
   -0.013
   -0.018
   -0.008
    0.014
    0.041
    0.060
    0.060
    0.040
    0.008
   -0.022
   -0.038
   -0.039
   -0.032
   -0.024
   -0.019
   -0.012
    0.000
    0.016
    0.023
    0.014
   -0.008
   -0.029
   -0.031
   -0.009
    0.025
    0.047
    0.041
    0.008
   -0.033
   -0.059
   -0.058
   -0.035
   -0.003
    0.024
    0.033
    0.020
   -0.008
   -0.036
   -0.050
   -0.042
   -0.013
    0.026
    0.061
    0.076
    0.064
    0.028
   -0.019
   -0.053
   -0.058
   -0.031
    0.007
    0.034
    0.035
    0.016
   -0.008
   -0.019
   -0.013
    0.005
    0.021
    0.025
    0.019
    0.011
    0.007
    0.003
   -0.006
   -0.025
   -0.051
   -0.068
   -0.060
   -0.026
    0.019
    0.047
    0.045
    0.019
   -0.013
   -0.029
   -0.022
    0.002
    0.028
    0.043
    0.044
    0.032
    0.015
   -0.001
   -0.012
   -0.017
   -0.017
   -0.014
   -0.007
    0.002
    0.011
    0.015
    0.013
    0.006
   -0.005
   -0.016
   -0.023
   -0.024
   -0.018
   -0.007
    0.008
    0.024
    0.035
    0.035
    0.021
   -0.002
   -0.025
   -0.038
   -0.035
   -0.019
    0.000
    0.011
    0.012
    0.004
   -0.009
   -0.025
   -0.038
   -0.041
   -0.031
   -0.005
    0.027
    0.051
    0.052
    0.030
   -0.002
   -0.033
   -0.056
   -0.068
   -0.063
   -0.035
    0.014
    0.071
    0.115
    0.125
    0.092
    0.028
   -0.037
   -0.073
   -0.066
   -0.027
    0.015
    0.032
    0.013
   -0.027
   -0.057
   -0.058
   -0.034
   -0.003
    0.019
    0.032
    0.042
    0.052
    0.054
    0.035
   -0.012
   -0.070
   -0.109
   -0.106
   -0.060
    0.005
    0.055
    0.073
    0.058
    0.030
    0.010
    0.007
    0.017
    0.025
    0.022
    0.008
   -0.012
   -0.029
   -0.037
   -0.033
   -0.020
   -0.003
    0.014
    0.026
    0.028
    0.019
    0.001
   -0.021
   -0.037
   -0.038
   -0.017
    0.020
    0.058
    0.078
    0.066
    0.020
   -0.044
   -0.101
   -0.125
   -0.107
   -0.052
    0.013
    0.062
    0.078
    0.061
    0.025
   -0.008
   -0.019
   -0.007
    0.021
    0.045
    0.052
    0.039
    0.016
    0.000
   -0.001
    0.006
    0.006
   -0.009
   -0.036
   -0.062
   -0.074
   -0.069
   -0.050
   -0.024
    0.004
    0.028
    0.046
    0.050
    0.037
    0.010
   -0.019
   -0.033
   -0.021
    0.009
    0.039
    0.046
    0.024
   -0.015
   -0.049
   -0.060
   -0.044
   -0.011
    0.021
    0.035
    0.027
    0.006
   -0.010
   -0.010
    0.005
    0.024
    0.030
    0.017
   -0.008
   -0.028
   -0.029
   -0.010
    0.020
    0.046
    0.058
    0.051
    0.033
    0.012
   -0.008
   -0.028
   -0.046
   -0.059
   -0.055
   -0.030
    0.006
    0.034
    0.034
    0.002
   -0.042
   -0.068
   -0.057
   -0.020
    0.016
    0.027
    0.011
   -0.014
   -0.026
   -0.014
    0.012
    0.033
    0.039
    0.031
    0.020
    0.010
    0.001
   -0.009
   -0.017
   -0.013
    0.004
    0.028
    0.043
    0.037
    0.014
   -0.010
   -0.019
   -0.009
    0.004
    0.008
   -0.002
   -0.016
   -0.023
   -0.020
   -0.013
   -0.010
   -0.013
   -0.018
   -0.020
   -0.018
   -0.016
   -0.013
   -0.006
    0.002
    0.005
   -0.002
   -0.017
   -0.028
   -0.024
   -0.001
    0.028
    0.049
    0.051
    0.039
    0.023
    0.011
    0.003
   -0.003
   -0.007
   -0.007
   -0.001
    0.009
    0.021
    0.029
    0.030
    0.024
    0.012
   -0.002
   -0.012
   -0.012
   -0.002
    0.008
    0.004
   -0.021
   -0.059
   -0.086
   -0.083
   -0.045
    0.009
    0.047
    0.051
    0.021
   -0.019
   -0.047
   -0.046
   -0.018
    0.017
    0.036
    0.028
   -0.001
   -0.032
   -0.048
   -0.040
   -0.014
    0.019
    0.044
    0.054
    0.049
    0.038
    0.029
    0.025
    0.024
    0.013
   -0.010
   -0.039
   -0.054
   -0.044
   -0.015
    0.017
    0.037
    0.040
    0.029
    0.011
   -0.007
   -0.016
   -0.014
   -0.001
    0.015
    0.020
    0.006
   -0.023
   -0.053
   -0.071
   -0.069
   -0.050
   -0.022
    0.006
    0.028
    0.047
    0.064
    0.076
    0.070
    0.040
   -0.010
   -0.061
   -0.089
   -0.083
   -0.045
    0.007
    0.049
    0.062
    0.043
    0.005
   -0.031
   -0.047
   -0.037
   -0.011
    0.018
    0.037
    0.044
    0.037
    0.018
   -0.012
   -0.045
   -0.068
   -0.067
   -0.036
    0.013
    0.061
    0.087
    0.081
    0.051
    0.011
   -0.022
   -0.038
   -0.037
   -0.030
   -0.025
   -0.027
   -0.030
   -0.030
   -0.021
   -0.007
    0.009
    0.019
    0.020
    0.017
    0.019
    0.031
    0.051
    0.065
    0.060
    0.032
   -0.012
   -0.050
   -0.065
   -0.053
   -0.026
   -0.003
    0.005
   -0.002
   -0.014
   -0.018
   -0.010
    0.008
    0.023
    0.028
    0.019
    0.004
   -0.010
   -0.014
   -0.008
    0.002
    0.008
    0.005
   -0.003
   -0.012
   -0.017
   -0.014
   -0.007
   -0.001
    0.002
    0.006
    0.014
    0.022
    0.020
    0.002
   -0.030
   -0.060
   -0.070
   -0.049
   -0.002
    0.049
    0.078
    0.072
    0.038
   -0.006
   -0.039
   -0.050
   -0.038
   -0.016
    0.006
    0.018
    0.021
    0.016
    0.008
    0.004
    0.005
    0.008
    0.006
   -0.001
   -0.009
   -0.010
   -0.002
    0.012
    0.021
    0.017
    0.000
   -0.019
   -0.031
   -0.029
   -0.016
    0.002
    0.016
    0.019
    0.006
   -0.016
   -0.034
   -0.031
   -0.003
    0.039
    0.073
    0.079
    0.054
    0.010
   -0.029
   -0.047
   -0.047
   -0.039
   -0.032
   -0.028
   -0.024
   -0.021
   -0.020
   -0.021
   -0.016
    0.001
    0.030
    0.064
    0.088
    0.092
    0.067
    0.016
   -0.045
   -0.089
   -0.096
   -0.064
   -0.013
    0.028
    0.042
    0.028
    0.004
   -0.013
   -0.014
   -0.001
    0.017
    0.032
    0.038
    0.029
    0.001
   -0.036
   -0.067
   -0.077
   -0.061
   -0.028
    0.005
    0.028
    0.037
    0.041
    0.044
    0.051
    0.060
    0.069
    0.067
    0.042
   -0.011
   -0.078
   -0.126
   -0.127
   -0.081
   -0.013
    0.040
    0.055
    0.037
    0.008
   -0.012
   -0.018
   -0.017
   -0.015
   -0.009
    0.002
    0.015
    0.021
    0.013
   -0.007
   -0.021
   -0.013
    0.016
    0.049
    0.059
    0.036
   -0.008
   -0.043
   -0.049
   -0.025
    0.005
    0.019
    0.010
   -0.010
   -0.021
   -0.016
   -0.003
    0.007
    0.012
    0.016
    0.019
    0.018
    0.006
   -0.008
   -0.005
    0.024
    0.058
    0.047
   -0.045
   -0.187
   -0.277
   -0.212
    0.013
    0.257
    0.319
    0.088
   -0.340
   -0.696
   -0.703
   -0.255
    0.506
    1.248
    1.611
    1.385
    0.631
   -0.359
   -1.262
   -1.935
   -2.402
   -2.626
   -2.328
   -1.154
    0.861
    2.963
    3.943
    2.960
    0.371
   -2.246
   -3.149
   -1.854
    0.397
    1.775
    1.622
    1.007
    1.418
    3.009
    4.330
    3.749
    1.024
   -2.501
   -5.038
   -5.622
   -4.507
   -2.679
   -1.093
   -0.162
    0.372
    1.211
    2.896
    5.119
    6.534
    5.511
    1.608
   -3.428
   -6.435
   -5.373
   -1.515
    1.276
    0.109
   -3.845
   -6.216
   -3.835
    1.756
    5.560
    4.122
   -0.849
   -4.016
   -1.618
    4.825
    9.877
    9.134
    2.987
   -4.051
   -7.361
   -5.722
   -1.599
    1.351
    1.094
   -1.675
   -4.486
   -5.013
   -2.565
    1.584
    4.969
    5.417
    2.628
   -1.265
   -2.998
   -0.818
    3.646
    6.314
    4.137
   -1.737
   -6.388
   -5.410
    0.638
    6.118
    5.235
   -2.321
  -10.445
  -11.622
   -3.556
    8.468
   15.646
   12.692
    1.949
   -8.649
  -11.844
   -6.470
    2.066
    6.422
    3.345
   -3.801
   -8.188
   -5.667
    1.525
    6.840
    5.290
   -2.180
   -9.505
  -10.492
   -3.664
    6.779
   14.152
   13.961
    6.838
   -2.029
   -6.617
   -4.418
    1.770
    6.078
    4.179
   -3.251
  -10.922
  -13.027
   -7.905
    0.618
    6.511
    6.617
    2.958
    0.341
    1.718
    5.626
    7.794
    5.185
   -1.247
   -7.341
   -9.164
   -6.109
   -1.161
    1.760
    1.027
   -1.704
   -3.381
   -2.252
    1.022
    4.330
    5.810
    4.972
    2.794
    0.925
    0.408
    0.803
    0.591
   -1.370
   -4.617
   -7.153
   -6.839
   -3.136
    2.033
    5.225
    4.055
   -0.486
   -4.337
   -3.640
    1.714
    7.580
    8.815
    3.619
   -4.698
  -10.103
   -8.531
   -1.209
    6.113
    7.643
    2.276
   -5.344
   -8.510
   -4.030
    4.922
   11.279
   10.039
    2.653
   -4.247
   -4.876
    0.416
    5.612
    4.810
   -2.183
   -9.687
  -11.334
   -5.607
    3.162
    8.740
    7.979
    2.594
   -3.167
   -6.224
   -6.325
   -4.788
   -2.424
    0.862
    4.670
    7.066
    5.704
    0.328
   -6.002
   -8.705
   -5.378
    1.844
    7.636
    7.646
    2.042
   -4.568
   -6.894
   -3.226
    3.439
    8.141
    7.756
    2.663
   -4.240
   -9.490
  -10.569
   -6.771
    0.407
    7.726
   11.785
   11.082
    6.983
    2.515
   -0.201
   -1.508
   -3.194
   -6.006
   -8.460
   -8.335
   -5.262
   -1.491
    0.302
   -0.075
   -0.093
    2.493
    6.645
    8.583
    5.556
   -1.083
   -6.721
   -7.377
   -2.806
    3.760
    8.349
    8.758
    5.202
   -0.503
   -5.968
   -8.925
   -7.930
   -3.274
    2.626
    6.354
    5.739
    1.396
   -3.809
   -6.758
   -5.854
   -1.615
    3.701
    6.980
    5.637
   -0.637
   -8.905
  -14.174
  -12.605
   -4.466
    5.731
   12.299
   12.308
    7.273
    1.460
   -1.519
   -0.987
    1.176
    2.673
    2.508
    1.016
   -1.207
   -3.822
   -6.068
   -6.088
   -2.016
    5.493
   12.118
   12.396
    4.455
   -7.430
  -15.355
  -13.692
   -3.512
    8.108
   13.314
    9.211
   -0.245
   -7.543
   -7.393
   -0.285
    8.795
   14.836
   16.280
   14.836
   12.687
   10.336
    7.015
    2.600
   -1.448
   -3.380
   -3.502
   -5.094
  -12.429
  -26.955
  -44.839
  -58.603
  -62.052
  -54.311
  -39.373
  -22.027
   -4.471
   13.389
   31.174
   46.333
   55.320
   56.098
   49.234
   36.746
   20.483
    2.199
  -14.947
  -25.984
  -26.526
  -16.455
   -1.365
   10.282
   12.656
    6.581
   -1.282
   -3.491
    2.930
   14.891
   25.828
   30.072
   26.007
   16.438
    6.549
    1.058
    2.066
    8.172
   14.801
   15.977
    7.441
  -10.357
  -31.640
  -48.060
  -53.275
  -46.336
  -31.681
  -15.868
   -3.430
    5.218
   12.515
   20.398
   27.653
   30.226
   24.334
    9.893
   -8.530
  -24.165
  -32.091
  -31.920
  -27.290
  -22.848
  -21.231
  -22.146
  -23.454
  -22.725
  -18.267
   -9.715
    1.647
   13.281
   22.747
   29.306
   34.445
   40.622
   48.820
   56.775
   59.633
   53.121
   37.037
   16.148
   -2.577
  -14.376
  -19.313
  -21.230
  -24.280
  -29.884
  -36.069
  -39.086
  -35.938
  -26.280
  -12.813
   -0.064
    7.866
    9.418
    6.258
    2.043
    0.170
    1.930
    5.966
    9.077
    8.038
    1.726
   -7.646
  -15.502
  -17.976
  -14.868
   -9.751
   -6.830
   -7.229
   -7.905
   -4.037
    7.049
   23.316
   38.534
   45.609
   40.721
   25.626
    6.586
   -9.326
  -17.960
  -19.555
  -17.510
  -15.748
  -16.317
  -18.356
  -18.850
  -14.839
   -5.729
    5.887
   15.501
   19.049
   14.920
    4.876
   -6.317
  -12.860
  -11.108
   -2.035
    9.289
   17.257
   19.502
   17.742
   15.227
   13.350
   10.654
    5.074
   -2.915
   -9.563
  -10.609
   -5.177
    2.828
    7.217
    3.809
   -6.857
  -20.082
  -29.868
  -32.101
  -26.543
  -16.740
   -7.762
   -3.003
   -2.309
   -2.892
   -2.020
    0.978
    4.863
    8.000
    9.530
    9.519
    8.694
    8.315
    9.908
   14.327
   20.542
   25.437
   25.370
   18.588
    6.645
   -6.304
  -15.703
  -18.737
  -15.311
   -7.865
   -0.378
    3.316
    1.565
   -3.844
   -8.460
   -7.952
   -1.219
    8.431
   15.223
   14.968
    8.223
   -0.178
   -4.917
   -3.994
    0.470
    4.343
    4.185
   -1.210
  -10.455
  -19.966
  -25.404
  -24.180
  -17.493
   -9.896
   -6.213
   -8.073
  -12.779
  -15.299
  -11.802
   -2.212
    9.847
   19.348
   22.720
   19.552
   12.381
    4.988
    0.341
   -0.660
    0.899
    3.018
    4.091
    3.796
    3.155
    3.706
    6.239
   10.007
   13.074
   13.559
   10.805
    5.636
   -0.346
   -5.673
   -9.359
  -10.680
   -9.098
   -4.748
    1.033
    5.987
    8.134
    6.999
    3.795
    0.436
   -1.755
   -2.679
   -3.233
   -4.611
   -7.586
  -11.845
  -15.614
  -16.138
  -11.222
   -1.036
   11.256
   20.903
   24.324
   21.386
   15.419
   10.727
    9.358
    9.706
    8.154
    2.364
   -6.629
  -15.271
  -20.304
  -21.000
  -19.140
  -17.157
  -16.242
  -15.931
  -15.202
  -13.741
  -12.080
  -10.695
   -9.372
   -7.660
   -5.724
   -4.330
   -3.768
   -2.987
   -0.127
    5.813
   13.631
   20.209
   22.420
   19.300
   12.821
    6.682
    4.040
    5.784
   10.380
   15.112
   17.742
   17.643
   15.852
   14.106
   13.551
   13.960
   13.812
   11.034
    4.218
   -6.033
  -16.581
  -23.098
  -22.974
  -17.563
  -11.524
   -9.412
  -12.334
  -17.544
  -21.072
  -20.770
  -17.142
  -11.989
   -6.819
   -2.398
    0.978
    3.331
    4.987
    6.295
    7.228
    7.405
    6.632
    5.440
    4.981
    6.129
    8.524
   10.552
   10.500
    7.895
    3.846
    0.198
   -1.681
   -1.534
    0.041
    2.322
    4.958
    7.851
   10.670
   12.609
   12.716
   10.452
    5.937
   -0.183
   -6.934
  -13.174
  -17.873
  -20.517
  -21.233
  -20.323
  -17.683
  -12.852
   -5.798
    2.383
    9.636
   13.906
   14.172
   10.889
    5.618
    0.217
   -3.891
   -6.010
   -6.082
   -4.538
   -2.151
    0.197
    1.872
    2.672
    2.670
    1.905
    0.297
   -2.111
   -4.759
   -6.404
   -5.480
   -1.168
    5.382
   10.945
   12.100
    8.061
    1.834
   -1.836
   -0.259
    5.016
    9.518
    9.394
    4.162
   -3.271
   -8.816
   -9.702
   -5.720
    1.064
    7.553
   11.128
   10.830
    7.713
    4.123
    2.258
    2.819
    4.544
    5.008
    2.280
   -3.646
  -10.720
  -16.134
  -18.050
  -16.534
  -13.164
   -9.835
   -7.671
   -6.664
   -6.072
   -5.117
   -3.464
   -1.266
    1.079
    3.244
    5.155
    6.995
    8.949
   10.788
   11.676
   10.608
    7.376
    3.129
   -0.294
   -1.771
   -1.629
   -0.951
   -0.355
    0.324
    1.247
    1.805
    0.924
   -1.787
   -5.322
   -7.858
   -8.136
   -6.335
   -3.781
   -1.896
   -1.245
   -1.266
   -0.833
    0.685
    2.689
    3.707
    2.726
    0.380
   -1.171
    0.162
    4.516
    9.575
   12.177
   10.916
    7.449
    5.105
    5.858
    8.421
    9.336
    6.125
   -0.455
   -7.105
  -10.746
  -10.695
   -8.598
   -6.752
   -6.472
   -7.547
   -8.677
   -8.386
   -5.957
   -2.008
    1.681
    3.194
    1.746
   -1.729
   -5.178
   -6.702
   -5.472
   -1.798
    3.324
    8.544
   12.282
   13.117
   10.652
    6.106
    1.702
   -0.846
   -1.414
   -1.225
   -1.727
   -3.599
   -6.346
   -8.532
   -8.646
   -6.272
   -2.650
    0.047
    0.272
   -1.779
   -4.306
   -5.072
   -2.739
    2.342
    8.204
   12.172
   12.251
    8.366
    2.662
   -1.560
   -1.974
    0.894
    3.671
    2.559
   -3.379
  -10.855
  -14.512
  -11.144
   -2.462
    6.055
    9.325
    6.258
    0.001
   -4.883
   -5.643
   -2.621
    1.817
    5.324
    6.904
    6.852
    5.927
    4.783
    3.969
    4.041
    5.290
    7.285
    8.804
    8.520
    6.046
    2.458
   -0.456
   -1.782
   -2.331
   -3.689
   -6.378
   -9.106
  -10.029
   -8.691
   -6.564
   -5.612
   -6.409
   -7.788
   -8.202
   -7.216
   -5.588
   -4.155
   -2.946
   -1.453
    0.405
    1.803
    1.634
   -0.305
   -2.711
   -3.524
   -1.616
    2.023
    4.848
    4.879
    2.579
    0.673
    1.833
    6.242
   11.260
   13.539
   11.726
    7.412
    3.543
    1.819
