Origin Time       07/09/2011 17:58:18
Lat.              28.6 N	
Long.             77.0 E	
Depth (Km)          8.0
Magnitude         4.2
 Region           DELHI-HARYANA(SONIPAT)-Haryana                                   
 Above details taken from IMD 
   
Station Code       ZAKI
Station Lat.       28.640
Station Long.      77.230
Station Height(m)  101.0
Site Class        C   Vs30 between 200 m/sec to 375 m/sec *  
Record Time        9/7/2011  ) 23:29:33.0
Sampling Rate     200. Hz
 Record Duration   80.000 Sec.
 Direction         Vert. (Up positive)
Max. Acceleration -41.806 cm/sec**2
     
  * For reference see Site Classification link of website 
     
 Base Line Corrected and Low Pass Filtered (Cut Off at 35 Hz) Time History
 Acceleration data in cm/sec**2
    
[...]
   -0.027
   -0.010
    0.009
    0.021
    0.025
    0.020
    0.011
    0.001
   -0.006
   -0.009
   -0.013
   -0.021
   -0.031
   -0.033
   -0.023
   -0.005
    0.015
    0.027
    0.030
    0.027
    0.019
    0.009
   -0.001
   -0.012
   -0.020
   -0.019
   -0.009
    0.003
    0.012
    0.012
    0.004
   -0.008
   -0.016
   -0.015
   -0.005
    0.009
    0.020
    0.026
    0.024
    0.015
    0.002
   -0.010
   -0.018
   -0.022
   -0.021
   -0.015
   -0.006
    0.002
    0.007
    0.008
    0.003
   -0.007
   -0.015
   -0.015
   -0.006
    0.006
    0.013
    0.016
    0.014
    0.010
    0.007
    0.007
    0.008
    0.005
   -0.003
   -0.014
   -0.024
   -0.030
   -0.031
   -0.026
   -0.017
   -0.005
    0.011
    0.027
    0.033
    0.025
    0.009
    0.002
    0.009
    0.022
    0.025
    0.012
   -0.013
   -0.036
   -0.043
   -0.033
   -0.017
   -0.006
   -0.003
   -0.003
    0.001
    0.010
    0.020
    0.026
    0.023
    0.012
    0.000
   -0.004
   -0.002
   -0.002
   -0.008
   -0.016
   -0.021
   -0.021
   -0.015
   -0.005
    0.004
    0.010
    0.014
    0.018
    0.019
    0.012
   -0.005
   -0.022
   -0.030
   -0.025
   -0.010
    0.008
    0.023
    0.028
    0.027
    0.023
    0.018
    0.008
   -0.007
   -0.022
   -0.030
   -0.028
   -0.017
   -0.006
    0.000
    0.001
    0.001
    0.005
    0.010
    0.008
   -0.001
   -0.009
   -0.008
    0.002
    0.012
    0.015
    0.005
   -0.012
   -0.023
   -0.021
   -0.006
    0.012
    0.021
    0.017
    0.003
   -0.011
   -0.014
   -0.006
    0.004
    0.005
    0.000
    0.001
    0.013
    0.026
    0.028
    0.012
   -0.013
   -0.030
   -0.028
   -0.013
    0.002
    0.006
    0.005
    0.008
    0.018
    0.027
    0.026
    0.011
   -0.013
   -0.035
   -0.043
   -0.034
   -0.016
   -0.003
   -0.001
   -0.004
   -0.002
    0.008
    0.025
    0.039
    0.043
    0.035
    0.016
   -0.012
   -0.044
   -0.072
   -0.078
   -0.052
   -0.006
    0.036
    0.053
    0.046
    0.029
    0.018
    0.020
    0.031
    0.033
    0.017
   -0.014
   -0.039
   -0.045
   -0.031
   -0.010
    0.009
    0.022
    0.028
    0.027
    0.017
   -0.004
   -0.031
   -0.051
   -0.050
   -0.030
   -0.001
    0.021
    0.028
    0.021
    0.008
   -0.002
   -0.003
    0.007
    0.023
    0.033
    0.032
    0.014
   -0.015
   -0.042
   -0.057
   -0.053
   -0.032
    0.000
    0.032
    0.051
    0.048
    0.027
    0.000
   -0.017
   -0.016
   -0.001
    0.016
    0.022
    0.012
   -0.004
   -0.018
   -0.023
   -0.022
   -0.020
   -0.017
   -0.011
    0.000
    0.013
    0.026
    0.033
    0.033
    0.027
    0.018
    0.005
   -0.012
   -0.031
   -0.044
   -0.048
   -0.041
   -0.027
   -0.007
    0.014
    0.033
    0.046
    0.050
    0.044
    0.029
    0.008
   -0.014
   -0.035
   -0.050
   -0.053
   -0.041
   -0.018
    0.008
    0.026
    0.033
    0.028
    0.015
    0.004
    0.001
    0.004
    0.007
    0.006
    0.002
   -0.003
   -0.007
   -0.009
   -0.007
   -0.006
   -0.007
   -0.009
   -0.005
    0.007
    0.022
    0.032
    0.030
    0.018
    0.001
   -0.013
   -0.017
   -0.015
   -0.015
   -0.019
   -0.023
   -0.022
   -0.012
    0.005
    0.022
    0.033
    0.031
    0.019
    0.005
   -0.010
   -0.022
   -0.029
   -0.027
   -0.016
    0.000
    0.014
    0.021
    0.019
    0.009
   -0.003
   -0.010
   -0.010
   -0.006
   -0.002
    0.000
   -0.001
   -0.002
   -0.002
   -0.001
    0.000
    0.002
    0.007
    0.015
    0.019
    0.011
   -0.006
   -0.023
   -0.031
   -0.025
   -0.007
    0.013
    0.026
    0.026
    0.017
    0.004
   -0.009
   -0.021
   -0.028
   -0.024
   -0.011
    0.007
    0.021
    0.026
    0.020
    0.007
   -0.003
   -0.007
   -0.005
    0.000
    0.008
    0.017
    0.022
    0.017
    0.002
   -0.020
   -0.041
   -0.052
   -0.046
   -0.022
    0.009
    0.034
    0.044
    0.041
    0.029
    0.014
    0.002
   -0.007
   -0.013
   -0.018
   -0.019
   -0.015
   -0.008
   -0.002
    0.000
    0.000
    0.000
    0.002
    0.003
    0.003
   -0.001
   -0.007
   -0.012
   -0.012
   -0.007
    0.002
    0.013
    0.020
    0.021
    0.015
    0.008
    0.003
   -0.003
   -0.012
   -0.024
   -0.033
   -0.035
   -0.029
   -0.013
    0.010
    0.030
    0.042
    0.043
    0.034
    0.016
   -0.006
   -0.022
   -0.024
   -0.016
   -0.006
   -0.003
   -0.010
   -0.023
   -0.034
   -0.034
   -0.020
    0.003
    0.028
    0.046
    0.051
    0.042
    0.024
    0.004
   -0.010
   -0.020
   -0.027
   -0.030
   -0.027
   -0.016
    0.002
    0.021
    0.032
    0.030
    0.013
   -0.009
   -0.029
   -0.039
   -0.035
   -0.018
    0.006
    0.025
    0.032
    0.027
    0.013
   -0.004
   -0.018
   -0.023
   -0.019
   -0.010
   -0.001
    0.009
    0.016
    0.017
    0.012
    0.007
    0.005
    0.008
    0.014
    0.018
    0.014
   -0.004
   -0.033
   -0.058
   -0.067
   -0.055
   -0.026
    0.010
    0.040
    0.057
    0.060
    0.054
    0.044
    0.027
    0.004
   -0.020
   -0.038
   -0.049
   -0.050
   -0.045
   -0.034
   -0.022
   -0.006
    0.014
    0.038
    0.055
    0.056
    0.040
    0.017
   -0.005
   -0.022
   -0.032
   -0.035
   -0.033
   -0.025
   -0.011
    0.004
    0.012
    0.010
    0.001
   -0.006
   -0.007
   -0.004
   -0.002
   -0.001
   -0.002
    0.000
    0.007
    0.018
    0.026
    0.027
    0.017
   -0.001
   -0.022
   -0.036
   -0.039
   -0.031
   -0.018
   -0.003
    0.015
    0.031
    0.042
    0.040
    0.027
    0.008
   -0.008
   -0.015
   -0.013
   -0.007
   -0.007
   -0.018
   -0.034
   -0.042
   -0.031
   -0.003
    0.030
    0.050
    0.044
    0.015
   -0.017
   -0.036
   -0.035
   -0.022
   -0.006
    0.008
    0.020
    0.030
    0.035
    0.030
    0.012
   -0.011
   -0.027
   -0.029
   -0.020
   -0.008
   -0.001
   -0.002
   -0.007
   -0.010
   -0.006
    0.004
    0.016
    0.024
    0.026
    0.022
    0.011
   -0.002
   -0.010
   -0.013
   -0.012
   -0.013
   -0.016
   -0.017
   -0.013
   -0.002
    0.010
    0.017
    0.012
   -0.001
   -0.012
   -0.012
   -0.004
    0.003
    0.006
    0.004
    0.002
    0.001
    0.002
    0.005
    0.006
    0.004
    0.000
   -0.003
   -0.007
   -0.008
   -0.005
    0.002
    0.007
    0.006
    0.003
    0.002
    0.003
    0.007
    0.010
    0.009
    0.004
   -0.002
   -0.004
   -0.001
    0.004
    0.004
    0.000
   -0.006
   -0.009
   -0.009
   -0.004
   -0.002
   -0.005
   -0.012
   -0.017
   -0.014
   -0.003
    0.008
    0.013
    0.011
    0.004
   -0.001
    0.001
    0.011
    0.021
    0.023
    0.014
   -0.002
   -0.020
   -0.031
   -0.029
   -0.015
    0.004
    0.020
    0.027
    0.022
    0.007
   -0.011
   -0.020
   -0.016
   -0.004
    0.009
    0.016
    0.016
    0.010
   -0.001
   -0.010
   -0.013
   -0.009
    0.000
    0.007
    0.008
    0.002
   -0.007
   -0.012
   -0.013
   -0.009
   -0.003
    0.005
    0.010
    0.012
    0.008
    0.003
   -0.001
   -0.001
    0.000
    0.000
   -0.004
   -0.011
   -0.012
   -0.001
    0.019
    0.035
    0.037
    0.022
   -0.006
   -0.033
   -0.048
   -0.045
   -0.025
    0.002
    0.024
    0.034
    0.031
    0.017
    0.000
   -0.010
   -0.009
    0.000
    0.009
    0.013
    0.010
    0.001
   -0.010
   -0.015
   -0.012
   -0.006
    0.002
    0.008
    0.011
    0.008
   -0.003
   -0.016
   -0.025
   -0.026
   -0.020
   -0.007
    0.005
    0.014
    0.017
    0.018
    0.019
    0.017
    0.012
    0.004
   -0.004
   -0.008
   -0.006
    0.002
    0.009
    0.011
    0.008
    0.002
   -0.001
   -0.001
    0.001
    0.000
   -0.003
   -0.008
   -0.014
   -0.017
   -0.018
   -0.019
   -0.017
   -0.011
    0.002
    0.021
    0.041
    0.051
    0.044
    0.017
   -0.017
   -0.044
   -0.054
   -0.047
   -0.029
   -0.005
    0.017
    0.033
    0.037
    0.030
    0.013
   -0.005
   -0.014
   -0.010
    0.001
    0.010
    0.011
    0.005
   -0.005
   -0.015
   -0.019
   -0.015
   -0.005
    0.007
    0.016
    0.019
    0.015
    0.003
   -0.015
   -0.030
   -0.037
   -0.031
   -0.013
    0.012
    0.031
    0.037
    0.031
    0.019
    0.008
   -0.001
   -0.008
   -0.013
   -0.012
   -0.004
    0.006
    0.011
    0.002
   -0.020
   -0.039
   -0.041
   -0.020
    0.010
    0.033
    0.038
    0.027
    0.011
    0.000
   -0.006
   -0.010
   -0.018
   -0.023
   -0.019
   -0.006
    0.009
    0.021
    0.029
    0.034
    0.034
    0.027
    0.009
   -0.021
   -0.054
   -0.075
   -0.071
   -0.043
   -0.007
    0.026
    0.048
    0.057
    0.053
    0.035
    0.008
   -0.021
   -0.043
   -0.045
   -0.026
    0.000
    0.020
    0.025
    0.020
    0.012
    0.007
    0.009
    0.012
    0.012
    0.004
   -0.005
   -0.012
   -0.016
   -0.015
   -0.011
   -0.002
    0.006
    0.009
    0.006
   -0.001
   -0.008
   -0.013
   -0.011
    0.000
    0.019
    0.037
    0.044
    0.036
    0.012
   -0.021
   -0.048
   -0.060
   -0.052
   -0.032
   -0.007
    0.012
    0.021
    0.020
    0.015
    0.016
    0.023
    0.029
    0.030
    0.022
    0.004
   -0.018
   -0.036
   -0.044
   -0.039
   -0.025
   -0.006
    0.014
    0.028
    0.032
    0.025
    0.012
    0.000
   -0.008
   -0.006
    0.004
    0.016
    0.022
    0.019
    0.009
   -0.004
   -0.016
   -0.022
   -0.022
   -0.017
   -0.013
   -0.008
    0.003
    0.018
    0.029
    0.027
    0.011
   -0.012
   -0.027
   -0.026
   -0.008
    0.015
    0.027
    0.024
    0.009
   -0.006
   -0.014
   -0.013
   -0.007
   -0.003
   -0.006
   -0.014
   -0.017
   -0.010
    0.007
    0.024
    0.033
    0.029
    0.017
    0.006
    0.000
   -0.002
   -0.007
   -0.018
   -0.030
   -0.037
   -0.033
   -0.017
    0.006
    0.025
    0.030
    0.023
    0.011
    0.003
    0.001
    0.003
    0.003
   -0.001
   -0.005
    0.003
    0.026
    0.056
    0.081
    0.098
    0.114
    0.133
    0.139
    0.104
    0.012
   -0.107
   -0.172
   -0.097
    0.130
    0.416
    0.600
    0.572
    0.371
    0.207
    0.346
    0.941
    1.871
    2.710
    2.883
    1.962
   -0.048
   -2.639
   -5.011
   -6.464
   -6.695
   -5.822
   -4.185
   -2.136
    0.035
    2.025
    3.480
    4.139
    4.078
    3.756
    3.666
    3.837
    3.722
    2.667
    0.560
   -1.948
   -3.879
   -4.608
   -4.172
   -3.050
   -1.751
   -0.563
    0.453
    1.365
    2.251
    3.091
    3.669
    3.629
    2.757
    1.311
   -0.018
   -0.654
   -0.730
   -1.045
   -2.257
   -4.017
   -5.034
   -4.244
   -2.002
    0.042
    0.419
   -0.713
   -1.669
   -0.862
    1.597
    3.979
    4.603
    3.362
    1.566
    0.487
    0.238
    0.075
   -0.506
   -1.202
   -1.392
   -0.890
   -0.052
    0.734
    1.340
    1.642
    1.291
    0.115
   -1.277
   -1.618
   -0.102
    2.534
    4.214
    3.122
   -0.645
   -4.940
   -7.206
   -6.500
   -4.070
   -1.989
   -1.217
   -0.979
    0.068
    2.212
    4.320
    4.996
    3.976
    2.321
    1.399
    1.775
    2.946
    3.801
    3.250
    0.760
   -3.139
   -6.722
   -7.889
   -5.753
   -1.667
    1.623
    2.232
    0.700
   -0.705
   -0.213
    1.904
    3.828
    4.051
    2.697
    1.152
    0.540
    0.628
    0.214
   -1.520
   -4.058
   -5.887
   -5.724
   -3.530
   -0.505
    1.783
    2.376
    1.351
   -0.372
   -1.599
   -1.481
    0.059
    2.291
    4.081
    4.598
    3.884
    2.728
    1.855
    1.223
    0.216
   -1.422
   -3.021
   -3.491
   -2.384
   -0.369
    1.308
    1.709
    0.630
   -1.447
   -3.536
   -4.436
   -3.346
   -0.560
    2.493
    4.176
    3.812
    2.074
    0.284
   -0.676
   -0.914
   -1.158
   -1.869
   -2.605
   -2.293
   -0.280
    2.715
    4.774
    4.176
    0.927
   -2.944
   -4.762
   -3.268
    0.275
    3.004
    2.784
   -0.012
   -2.847
   -3.226
   -0.846
    2.229
    3.489
    2.205
   -0.087
   -1.216
   -0.483
    0.808
    0.886
   -0.524
   -1.914
   -1.694
    0.017
    1.499
    1.302
   -0.185
   -1.162
   -0.368
    1.546
    2.614
    1.418
   -1.631
   -4.677
   -5.898
   -4.727
   -1.968
    1.028
    3.279
    4.498
    4.782
    4.221
    2.902
    1.241
    0.074
    0.128
    1.189
    1.894
    0.689
   -2.722
   -6.818
   -9.217
   -8.338
   -4.412
    0.783
    5.067
    6.968
    6.244
    3.776
    1.040
   -0.595
   -0.454
    1.228
    3.531
    5.260
    5.396
    3.540
    0.204
   -3.392
   -6.042
   -7.244
   -7.263
   -6.637
   -5.735
   -4.736
   -3.741
   -2.622
   -0.896
    1.836
    5.114
    7.513
    7.658
    5.503
    2.556
    0.748
    0.917
    2.259
    3.193
    2.672
    0.732
   -1.888
   -4.250
   -5.384
   -4.440
   -1.274
    2.913
    5.836
    5.563
    2.058
   -2.673
   -5.989
   -6.317
   -3.872
   -0.202
    2.793
    3.689
    1.943
   -1.957
   -6.522
   -9.695
   -9.820
   -6.689
   -1.830
    2.439
    4.621
    5.020
    5.154
    6.135
    7.598
    8.256
    7.401
    5.663
    4.193
    3.323
    2.356
    0.717
   -1.068
   -1.937
   -1.793
   -2.015
   -4.179
   -8.254
  -12.237
  -13.686
  -11.738
   -7.793
   -4.361
   -3.147
   -3.899
   -4.751
   -3.587
    0.571
    6.911
   13.152
   16.653
   15.807
   10.973
    4.270
   -1.797
   -5.874
   -8.116
   -9.039
   -8.205
   -4.383
    2.756
   11.274
   17.688
   19.473
   17.049
   13.272
   10.849
   10.109
    9.124
    5.820
   -0.129
   -7.275
  -13.886
  -19.217
  -23.395
  -26.441
  -27.769
  -26.718
  -23.249
  -17.848
  -10.899
   -2.502
    6.938
   16.164
   23.429
   27.646
   29.209
   29.480
   29.212
   27.396
   21.818
   11.040
   -3.908
  -19.682
  -32.499
  -40.028
  -41.806
  -38.340
  -30.350
  -19.002
   -6.449
    4.574
   12.193
   16.529
   19.257
   21.893
   24.358
   25.095
   22.554
   16.598
    8.644
    0.660
   -5.870
  -10.254
  -12.379
  -12.565
  -11.516
  -10.071
   -8.714
   -7.246
   -4.983
   -1.440
    3.115
    7.744
   11.483
   13.981
   15.612
   16.943
   17.972
   17.741
   14.751
    8.007
   -1.967
  -12.960
  -22.101
  -27.450
  -28.924
  -27.829
  -25.562
  -22.625
  -18.629
  -13.038
   -5.954
    1.684
    8.603
   13.955
   17.753
   20.620
   22.960
   24.215
   22.998
   18.165
   10.001
    0.485
   -7.627
  -12.226
  -12.712
   -9.839
   -5.035
    0.140
    4.355
    6.864
    7.685
    7.235
    5.703
    2.895
   -1.122
   -5.305
   -7.922
   -7.910
   -6.022
   -4.445
   -5.080
   -8.080
  -11.923
  -14.725
  -15.378
  -13.656
   -9.701
   -3.813
    3.153
    9.451
   13.032
   12.970
   10.467
    8.264
    8.694
   12.043
   16.570
   19.924
   20.535
   17.984
   12.555
    4.850
   -4.190
  -13.202
  -20.709
  -25.666
  -27.737
  -27.049
  -23.729
  -17.832
   -9.859
   -1.329
    5.451
    8.652
    8.346
    6.765
    6.904
   10.456
   16.576
   22.277
   24.134
   20.242
   11.307
    0.271
   -9.280
  -14.923
  -16.374
  -15.168
  -13.380
  -12.269
  -11.705
  -10.676
   -8.351
   -4.857
   -1.170
    1.712
    3.635
    5.434
    8.241
   12.437
   17.034
   20.035
   19.666
   15.629
    9.347
    2.939
   -2.170
   -5.871
   -8.869
  -11.656
  -13.874
  -14.622
  -13.386
  -10.668
   -7.670
   -5.368
   -3.895
   -2.731
   -1.378
    0.252
    2.005
    3.808
    5.603
    7.041
    7.499
    6.593
    4.677
    2.719
    1.615
    1.590
    2.223
    2.980
    3.644
    4.207
    4.477
    3.951
    2.223
   -0.412
   -2.858
   -3.930
   -3.384
   -2.279
   -2.162
   -3.675
   -5.915
   -7.202
   -6.550
   -4.423
   -2.127
   -0.576
    0.312
    1.119
    2.004
    2.407
    1.665
   -0.127
   -1.910
   -2.369
   -0.958
    1.669
    4.178
    5.505
    5.405
    4.305
    2.806
    1.294
   -0.151
   -1.654
   -3.330
   -4.997
   -6.051
   -5.747
   -3.786
   -0.630
    2.806
    5.741
    7.748
    8.510
    7.583
    4.671
    0.235
   -4.244
   -6.890
   -6.724
   -4.540
   -2.375
   -1.875
   -3.070
   -4.710
   -5.673
   -5.885
   -5.875
   -5.659
   -4.347
   -1.047
    3.881
    8.659
   11.397
   11.730
   11.113
   11.353
   12.719
   13.488
   11.401
    5.686
   -2.176
   -9.489
  -14.181
  -15.865
  -15.470
  -14.047
  -11.901
   -8.693
   -4.225
    0.913
    5.426
    8.070
    8.479
    7.411
    6.152
    5.511
    5.208
    4.235
    1.897
   -1.418
   -4.444
   -5.977
   -5.728
   -4.470
   -3.469
   -3.651
   -5.030
   -6.728
   -7.561
   -6.792
   -4.487
   -1.203
    2.567
    6.558
   10.377
   13.236
   14.273
   13.254
   10.902
    8.406
    6.442
    4.579
    1.684
   -2.942
   -8.661
  -13.645
  -15.978
  -14.864
  -11.091
   -6.489
   -2.811
   -0.750
    0.355
    1.968
    5.221
    9.878
   14.205
   16.030
   14.273
    9.709
    4.315
   -0.203
   -3.451
   -6.150
   -9.060
  -12.028
  -14.005
  -13.962
  -11.820
   -8.486
   -5.038
   -1.913
    1.108
    4.237
    7.113
    8.940
    9.166
    8.054
    6.575
    5.677
    5.518
    5.254
    3.615
   -0.099
   -5.329
  -10.431
  -13.639
  -14.130
  -12.385
   -9.579
   -6.537
   -3.228
    0.763
    5.393
    9.859
   13.057
   14.241
   13.335
   10.849
    7.649
    4.637
    2.333
    0.541
   -1.530
   -4.582
   -8.455
  -11.940
  -13.417
  -11.888
   -7.650
   -2.163
    2.700
    5.550
    6.138
    5.419
    4.872
    5.435
    6.837
    7.884
    7.395
    4.992
    1.206
   -2.921
   -6.343
   -8.377
   -8.925
   -8.454
   -7.636
   -6.808
   -5.710
   -3.792
   -0.853
    2.589
    5.575
    7.368
    7.881
    7.485
    6.515
    5.120
    3.544
    2.298
    1.753
    1.530
    0.518
   -2.235
   -6.484
  -10.584
  -12.434
  -10.907
   -6.689
   -1.856
    1.533
    2.778
    2.783
    3.044
    4.240
    5.684
    6.134
    5.116
    3.366
    1.970
    1.207
    0.374
   -1.286
   -3.663
   -5.861
   -7.043
   -6.993
   -5.867
   -3.703
   -0.500
    3.248
    6.382
    7.724
    7.019
    5.220
    3.775
    3.479
    3.865
    3.684
    2.061
   -0.689
   -3.296
   -4.531
   -4.079
   -2.646
   -1.378
   -1.126
   -2.034
   -3.547
   -4.724
   -4.683
   -3.037
   -0.140
    3.002
    5.196
    5.691
    4.618
    2.880
    1.526
    1.035
    1.090
    0.937
   -0.007
   -1.788
   -3.958
   -5.853
   -6.868
   -6.634
   -5.135
   -2.738
   -0.042
    2.362
    4.092
    5.037
    5.327
    5.229
    4.981
    4.669
    4.211
    3.433
    2.166
    0.354
   -1.825
   -3.913
   -5.346
   -5.777
   -5.330
   -4.524
   -3.856
   -3.342
   -2.501
   -0.912
    1.145
    2.647
    2.587
    0.937
   -1.069
   -1.743
   -0.234
    2.797
    5.666
    6.805
    5.643
    2.735
   -0.701
   -3.419
   -4.641
   -4.318
   -3.077
   -1.798
   -1.046
   -0.788
   -0.600
   -0.105
    0.763
    1.809
    2.797
    3.598
    4.166
    4.445
    4.330
    3.727
    2.635
    1.129
   -0.724
   -2.840
   -4.959
   -6.569
   -7.057
   -6.077
   -3.873
   -1.298
    0.572
    1.051
    0.273
   -0.857
   -1.195
   -0.082
    2.181
    4.469
    5.546
    4.863
    2.866
    0.607
   -1.041
   -1.913
   -2.375
   -2.644
   -2.361
   -0.951
    1.552
    4.105
    5.223
    4.097
    1.311
   -1.527
   -3.003
   -2.905
   -2.178
   -1.928
   -2.449
   -3.116
   -3.110
   -2.225
   -1.013
   -0.178
    0.119
    0.340
    0.995
    2.042
    2.865
    2.824
    1.862
    0.603
   -0.153
   -0.099
    0.370
    0.612
    0.403
    0.118
    0.253
    0.809
    1.234
    1.024
    0.314
   -0.277
   -0.368
   -0.281
   -0.706
   -1.923
   -3.395
   -4.136
   -3.494
   -1.637
    0.642
