Origin Time       18/01/2011 20:23:27
Lat.              28.9 N	
Long.             64.0 E	
Depth (Km)          5.0
Magnitude         7.4
 Region           Southwestern-Pakistan                                            
 Above details taken from IMD 
   
Station Code       ZAKI
Station Lat.       28.640
Station Long.      77.230
Station Height(m)  101.0
Site Class        C   Vs30 between 200 m/sec to 375 m/sec *  
Record Time        1/2/1980  17:06:07.000
Sampling Rate     200. Hz
 Record Duration   74.000 Sec.
 Direction         Vert. (Up positive)
Max. Acceleration  -5.256 cm/sec**2
     
  * For reference see Site Classification link of website 
     
 Base Line Corrected and Low Pass Filtered (Cut Off at 35 Hz) Time History
 Acceleration data in cm/sec**2
    
[...]
   -0.152
   -0.185
   -0.131
    0.041
    0.285
    0.512
    0.644
    0.653
    0.566
    0.453
    0.393
    0.423
    0.514
    0.589
    0.581
    0.478
    0.333
    0.223
    0.196
    0.221
    0.210
    0.094
   -0.111
   -0.304
   -0.372
   -0.273
   -0.057
    0.159
    0.260
    0.204
    0.033
   -0.160
   -0.302
   -0.379
   -0.422
   -0.460
   -0.491
   -0.480
   -0.386
   -0.210
    0.006
    0.207
    0.369
    0.500
    0.610
    0.696
    0.739
    0.723
    0.652
    0.548
    0.441
    0.334
    0.206
    0.037
   -0.149
   -0.289
   -0.330
   -0.273
   -0.187
   -0.162
   -0.256
   -0.446
   -0.635
   -0.709
   -0.613
   -0.375
   -0.084
    0.155
    0.277
    0.287
    0.256
    0.253
    0.280
    0.267
    0.133
   -0.141
   -0.495
   -0.819
   -1.014
   -1.041
   -0.929
   -0.745
   -0.543
   -0.342
   -0.133
    0.095
    0.341
    0.575
    0.744
    0.797
    0.721
    0.552
    0.360
    0.199
    0.083
   -0.021
   -0.160
   -0.345
   -0.525
   -0.622
   -0.595
   -0.464
   -0.289
   -0.129
   -0.018
    0.046
    0.095
    0.173
    0.305
    0.486
    0.679
    0.827
    0.873
    0.785
    0.585
    0.340
    0.127
   -0.005
   -0.045
   -0.025
   -0.013
   -0.077
   -0.234
   -0.427
   -0.557
   -0.541
   -0.377
   -0.158
   -0.023
   -0.056
   -0.224
   -0.396
   -0.450
   -0.364
   -0.229
   -0.181
   -0.284
   -0.477
   -0.600
   -0.511
   -0.203
    0.184
    0.460
    0.507
    0.335
    0.069
   -0.137
   -0.196
   -0.137
   -0.084
   -0.151
   -0.358
   -0.616
   -0.791
   -0.782
   -0.593
   -0.328
   -0.129
   -0.086
   -0.180
   -0.313
   -0.377
   -0.315
   -0.148
    0.053
    0.211
    0.293
    0.314
    0.318
    0.342
    0.395
    0.460
    0.496
    0.466
    0.371
    0.260
    0.194
    0.207
    0.286
    0.376
    0.404
    0.319
    0.129
   -0.098
   -0.282
   -0.369
   -0.357
   -0.285
   -0.210
   -0.179
   -0.181
   -0.152
   -0.021
    0.226
    0.517
    0.736
    0.795
    0.696
    0.535
    0.426
    0.414
    0.439
    0.391
    0.195
   -0.136
   -0.511
   -0.808
   -0.940
   -0.906
   -0.787
   -0.681
   -0.637
   -0.630
   -0.599
   -0.493
   -0.315
   -0.114
    0.038
    0.097
    0.065
   -0.026
   -0.145
   -0.277
   -0.423
   -0.588
   -0.767
   -0.920
   -0.987
   -0.929
   -0.754
   -0.517
   -0.280
   -0.085
    0.053
    0.132
    0.155
    0.116
    0.014
   -0.134
   -0.288
   -0.400
   -0.448
   -0.443
   -0.411
   -0.377
   -0.332
   -0.228
   -0.017
    0.306
    0.674
    0.995
    1.206
    1.304
    1.324
    1.304
    1.256
    1.166
    1.009
    0.778
    0.491
    0.180
   -0.136
   -0.446
   -0.741
   -1.003
   -1.203
   -1.304
   -1.279
   -1.132
   -0.894
   -0.601
   -0.267
    0.106
    0.498
    0.850
    1.081
    1.118
    0.939
    0.601
    0.228
   -0.063
   -0.230
   -0.320
   -0.423
   -0.602
   -0.850
   -1.093
   -1.231
   -1.219
   -1.093
   -0.940
   -0.816
   -0.702
   -0.524
   -0.221
    0.198
    0.640
    0.969
    1.088
    1.011
    0.855
    0.767
    0.830
    1.008
    1.173
    1.182
    0.986
    0.660
    0.348
    0.159
    0.098
    0.084
    0.021
   -0.132
   -0.323
   -0.439
   -0.387
   -0.168
    0.132
    0.410
    0.609
    0.733
    0.817
    0.894
    0.965
    1.001
    0.963
    0.843
    0.676
    0.520
    0.429
    0.431
    0.513
    0.635
    0.752
    0.846
    0.914
    0.944
    0.911
    0.792
    0.589
    0.338
    0.084
   -0.145
   -0.366
   -0.616
   -0.909
   -1.188
   -1.349
   -1.307
   -1.057
   -0.674
   -0.264
    0.094
    0.397
    0.689
    1.005
    1.313
    1.524
    1.569
    1.448
    1.241
    1.047
    0.931
    0.880
    0.817
    0.668
    0.432
    0.193
    0.058
    0.086
    0.250
    0.471
    0.665
    0.798
    0.896
    1.004
    1.132
    1.246
    1.295
    1.244
    1.090
    0.861
    0.610
    0.381
    0.191
    0.020
   -0.151
   -0.319
   -0.456
   -0.529
   -0.515
   -0.416
   -0.268
   -0.121
   -0.011
    0.052
    0.074
    0.061
    0.017
   -0.031
   -0.044
    0.025
    0.198
    0.450
    0.714
    0.911
    1.003
    1.011
    0.983
    0.945
    0.890
    0.790
    0.633
    0.453
    0.322
    0.302
    0.402
    0.556
    0.676
    0.711
    0.677
    0.646
    0.688
    0.825
    1.001
    1.123
    1.116
    0.968
    0.721
    0.436
    0.171
   -0.042
   -0.194
   -0.297
   -0.358
   -0.378
   -0.359
   -0.313
   -0.251
   -0.170
   -0.065
    0.063
    0.210
    0.362
    0.496
    0.578
    0.579
    0.482
    0.289
    0.019
   -0.289
   -0.581
   -0.806
   -0.934
   -0.956
   -0.874
   -0.709
   -0.497
   -0.273
   -0.065
    0.108
    0.238
    0.339
    0.434
    0.524
    0.569
    0.513
    0.323
    0.017
   -0.342
   -0.678
   -0.932
   -1.092
   -1.180
   -1.209
   -1.162
   -1.016
   -0.783
   -0.517
   -0.290
   -0.152
   -0.106
   -0.113
   -0.116
   -0.087
   -0.043
   -0.021
   -0.037
   -0.081
   -0.131
   -0.164
   -0.171
   -0.154
   -0.134
   -0.143
   -0.212
   -0.362
   -0.595
   -0.883
   -1.173
   -1.418
   -1.605
   -1.748
   -1.853
   -1.904
   -1.876
   -1.760
   -1.573
   -1.355
   -1.141
   -0.929
   -0.683
   -0.372
   -0.006
    0.358
    0.654
    0.834
    0.893
    0.859
    0.777
    0.667
    0.522
    0.331
    0.109
   -0.099
   -0.249
   -0.320
   -0.319
   -0.272
   -0.216
   -0.175
   -0.152
   -0.133
   -0.104
   -0.057
    0.000
    0.051
    0.083
    0.097
    0.111
    0.136
    0.160
    0.170
    0.169
    0.173
    0.188
    0.191
    0.145
    0.026
   -0.150
   -0.330
   -0.457
   -0.527
   -0.596
   -0.743
   -0.997
   -1.310
   -1.569
   -1.663
   -1.545
   -1.269
   -0.966
   -0.746
   -0.624
   -0.513
   -0.311
    0.022
    0.432
    0.809
    1.055
    1.141
    1.119
    1.071
    1.043
    1.020
    0.950
    0.790
    0.546
    0.276
    0.064
   -0.040
   -0.057
   -0.060
   -0.115
   -0.232
   -0.362
   -0.421
   -0.338
   -0.109
    0.190
    0.443
    0.565
    0.543
    0.424
    0.275
    0.144
    0.039
   -0.063
   -0.190
   -0.346
   -0.507
   -0.635
   -0.693
   -0.648
   -0.495
   -0.272
   -0.044
    0.136
    0.249
    0.306
    0.331
    0.344
    0.351
    0.338
    0.276
    0.153
   -0.007
   -0.153
   -0.247
   -0.288
   -0.318
   -0.400
   -0.557
   -0.748
   -0.881
   -0.867
   -0.671
   -0.336
    0.037
    0.330
    0.476
    0.499
    0.477
    0.472
    0.475
    0.427
    0.283
    0.054
   -0.191
   -0.371
   -0.445
   -0.425
   -0.348
   -0.240
   -0.101
    0.083
    0.326
    0.631
    0.970
    1.269
    1.432
    1.404
    1.200
    0.878
    0.492
    0.076
   -0.350
   -0.764
   -1.134
   -1.424
   -1.612
   -1.702
   -1.719
   -1.677
   -1.585
   -1.461
   -1.342
   -1.258
   -1.205
   -1.153
   -1.070
   -0.946
   -0.793
   -0.649
   -0.542
   -0.473
   -0.408
   -0.314
   -0.177
   -0.014
    0.144
    0.256
    0.292
    0.249
    0.160
    0.058
   -0.046
   -0.170
   -0.341
   -0.564
   -0.813
   -1.032
   -1.163
   -1.172
   -1.070
   -0.892
   -0.681
   -0.464
   -0.245
   -0.004
    0.271
    0.549
    0.764
    0.862
    0.856
    0.810
    0.786
    0.796
    0.783
    0.667
    0.405
    0.026
   -0.378
   -0.709
   -0.909
   -0.964
   -0.899
   -0.768
   -0.628
   -0.498
   -0.348
   -0.136
    0.133
    0.392
    0.552
    0.564
    0.445
    0.260
    0.079
   -0.069
   -0.184
   -0.268
   -0.315
   -0.337
   -0.374
   -0.471
   -0.640
   -0.844
   -1.034
   -1.180
   -1.280
   -1.350
   -1.396
   -1.404
   -1.358
   -1.265
   -1.152
   -1.045
   -0.944
   -0.841
   -0.726
   -0.581
   -0.379
   -0.096
    0.250
    0.600
    0.877
    1.034
    1.072
    1.046
    1.030
    1.068
    1.146
    1.221
    1.253
    1.236
    1.192
    1.155
    1.148
    1.151
    1.112
    0.987
    0.791
    0.595
    0.471
    0.440
    0.460
    0.462
    0.396
    0.262
    0.098
   -0.049
   -0.153
   -0.216
   -0.261
   -0.332
   -0.468
   -0.659
   -0.835
   -0.912
   -0.855
   -0.703
   -0.522
   -0.360
   -0.213
   -0.039
    0.204
    0.525
    0.883
    1.202
    1.396
    1.396
    1.179
    0.785
    0.305
   -0.165
   -0.574
   -0.915
   -1.199
   -1.433
   -1.629
   -1.802
   -1.954
   -2.073
   -2.141
   -2.144
   -2.086
   -1.983
   -1.853
   -1.696
   -1.499
   -1.267
   -1.044
   -0.886
   -0.820
   -0.822
   -0.843
   -0.837
   -0.778
   -0.671
   -0.549
   -0.454
   -0.408
   -0.396
   -0.367
   -0.268
   -0.089
    0.111
    0.232
    0.210
    0.077
   -0.059
   -0.096
   -0.011
    0.130
    0.229
    0.224
    0.135
    0.054
    0.076
    0.223
    0.426
    0.569
    0.557
    0.374
    0.097
   -0.148
   -0.273
   -0.286
   -0.265
   -0.282
   -0.346
   -0.423
   -0.474
   -0.486
   -0.468
   -0.443
   -0.435
   -0.468
   -0.553
   -0.676
   -0.791
   -0.848
   -0.836
   -0.791
   -0.743
   -0.680
   -0.553
   -0.333
   -0.048
    0.229
    0.426
    0.507
    0.485
    0.407
    0.318
    0.240
    0.175
    0.126
    0.104
    0.126
    0.200
    0.320
    0.455
    0.561
    0.615
    0.639
    0.676
    0.741
    0.803
    0.817
    0.772
    0.698
    0.637
    0.615
    0.620
    0.608
    0.533
    0.391
    0.229
    0.117
    0.100
    0.160
    0.212
    0.159
   -0.028
   -0.271
   -0.433
   -0.427
   -0.274
   -0.069
    0.103
    0.223
    0.334
    0.488
    0.694
    0.904
    1.045
    1.082
    1.041
    0.984
    0.962
    0.986
    1.024
    1.024
    0.965
    0.878
    0.826
    0.837
    0.866
    0.843
    0.731
    0.556
    0.389
    0.293
    0.289
    0.352
    0.426
    0.471
    0.474
    0.442
    0.388
    0.323
    0.257
    0.191
    0.135
    0.118
    0.183
    0.354
    0.611
    0.905
    1.187
    1.429
    1.629
    1.794
    1.927
    2.008
    2.010
    1.916
    1.732
    1.467
    1.116
    0.654
    0.056
   -0.682
   -1.501
   -2.268
   -2.818
   -3.049
   -2.974
   -2.700
   -2.353
   -2.014
   -1.702
   -1.392
   -1.046
   -0.647
   -0.211
    0.222
    0.612
    0.927
    1.149
    1.282
    1.342
    1.350
    1.324
    1.279
    1.232
    1.182
    1.109
    0.990
    0.823
    0.627
    0.432
    0.271
    0.177
    0.172
    0.251
    0.379
    0.509
    0.593
    0.592
    0.480
    0.246
   -0.105
   -0.539
   -0.982
   -1.340
   -1.546
   -1.595
   -1.535
   -1.420
   -1.293
   -1.172
   -1.054
   -0.926
   -0.775
   -0.609
   -0.444
   -0.295
   -0.174
   -0.095
   -0.069
   -0.095
   -0.159
   -0.239
   -0.309
   -0.352
   -0.360
   -0.343
   -0.309
   -0.264
   -0.222
   -0.200
   -0.198
   -0.176
   -0.077
    0.125
    0.397
    0.669
    0.871
    0.961
    0.932
    0.806
    0.607
    0.363
    0.117
   -0.070
   -0.139
   -0.066
    0.119
    0.347
    0.535
    0.617
    0.579
    0.471
    0.367
    0.323
    0.347
    0.419
    0.506
    0.581
    0.629
    0.649
    0.646
    0.636
    0.639
    0.676
    0.741
    0.795
    0.789
    0.704
    0.574
    0.456
    0.391
    0.374
    0.353
    0.262
    0.067
   -0.216
   -0.547
   -0.889
   -1.212
   -1.481
   -1.670
   -1.772
   -1.801
   -1.771
   -1.686
   -1.544
   -1.345
   -1.105
   -0.851
   -0.622
   -0.437
   -0.288
   -0.147
   -0.002
    0.146
    0.288
    0.423
    0.560
    0.721
    0.932
    1.200
    1.484
    1.709
    1.818
    1.802
    1.705
    1.593
    1.518
    1.492
    1.488
    1.468
    1.411
    1.315
    1.179
    0.997
    0.767
    0.493
    0.192
   -0.104
   -0.335
   -0.440
   -0.396
   -0.234
   -0.018
    0.202
    0.407
    0.615
    0.852
    1.117
    1.355
    1.491
    1.482
    1.348
    1.150
    0.949
    0.791
    0.708
    0.725
    0.858
    1.099
    1.403
    1.680
    1.837
    1.834
    1.712
    1.551
    1.424
    1.361
    1.346
    1.337
    1.289
    1.181
    1.015
    0.797
    0.513
    0.140
   -0.335
   -0.894
   -1.478
   -2.000
   -2.380
   -2.579
   -2.608
   -2.500
   -2.274
   -1.921
   -1.410
   -0.724
    0.107
    0.992
    1.809
    2.478
    2.984
    3.360
    3.635
    3.818
    3.908
    3.906
    3.827
    3.701
    3.562
    3.439
    3.346
    3.282
    3.234
    3.177
    3.093
    3.005
    2.963
    2.998
    3.080
    3.130
    3.061
    2.826
    2.437
    1.948
    1.429
    0.924
    0.448
    0.002
   -0.411
   -0.783
   -1.105
   -1.367
   -1.558
   -1.674
   -1.713
   -1.663
   -1.504
   -1.241
   -0.925
   -0.641
   -0.460
   -0.404
   -0.443
   -0.527
   -0.621
   -0.717
   -0.818
   -0.903
   -0.921
   -0.816
   -0.559
   -0.157
    0.348
    0.878
    1.334
    1.634
    1.745
    1.705
    1.596
    1.521
    1.551
    1.703
    1.942
    2.211
    2.453
    2.607
    2.613
    2.427
    2.043
    1.500
    0.867
    0.232
   -0.321
   -0.746
   -1.049
   -1.266
   -1.423
   -1.511
   -1.493
   -1.323
   -0.979
   -0.501
    0.016
    0.467
    0.806
    1.066
    1.315
    1.584
    1.823
    1.912
    1.743
    1.319
    0.760
    0.229
   -0.197
   -0.558
   -0.950
   -1.415
   -1.883
   -2.200
   -2.230
   -1.961
   -1.521
   -1.078
   -0.723
   -0.428
   -0.098
    0.330
    0.832
    1.300
    1.604
    1.674
    1.528
    1.237
    0.859
    0.434
    0.014
   -0.321
   -0.492
   -0.455
   -0.244
    0.034
    0.234
    0.243
    0.041
   -0.304
   -0.688
   -1.037
   -1.340
   -1.625
   -1.917
   -2.179
   -2.311
   -2.215
   -1.871
   -1.346
   -0.734
   -0.092
    0.561
    1.224
    1.872
    2.451
    2.882
    3.105
    3.101
    2.891
    2.511
    1.989
    1.340
    0.578
   -0.270
   -1.167
   -2.066
   -2.933
   -3.741
   -4.453
   -4.989
   -5.256
   -5.190
   -4.793
   -4.133
   -3.317
   -2.451
   -1.612
   -0.836
   -0.127
    0.510
    1.067
    1.532
    1.884
    2.084
    2.085
    1.858
    1.424
    0.851
    0.240
   -0.310
   -0.741
   -1.053
   -1.281
   -1.466
   -1.634
   -1.802
   -1.980
   -2.167
   -2.357
   -2.536
   -2.672
   -2.705
   -2.574
   -2.258
   -1.799
   -1.283
   -0.806
   -0.431
   -0.170
    0.002
    0.112
    0.158
    0.114
   -0.041
   -0.312
   -0.692
   -1.166
   -1.705
   -2.270
   -2.835
   -3.380
   -3.875
   -4.274
   -4.536
   -4.640
   -4.590
   -4.390
   -4.039
   -3.531
   -2.869
   -2.088
   -1.273
   -0.538
    0.013
    0.329
    0.417
    0.324
    0.115
   -0.162
   -0.487
   -0.850
   -1.208
   -1.459
   -1.488
   -1.226
   -0.696
   -0.004
    0.707
    1.299
    1.675
    1.776
    1.585
    1.126
    0.469
   -0.301
   -1.120
   -1.965
   -2.819
   -3.630
   -4.304
   -4.749
   -4.920
   -4.854
   -4.633
   -4.318
   -3.903
   -3.335
   -2.587
   -1.721
   -0.885
   -0.257
    0.040
   -0.003
   -0.280
   -0.636
   -0.957
   -1.222
   -1.476
   -1.772
   -2.119
   -2.463
   -2.711
   -2.785
   -2.672
   -2.420
   -2.105
   -1.792
   -1.515
   -1.294
   -1.137
   -1.048
   -1.019
   -1.010
   -0.942
   -0.745
   -0.415
   -0.031
    0.293
    0.473
    0.485
    0.351
    0.115
   -0.182
   -0.503
   -0.800
   -1.012
   -1.089
   -1.031
   -0.900
   -0.786
   -0.761
   -0.856
   -1.056
   -1.303
   -1.535
   -1.724
   -1.899
   -2.118
   -2.408
   -2.745
   -3.069
   -3.298
   -3.361
   -3.214
   -2.849
   -2.277
   -1.526
   -0.648
    0.268
    1.114
    1.808
    2.322
    2.676
    2.902
    3.011
    2.974
    2.759
    2.379
    1.899
    1.391
    0.878
    0.345
   -0.221
   -0.794
   -1.332
   -1.810
   -2.249
   -2.681
   -3.095
   -3.393
   -3.428
   -3.116
   -2.511
   -1.791
   -1.142
   -0.654
   -0.295
    0.040
    0.446
    0.943
    1.474
    1.960
    2.371
    2.731
    3.065
    3.345
    3.485
    3.394
    3.054
    2.544
    1.992
    1.483
    0.999
    0.467
   -0.154
   -0.809
   -1.374
   -1.730
   -1.837
   -1.753
   -1.574
   -1.353
   -1.063
   -0.646
   -0.094
    0.524
    1.093
    1.520
    1.776
    1.890
    1.908
    1.843
    1.673
    1.382
    1.003
    0.614
    0.301
    0.130
    0.138
    0.332
    0.681
    1.132
    1.619
    2.071
    2.417
    2.610
    2.652
    2.610
    2.577
    2.624
    2.759
    2.916
    2.996
    2.922
    2.693
    2.369
    2.021
    1.689
    1.390
    1.142
    0.981
    0.952
    1.075
    1.312
    1.574
    1.763
    1.822
    1.753
    1.595
    1.400
    1.214
    1.078
    1.015
    1.025
    1.068
    1.056
    0.883
    0.500
   -0.025
   -0.527
   -0.833
   -0.852
   -0.587
   -0.110
    0.481
    1.089
    1.634
    2.053
    2.293
    2.334
    2.203
    1.972
    1.716
    1.487
    1.300
    1.153
    1.039
    0.963
    0.949
    1.023
    1.189
    1.418
    1.659
    1.865
    1.995
    2.029
    1.968
    1.827
    1.609
    1.310
    0.934
    0.509
    0.076
   -0.322
   -0.651
   -0.879
   -0.969
   -0.879
   -0.580
   -0.080
    0.561
    1.268
    1.985
    2.676
    3.291
    3.743
    3.938
    3.821
    3.409
    2.793
    2.108
    1.470
    0.933
    0.486
    0.087
   -0.287
   -0.632
   -0.913
   -1.076
   -1.070
   -0.875
   -0.519
   -0.069
    0.383
    0.747
    0.969
    1.046
    1.002
    0.849
    0.563
    0.122
   -0.456
   -1.105
   -1.736
   -2.260
   -2.609
   -2.749
   -2.683
   -2.437
   -2.055
   -1.592
   -1.098
   -0.618
   -0.194
    0.121
    0.285
    0.311
    0.279
    0.302
    0.449
    0.705
    0.990
    1.215
    1.360
    1.488
    1.692
    2.000
    2.344
    2.616
    2.758
    2.797
    2.809
    2.842
    2.869
    2.800
    2.556
    2.141
    1.639
    1.148
    0.713
    0.319
   -0.074
   -0.487
   -0.906
   -1.279
   -1.543
   -1.666
   -1.672
   -1.619
   -1.557
   -1.502
   -1.445
   -1.371
   -1.286
   -1.225
   -1.233
   -1.327
   -1.480
   -1.650
   -1.809
   -1.947
   -2.044
   -2.073
   -2.005
   -1.831
   -1.566
   -1.242
   -0.899
   -0.575
   -0.304
   -0.113
   -0.014
    0.008
   -0.016
   -0.070
   -0.182
   -0.396
   -0.737
   -1.184
   -1.676
   -2.137
   -2.496
   -2.701
   -2.725
   -2.565
   -2.248
   -1.840
   -1.420
   -1.048
   -0.746
   -0.510
   -0.348
   -0.277
   -0.316
   -0.470
   -0.727
   -1.050
   -1.380
   -1.658
   -1.844
   -1.916
   -1.847
   -1.609
   -1.189
   -0.609
    0.073
    0.769
    1.385
    1.836
    2.071
    2.068
    1.837
    1.425
    0.904
    0.334
   -0.272
   -0.931
   -1.646
   -2.360
   -2.969
   -3.363
   -3.486
   -3.366
   -3.097
   -2.779
   -2.458
   -2.124
   -1.756
   -1.360
   -0.976
   -0.664
   -0.478
   -0.437
   -0.528
   -0.724
   -1.003
   -1.336
   -1.648
   -1.825
   -1.761
   -1.419
   -0.858
   -0.215
    0.354
    0.749
    0.958
    1.028
    0.995
    0.850
    0.556
    0.102
   -0.462
   -1.036
   -1.534
   -1.946
   -2.334
   -2.753
   -3.163
   -3.427
   -3.397
   -3.020
   -2.367
   -1.584
   -0.818
   -0.154
    0.394
    0.830
    1.140
    1.291
    1.276
    1.144
    0.976
    0.844
    0.786
    0.802
    0.860
    0.928
    0.987
    1.028
    1.020
    0.916
    0.677
    0.300
   -0.172
   -0.659
   -1.063
   -1.295
   -1.325
   -1.188
   -0.952
   -0.669
   -0.340
    0.071
    0.608
    1.280
    2.042
    2.809
    3.478
    3.948
    4.122
    3.940
    3.400
    2.568
    1.556
    0.492
   -0.514
   -1.390
   -2.103
   -2.626
   -2.911
   -2.909
   -2.623
   -2.133
   -1.562
   -1.023
   -0.589
   -0.275
   -0.065
    0.062
    0.108
    0.086
    0.052
    0.099
    0.290
    0.608
    0.970
    1.281
    1.477
    1.550
    1.534
    1.465
    1.349
    1.160
    0.879
    0.529
    0.164
   -0.161
