Origin Time       18/01/2011 20:23:27
Lat.              28.9 N	
Long.             64.0 E	
Depth (Km)          5.0
Magnitude         7.4
 Region           Southwestern-Pakistan                                            
 Above details taken from IMD 
     
Station Code       ZAKI
Station Lat.       28.640  N
Station Long.      77.230  E
Station Height(m)  101.0
Site Class        C   Vs30 between 200 m/sec to 375 m/sec *  
Record Time        1/2/1980  17:06:07.000
Sampling Rate     200. Hz
 Record Duration   74.000 Sec.
 Direction         E-W (E positive)
Max. Acceleration -11.316 cm/sec**2
     
  * For reference see Site Classification link of website 
     
 Base Line Corrected and Low Pass Filtered (Cut Off at 35 Hz) Time History
 Acceleration data in cm/sec**2
    
[...]
    1.062
    1.297
    1.429
    1.474
    1.491
    1.550
    1.685
    1.866
    2.002
    2.001
    1.839
    1.574
    1.317
    1.156
    1.111
    1.120
    1.086
    0.940
    0.695
    0.430
    0.226
    0.103
    0.008
   -0.132
   -0.353
   -0.620
   -0.863
   -1.019
   -1.078
   -1.076
   -1.080
   -1.157
   -1.340
   -1.594
   -1.822
   -1.911
   -1.814
   -1.588
   -1.372
   -1.307
   -1.443
   -1.694
   -1.885
   -1.869
   -1.629
   -1.284
   -0.998
   -0.857
   -0.822
   -0.758
   -0.539
   -0.146
    0.311
    0.662
    0.798
    0.743
    0.641
    0.663
    0.883
    1.226
    1.502
    1.546
    1.338
    1.032
    0.847
    0.910
    1.169
    1.426
    1.482
    1.280
    0.941
    0.673
    0.624
    0.787
    1.023
    1.167
    1.126
    0.919
    0.649
    0.420
    0.285
    0.231
    0.201
    0.130
   -0.020
   -0.236
   -0.452
   -0.589
   -0.613
   -0.569
   -0.552
   -0.641
   -0.847
   -1.112
   -1.345
   -1.476
   -1.480
   -1.381
   -1.227
   -1.072
   -0.961
   -0.908
   -0.890
   -0.846
   -0.724
   -0.535
   -0.365
   -0.310
   -0.403
   -0.568
   -0.679
   -0.668
   -0.574
   -0.510
   -0.556
   -0.686
   -0.782
   -0.724
   -0.479
   -0.121
    0.228
    0.484
    0.646
    0.775
    0.922
    1.096
    1.258
    1.362
    1.377
    1.311
    1.205
    1.105
    1.034
    0.981
    0.913
    0.802
    0.642
    0.459
    0.295
    0.183
    0.116
    0.048
   -0.067
   -0.241
   -0.439
   -0.609
   -0.720
   -0.788
   -0.859
   -0.975
   -1.128
   -1.268
   -1.335
   -1.303
   -1.189
   -1.037
   -0.882
   -0.736
   -0.588
   -0.435
   -0.307
   -0.243
   -0.250
   -0.294
   -0.326
   -0.327
   -0.315
   -0.321
   -0.354
   -0.383
   -0.349
   -0.194
    0.092
    0.457
    0.820
    1.113
    1.314
    1.443
    1.535
    1.599
    1.596
    1.466
    1.176
    0.763
    0.313
   -0.083
   -0.378
   -0.580
   -0.746
   -0.926
   -1.120
   -1.263
   -1.277
   -1.147
   -0.940
   -0.753
   -0.636
   -0.552
   -0.416
   -0.186
    0.074
    0.234
    0.180
   -0.093
   -0.491
   -0.884
   -1.189
   -1.404
   -1.579
   -1.756
   -1.912
   -1.972
   -1.874
   -1.625
   -1.304
   -0.996
   -0.736
   -0.494
   -0.209
    0.157
    0.576
    0.965
    1.238
    1.369
    1.396
    1.395
    1.419
    1.464
    1.477
    1.407
    1.261
    1.101
    0.994
    0.944
    0.897
    0.807
    0.691
    0.622
    0.653
    0.752
    0.809
    0.720
    0.478
    0.185
   -0.023
   -0.073
    0.001
    0.095
    0.120
    0.069
    0.028
    0.118
    0.402
    0.825
    1.242
    1.512
    1.587
    1.530
    1.443
    1.377
    1.282
    1.052
    0.623
    0.048
   -0.527
   -0.957
   -1.206
   -1.372
   -1.606
   -1.999
   -2.485
   -2.874
   -2.975
   -2.735
   -2.269
   -1.773
   -1.385
   -1.111
   -0.862
   -0.565
   -0.241
    0.008
    0.085
   -0.022
   -0.235
   -0.429
   -0.506
   -0.438
   -0.276
   -0.113
   -0.014
    0.043
    0.156
    0.417
    0.822
    1.255
    1.565
    1.673
    1.628
    1.567
    1.605
    1.750
    1.909
    1.972
    1.889
    1.689
    1.432
    1.161
    0.894
    0.627
    0.347
    0.029
   -0.348
   -0.785
   -1.240
   -1.639
   -1.913
   -2.039
   -2.044
   -1.996
   -1.966
   -1.983
   -2.000
   -1.919
   -1.665
   -1.249
   -0.766
   -0.335
   -0.029
    0.159
    0.297
    0.462
    0.680
    0.918
    1.106
    1.185
    1.140
    1.009
    0.888
    0.893
    1.092
    1.435
    1.770
    1.931
    1.861
    1.652
    1.482
    1.481
    1.626
    1.760
    1.707
    1.399
    0.911
    0.393
   -0.034
   -0.336
   -0.573
   -0.851
   -1.249
   -1.749
   -2.217
   -2.470
   -2.391
   -2.030
   -1.574
   -1.224
   -1.064
   -1.034
   -1.012
   -0.927
   -0.792
   -0.669
   -0.613
   -0.637
   -0.700
   -0.728
   -0.656
   -0.493
   -0.320
   -0.218
   -0.181
   -0.095
    0.175
    0.669
    1.287
    1.859
    2.269
    2.530
    2.743
    2.992
    3.265
    3.483
    3.573
    3.525
    3.375
    3.158
    2.881
    2.542
    2.163
    1.798
    1.497
    1.273
    1.087
    0.878
    0.606
    0.282
   -0.027
   -0.241
   -0.341
   -0.406
   -0.590
   -1.013
   -1.663
   -2.385
   -2.974
   -3.317
   -3.468
   -3.600
   -3.859
   -4.243
   -4.605
   -4.777
   -4.693
   -4.424
   -4.112
   -3.882
   -3.772
   -3.714
   -3.572
   -3.233
   -2.692
   -2.072
   -1.552
   -1.250
   -1.140
   -1.080
   -0.905
   -0.554
   -0.093
    0.346
    0.667
    0.868
    1.029
    1.251
    1.585
    1.983
    2.334
    2.547
    2.628
    2.668
    2.748
    2.857
    2.906
    2.832
    2.674
    2.545
    2.512
    2.520
    2.439
    2.183
    1.779
    1.332
    0.931
    0.593
    0.272
   -0.090
   -0.503
   -0.909
   -1.208
   -1.326
   -1.287
   -1.213
   -1.256
   -1.499
   -1.902
   -2.334
   -2.670
   -2.881
   -3.030
   -3.201
   -3.406
   -3.570
   -3.587
   -3.391
   -3.010
   -2.551
   -2.139
   -1.838
   -1.607
   -1.346
   -0.987
   -0.558
   -0.162
    0.116
    0.278
    0.416
    0.626
    0.933
    1.286
    1.638
    2.011
    2.483
    3.102
    3.816
    4.478
    4.934
    5.103
    5.016
    4.780
    4.499
    4.206
    3.863
    3.398
    2.757
    1.962
    1.126
    0.405
   -0.113
   -0.486
   -0.879
   -1.426
   -2.104
   -2.735
   -3.109
   -3.150
   -2.979
   -2.811
   -2.778
   -2.822
   -2.766
   -2.475
   -1.981
   -1.451
   -1.068
   -0.887
   -0.800
   -0.621
   -0.235
    0.299
    0.806
    1.148
    1.343
    1.541
    1.891
    2.405
    2.947
    3.341
    3.494
    3.450
    3.341
    3.288
    3.329
    3.411
    3.437
    3.332
    3.117
    2.902
    2.802
    2.835
    2.887
    2.792
    2.454
    1.911
    1.291
    0.719
    0.248
   -0.150
   -0.534
   -0.945
   -1.383
   -1.808
   -2.169
   -2.449
   -2.685
   -2.946
   -3.259
   -3.573
   -3.790
   -3.849
   -3.778
   -3.680
   -3.652
   -3.716
   -3.800
   -3.787
   -3.583
   -3.174
   -2.610
   -1.970
   -1.307
   -0.633
    0.056
    0.737
    1.338
    1.765
    1.974
    2.008
    1.981
    1.993
    2.067
    2.155
    2.180
    2.099
    1.935
    1.770
    1.696
    1.754
    1.902
    2.039
    2.087
    2.057
    2.063
    2.243
    2.640
    3.147
    3.565
    3.735
    3.642
    3.405
    3.179
    3.034
    2.903
    2.625
    2.062
    1.193
    0.135
   -0.939
   -1.903
   -2.729
   -3.467
   -4.176
   -4.867
   -5.487
   -5.961
   -6.239
   -6.329
   -6.280
   -6.146
   -5.963
   -5.733
   -5.417
   -4.956
   -4.310
   -3.485
   -2.540
   -1.564
   -0.648
    0.140
    0.787
    1.337
    1.866
    2.434
    3.035
    3.600
    4.040
    4.308
    4.429
    4.473
    4.505
    4.559
    4.640
    4.734
    4.783
    4.700
    4.411
    3.904
    3.233
    2.472
    1.681
    0.891
    0.123
   -0.591
   -1.199
   -1.648
   -1.919
   -2.048
   -2.105
   -2.162
   -2.247
   -2.351
   -2.457
   -2.579
   -2.779
   -3.133
   -3.658
   -4.275
   -4.818
   -5.121
   -5.102
   -4.798
   -4.329
   -3.814
   -3.304
   -2.762
   -2.114
   -1.324
   -0.450
    0.377
    1.028
    1.474
    1.814
    2.199
    2.728
    3.373
    3.998
    4.445
    4.626
    4.578
    4.435
    4.338
    4.334
    4.349
    4.249
    3.929
    3.380
    2.693
    2.013
    1.464
    1.067
    0.731
    0.315
   -0.267
   -0.969
   -1.651
   -2.174
   -2.501
   -2.718
   -2.962
   -3.310
   -3.711
   -4.030
   -4.147
   -4.041
   -3.777
   -3.450
   -3.110
   -2.751
   -2.332
   -1.836
   -1.284
   -0.722
   -0.194
    0.267
    0.626
    0.844
    0.893
    0.777
    0.538
    0.226
   -0.131
   -0.524
   -0.933
   -1.297
   -1.531
   -1.593
   -1.516
   -1.382
   -1.256
   -1.153
   -1.056
   -0.947
   -0.816
   -0.657
   -0.468
   -0.260
   -0.047
    0.170
    0.418
    0.728
    1.091
    1.441
    1.678
    1.720
    1.551
    1.219
    0.815
    0.428
    0.101
   -0.181
   -0.463
   -0.763
   -1.043
   -1.221
   -1.222
   -1.011
   -0.614
   -0.101
    0.431
    0.887
    1.214
    1.421
    1.567
    1.709
    1.837
    1.853
    1.637
    1.148
    0.473
   -0.232
   -0.848
   -1.361
   -1.835
   -2.338
   -2.868
   -3.332
   -3.600
   -3.581
   -3.288
   -2.825
   -2.335
   -1.920
   -1.597
   -1.302
   -0.933
   -0.423
    0.206
    0.844
    1.353
    1.641
    1.727
    1.733
    1.796
    1.964
    2.164
    2.284
    2.286
    2.242
    2.254
    2.355
    2.478
    2.518
    2.398
    2.104
    1.666
    1.130
    0.531
   -0.107
   -0.781
   -1.499
   -2.270
   -3.064
   -3.805
   -4.384
   -4.708
   -4.731
   -4.466
   -3.973
   -3.344
   -2.664
   -1.966
   -1.224
   -0.397
    0.509
    1.420
    2.240
    2.900
    3.380
    3.685
    3.829
    3.849
    3.820
    3.825
    3.890
    3.974
    4.041
    4.130
    4.341
    4.732
    5.252
    5.760
    6.117
    6.250
    6.151
    5.836
    5.322
    4.629
    3.810
    2.961
    2.200
    1.613
    1.204
    0.887
    0.523
   -0.020
   -0.814
   -1.845
   -3.044
   -4.316
   -5.565
   -6.705
   -7.673
   -8.449
   -9.031
   -9.393
   -9.450
   -9.086
   -8.240
   -6.963
   -5.417
   -3.807
   -2.306
   -1.003
    0.089
    1.010
    1.806
    2.505
    3.104
    3.580
    3.934
    4.205
    4.457
    4.742
    5.074
    5.435
    5.770
    5.999
    6.034
    5.824
    5.387
    4.817
    4.216
    3.627
    3.009
    2.295
    1.486
    0.694
    0.094
   -0.203
   -0.239
   -0.188
   -0.224
   -0.412
   -0.698
   -0.975
   -1.170
   -1.279
   -1.352
   -1.439
   -1.551
   -1.654
   -1.711
   -1.731
   -1.760
   -1.842
   -1.968
   -2.073
   -2.088
   -1.984
   -1.802
   -1.617
   -1.482
   -1.375
   -1.189
   -0.789
   -0.099
    0.841
    1.904
    2.955
    3.927
    4.825
    5.667
    6.425
    7.012
    7.334
    7.339
    7.031
    6.423
    5.516
    4.338
    2.996
    1.668
    0.516
   -0.400
   -1.159
   -1.924
   -2.840
   -3.916
   -4.993
   -5.834
   -6.287
   -6.404
   -6.403
   -6.506
   -6.783
   -7.113
   -7.282
   -7.141
   -6.704
   -6.136
   -5.634
   -5.290
   -5.044
   -4.745
   -4.277
   -3.651
   -3.005
   -2.494
   -2.173
   -1.962
   -1.732
   -1.431
   -1.110
   -0.847
   -0.656
   -0.458
   -0.164
    0.232
    0.639
    0.954
    1.166
    1.378
    1.698
    2.119
    2.488
    2.608
    2.386
    1.905
    1.382
    1.027
    0.897
    0.869
    0.746
    0.416
   -0.064
   -0.517
   -0.784
   -0.815
   -0.676
   -0.460
   -0.212
    0.088
    0.471
    0.912
    1.305
    1.523
    1.500
    1.280
    0.992
    0.746
    0.552
    0.325
   -0.025
   -0.499
   -1.000
   -1.423
   -1.752
   -2.089
   -2.569
   -3.249
   -4.056
   -4.835
   -5.457
   -5.891
   -6.189
   -6.416
   -6.582
   -6.625
   -6.448
   -5.999
   -5.314
   -4.501
   -3.655
   -2.801
   -1.908
   -0.947
    0.078
    1.134
    2.181
    3.184
    4.108
    4.911
    5.537
    5.929
    6.050
    5.897
    5.488
    4.851
    4.033
    3.110
    2.167
    1.270
    0.457
   -0.252
   -0.850
   -1.339
   -1.708
   -1.897
   -1.825
   -1.462
   -0.883
   -0.244
    0.304
    0.694
    0.954
    1.162
    1.368
    1.563
    1.716
    1.848
    2.068
    2.511
    3.211
    4.025
    4.680
    4.928
    4.694
    4.107
    3.392
    2.694
    1.992
    1.162
    0.132
   -1.017
   -2.078
   -2.855
   -3.298
   -3.526
   -3.730
   -4.022
   -4.357
   -4.592
   -4.621
   -4.470
   -4.289
   -4.245
   -4.388
   -4.606
   -4.688
   -4.462
   -3.898
   -3.108
   -2.253
   -1.429
   -0.639
    0.157
    0.943
    1.620
    2.059
    2.208
    2.146
    2.033
    1.995
    2.035
    2.062
    2.010
    1.935
    2.000
    2.353
    3.018
    3.866
    4.717
    5.453
    6.083
    6.709
    7.420
    8.218
    9.011
    9.685
   10.156
   10.363
   10.236
    9.685
    8.645
    7.152
    5.364
    3.522
    1.832
    0.359
   -1.000
   -2.398
   -3.867
   -5.231
   -6.203
   -6.581
   -6.402
   -5.911
   -5.399
   -5.020
   -4.738
   -4.422
   -3.979
   -3.424
   -2.830
   -2.241
   -1.637
   -0.965
   -0.198
    0.636
    1.458
    2.180
    2.741
    3.101
    3.218
    3.055
    2.616
    1.974
    1.256
    0.583
    0.018
   -0.442
   -0.831
   -1.154
   -1.361
   -1.376
   -1.165
   -0.786
   -0.372
   -0.068
    0.020
   -0.144
   -0.531
   -1.063
   -1.638
   -2.147
   -2.486
   -2.580
   -2.421
   -2.087
   -1.701
   -1.343
   -0.976
   -0.463
    0.314
    1.332
    2.412
    3.347
    4.054
    4.618
    5.173
    5.734
    6.140
    6.163
    5.690
    4.844
    3.945
    3.320
    3.102
    3.165
    3.239
    3.114
    2.774
    2.380
    2.131
    2.116
    2.271
    2.450
    2.545
    2.534
    2.420
    2.152
    1.613
    0.696
   -0.608
   -2.189
   -3.863
   -5.434
   -6.726
   -7.602
   -7.974
   -7.825
   -7.217
   -6.264
   -5.077
   -3.735
   -2.291
   -0.798
    0.676
    2.045
    3.192
    3.983
    4.309
    4.158
    3.660
    3.040
    2.515
    2.191
    2.031
    1.935
    1.840
    1.776
    1.831
    2.070
    2.458
    2.867
    3.119
    3.083
    2.753
    2.240
    1.668
    1.054
    0.300
   -0.693
   -1.908
   -3.199
   -4.394
   -5.398
   -6.208
   -6.855
   -7.351
   -7.680
   -7.832
   -7.823
   -7.668
   -7.344
   -6.795
   -5.974
   -4.901
   -3.667
   -2.411
   -1.251
   -0.230
    0.703
    1.644
    2.642
    3.639
    4.503
    5.141
    5.589
    5.980
    6.421
    6.893
    7.277
    7.488
    7.551
    7.559
    7.541
    7.410
    7.025
    6.312
    5.333
    4.241
    3.160
    2.091
    0.925
   -0.445
   -2.007
   -3.633
   -5.187
   -6.620
   -7.957
   -9.196
  -10.239
  -10.950
  -11.276
  -11.316
  -11.247
  -11.163
  -10.977
  -10.486
   -9.543
   -8.176
   -6.583
   -5.007
   -3.616
   -2.448
   -1.424
   -0.421
    0.647
    1.774
    2.873
    3.837
    4.617
    5.243
    5.789
    6.277
    6.620
    6.647
    6.218
    5.333
    4.164
    2.978
    2.010
    1.347
    0.909
    0.538
    0.149
   -0.169
   -0.210
    0.183
    0.953
    1.808
    2.387
    2.479
    2.131
    1.564
    0.984
    0.464
   -0.030
   -0.544
   -1.071
   -1.553
   -1.938
   -2.227
   -2.472
   -2.721
   -2.968
   -3.157
   -3.240
   -3.215
   -3.099
   -2.885
   -2.519
   -1.951
   -1.191
   -0.332
    0.497
    1.212
    1.804
    2.303
    2.698
    2.912
    2.864
    2.553
    2.081
    1.587
    1.171
    0.859
    0.636
    0.512
    0.532
    0.730
    1.044
    1.306
    1.330
    1.056
    0.597
    0.146
   -0.190
   -0.497
   -1.001
   -1.885
   -3.132
   -4.509
   -5.690
   -6.428
   -6.652
   -6.452
   -5.977
   -5.342
   -4.600
   -3.778
   -2.935
   -2.182
   -1.652
   -1.425
   -1.471
   -1.639
   -1.715
   -1.535
   -1.084
   -0.517
   -0.052
    0.185
    0.262
    0.392
    0.756
    1.330
    1.857
    1.997
    1.552
    0.607
   -0.518
   -1.448
   -1.964
   -2.113
   -2.147
   -2.328
   -2.719
   -3.122
   -3.222
   -2.819
   -1.988
   -1.027
   -0.256
    0.192
    0.435
    0.732
    1.287
    2.110
    3.015
    3.739
    4.100
    4.087
    3.849
    3.586
    3.424
    3.353
    3.245
    2.954
    2.425
    1.745
    1.080
    0.563
    0.208
   -0.064
   -0.327
   -0.579
   -0.760
   -0.838
   -0.860
   -0.913
   -1.042
   -1.210
   -1.353
   -1.478
   -1.693
   -2.105
   -2.688
   -3.241
   -3.513
   -3.383
   -2.958
   -2.496
   -2.215
   -2.132
   -2.055
   -1.732
   -1.039
   -0.063
    0.972
    1.862
    2.528
    3.025
    3.459
    3.894
    4.314
    4.629
    4.728
    4.504
    3.874
    2.801
    1.348
   -0.302
   -1.890
   -3.194
   -4.125
   -4.718
   -5.040
   -5.095
   -4.829
   -4.215
   -3.362
   -2.510
   -1.917
   -1.701
   -1.787
   -1.983
   -2.132
   -2.211
   -2.296
   -2.452
   -2.651
   -2.768
   -2.665
   -2.266
   -1.589
   -0.717
    0.260
    1.284
    2.335
    3.396
    4.418
    5.312
    5.973
    6.321
    6.350
    6.130
    5.755
    5.263
    4.605
    3.714
    2.626
    1.517
    0.620
    0.079
   -0.145
   -0.240
   -0.422
   -0.788
   -1.260
   -1.654
   -1.830
   -1.794
   -1.669
   -1.568
   -1.483
   -1.290
   -0.854
   -0.154
    0.664
    1.341
    1.648
    1.518
    1.077
    0.531
    0.023
   -0.438
   -0.932
   -1.510
   -2.109
   -2.548
   -2.622
   -2.236
   -1.487
   -0.622
    0.111
    0.580
    0.809
    0.914
    1.018
    1.193
    1.448
    1.739
    2.022
    2.289
    2.584
    2.963
    3.431
    3.903
    4.224
    4.250
    3.928
    3.319
    2.563
    1.801
    1.121
    0.539
    0.025
   -0.447
   -0.873
   -1.217
   -1.422
   -1.428
   -1.185
   -0.682
    0.032
    0.855
    1.667
    2.379
    2.957
    3.411
    3.751
    3.957
    3.987
    3.810
    3.442
    2.959
    2.485
    2.150
    2.028
    2.086
    2.202
    2.233
    2.095
    1.799
    1.429
    1.067
    0.720
    0.308
   -0.261
   -0.999
   -1.792
   -2.461
   -2.861
   -2.952
   -2.804
   -2.532
   -2.205
   -1.794
   -1.224
   -0.481
    0.336
    1.076
    1.659
    2.133
    2.636
    3.275
    4.033
    4.760
    5.262
    5.430
    5.287
    4.929
    4.411
    3.680
    2.612
    1.131
   -0.688
   -2.600
   -4.304
   -5.594
   -6.442
   -6.957
   -7.267
   -7.434
   -7.434
   -7.201
   -6.697
   -5.965
   -5.143
   -4.420
   -3.949
   -3.757
   -3.716
   -3.605
   -3.256
   -2.663
   -1.959
   -1.286
   -0.669
   -0.015
    0.789
    1.780
    2.897
    4.033
    5.091
    6.009
    6.746
    7.259
    7.510
    7.486
    7.211
    6.735
    6.096
    5.308
    4.368
    3.303
    2.203
    1.211
    0.459
   -0.024
   -0.338
   -0.658
   -1.109
   -1.685
   -2.276
   -2.783
   -3.226
   -3.730
   -4.399
   -5.189
   -5.926
   -6.433
   -6.663
   -6.702
   -6.661
   -6.579
   -6.426
   -6.165
   -5.820
   -5.470
   -5.187
   -4.978
   -4.769
   -4.460
   -3.965
   -3.237
   -2.276
   -1.142
    0.053
    1.186
    2.168
    2.950
    3.511
    3.838
    3.953
    3.913
    3.782
    3.588
    3.332
    3.056
    2.882
    2.960
    3.334
    3.860
    4.279
    4.403
    4.277
    4.152
    4.294
    4.762
    5.344
    5.701
    5.605
    5.082
    4.353
    3.652
    3.051
    2.442
    1.668
    0.671
   -0.458
   -1.554
   -2.488
   -3.215
   -3.744
   -4.085
   -4.233
   -4.211
   -4.112
   -4.057
   -4.085
   -4.083
   -3.861
   -3.328
   -2.627
   -2.066
   -1.897
   -2.098
   -2.393
   -2.474
   -2.253
   -1.901
   -1.656
   -1.596
   -1.586
   -1.418
   -1.010
   -0.473
   -0.011
    0.245
    0.323
    0.343
    0.400
    0.499
    0.599
    0.683
    0.784
    0.942
    1.148
    1.324
    1.374
    1.263
    1.063
    0.893
    0.809
    0.753
    0.605
    0.297
   -0.126
   -0.545
   -0.854
   -1.015
   -1.043
   -0.963
   -0.789
   -0.557
   -0.352
   -0.260
   -0.289
   -0.345
   -0.322
   -0.215
   -0.141
   -0.240
   -0.539
   -0.919
   -1.219
   -1.373
   -1.445
   -1.541
   -1.671
   -1.716
   -1.521
   -1.037
   -0.373
    0.281
    0.791
    1.166
    1.510
    1.902
    2.313
    2.631
    2.773
    2.752
    2.667
    2.637
    2.733
    2.953
    3.228
    3.460
    3.578
    3.574
    3.487
    3.362
    3.202
    2.971
    2.623
    2.146
    1.558
    0.861
    0.021
   -1.004
   -2.215
   -3.535
   -4.837
   -5.982
   -6.871
   -7.467
   -7.790
   -7.883
   -7.780
   -7.497
   -7.045
   -6.438
   -5.688
   -4.790
   -3.749
   -2.638
   -1.600
   -0.771
   -0.178
    0.295
    0.794
    1.343
    1.798
    1.980
    1.876
    1.702
    1.755
    2.181
